[
  {
    "name": "2-Rad-Fachhandel Benker",
    "adresse": "Bahnhofstrasse 57, 7302 Landquart",
    "plz": "7302",
    "marken": [],
    "lat": 46.968601500000005,
    "lon": 9.5622841185405
  },
  {
    "name": "Aare Touring Garage AG",
    "adresse": "Steinachermattweg 1, 5033 Buchs AG",
    "plz": "5033",
    "marken": [],
    "lat": 47.3963502,
    "lon": 8.0726927
  },
  {
    "name": "Aaretal Garage AG MÃ¼nsingen",
    "adresse": "Bernstrasse 91-93, 3110 MÃ¼nsingen",
    "plz": "3110",
    "marken": [],
    "lat": 46.8869099,
    "lon": 7.5548977
  },
  {
    "name": "ABAG Nutzfahrzeuge AG",
    "adresse": "HÃ¼hnerhubelstrasse 87, 3123 Belp",
    "plz": "3123",
    "marken": [],
    "lat": 46.90589505,
    "lon": 7.492974815973506
  },
  {
    "name": "ABAG Nutzfahrzeuge AG",
    "adresse": "Zelgstrasse 87, 3661 Uetendorf",
    "plz": "3661",
    "marken": [],
    "lat": 46.78032505,
    "lon": 7.594042597413775
  },
  {
    "name": "ABATRAG AG",
    "adresse": "LÃ¤ngfeldweg 111, 2504 Biel/Bienne",
    "plz": "2504",
    "marken": [],
    "lat": 47.155995950000005,
    "lon": 7.289546549999996
  },
  {
    "name": "Abt Automobile AG Zweigniederlassung Muttenz",
    "adresse": "St. Jakob-Strasse 72, 4132 Muttenz",
    "plz": "4132",
    "marken": [],
    "lat": 47.5310471,
    "lon": 7.638529104416563
  },
  {
    "name": "Abt Automobile AG",
    "adresse": "Lausenerstrasse 11, 4410 Liestal",
    "plz": "4410",
    "marken": [],
    "lat": 47.4768148,
    "lon": 7.747570631950195
  },
  {
    "name": "Abt Automobile AG",
    "adresse": "Aumattstrasse 144, 4153 Reinach BL",
    "plz": "4153",
    "marken": [],
    "lat": 47.4901785,
    "lon": 7.5974339
  },
  {
    "name": "AC Alu-Car Garagen AG",
    "adresse": "Faden 1, 6374 Buochs",
    "plz": "6374",
    "marken": [],
    "lat": 46.96846095,
    "lon": 8.404172599999999
  },
  {
    "name": "ACM Autocentre Moutier SA",
    "adresse": "rue des Gorges 18, 2740 Moutier",
    "plz": "2740",
    "marken": [],
    "lat": 47.28210905,
    "lon": 7.380748836676714
  },
  {
    "name": "ACW Auto-Center Visp AG",
    "adresse": "Kantonsstrasse 6, 3930 Eyholz",
    "plz": "3930",
    "marken": [],
    "lat": 46.2938963,
    "lon": 7.905186642470602
  },
  {
    "name": "Garage Adank Chur AG",
    "adresse": "Emserstrasse 2, 7000 Chur",
    "plz": "7000",
    "marken": [],
    "lat": 46.84616685,
    "lon": 9.506588085984326
  },
  {
    "name": "Aebi Auto AG",
    "adresse": "Bernstrasse 38, 3250 Lyss",
    "plz": "3250",
    "marken": [],
    "lat": 47.0679388,
    "lon": 7.315775290125329
  },
  {
    "name": "Sport-Garage Affentranger AG Affentranger Marcel",
    "adresse": "Langenthalstrasse 57, 4932 Lotzwil",
    "plz": "4932",
    "marken": [],
    "lat": 47.195601800000006,
    "lon": 7.788608532821242
  },
  {
    "name": "AHG-Cars Avenches SA",
    "adresse": "Route de Berne 6, 1580 Avenches",
    "plz": "1580",
    "marken": [],
    "lat": 46.88307445,
    "lon": 7.045705118263619
  },
  {
    "name": "AHG-Cars Biel",
    "adresse": "BÃ¶zingenstrasse 100, 2502 Biel/Bienne",
    "plz": "2502",
    "marken": [],
    "lat": 47.150132,
    "lon": 7.2626213
  },
  {
    "name": "AHG-Cars Bulle SA",
    "adresse": "Rue de Vevey 82, 1630 Bulle",
    "plz": "1630",
    "marken": [],
    "lat": 46.6156162,
    "lon": 7.0520392
  },
  {
    "name": "AHG-Cars Fribourg SA",
    "adresse": "route de Villars-Vert 9, 1752 Villars-sur-GlÃ¢ne",
    "plz": "1752",
    "marken": [],
    "lat": 46.798612,
    "lon": 7.128785699496746
  },
  {
    "name": "AHG-Cars Kerzers AG",
    "adresse": "Murtenstrasse 38, 3210 Kerzers",
    "plz": "3210",
    "marken": [],
    "lat": 46.9683171,
    "lon": 7.189982097117811
  },
  {
    "name": "AHG-Cars Murten AG Zweigniederlassung Laupen AHG-Cars Laupen",
    "adresse": "Neueneggstrasse 10, 3177 Laupen BE",
    "plz": "3177",
    "marken": [],
    "lat": 46.9008765,
    "lon": 7.24493863918609
  },
  {
    "name": "AHG-Cars Port AG",
    "adresse": "Moosgasse 16, 2562 Port",
    "plz": "2562",
    "marken": [],
    "lat": 47.11826045,
    "lon": 7.252769963038461
  },
  {
    "name": "AHG-Cars Tafers SA",
    "adresse": "Mariahilfstrasse 1, 1712 Tafers",
    "plz": "1712",
    "marken": [],
    "lat": 46.8154632,
    "lon": 7.215495567269775
  },
  {
    "name": "AHG-Cars WÃ¼nnewil AG",
    "adresse": "Dorfstrasse 2, 3184 WÃ¼nnewil",
    "plz": "3184",
    "marken": [],
    "lat": 46.875166,
    "lon": 7.279555157150972
  },
  {
    "name": "Airport-Garage Geronimi SA",
    "adresse": "Cho d'Punt Dadour 83, 7503 Samedan",
    "plz": "7503",
    "marken": [],
    "lat": 46.5301418,
    "lon": 9.874005937117904
  },
  {
    "name": "Albis-Garage Schaub Schaub Daniel",
    "adresse": "Industriestrasse 20, 8910 Affoltern am Albis",
    "plz": "8910",
    "marken": [],
    "lat": 47.27123255,
    "lon": 8.444241264316972
  },
  {
    "name": "Alcardis Automobile AG",
    "adresse": "Worblaufenstrasse 4, 3048 Worblaufen",
    "plz": "3048",
    "marken": [],
    "lat": 46.9770496659575,
    "lon": 7.4658744813792755
  },
  {
    "name": "Garage Allemann AG",
    "adresse": "Schichtstrasse 1, 4528 Zuchwil",
    "plz": "4528",
    "marken": [],
    "lat": 47.2102573,
    "lon": 7.5572691
  },
  {
    "name": "Allmend Automobile AG",
    "adresse": "Zwirnerstrasse 316, 8041 ZÃ¼rich",
    "plz": "8041",
    "marken": [],
    "lat": 47.33605985,
    "lon": 8.517557102156026
  },
  {
    "name": "Alternative Cars S.A.",
    "adresse": "Avenue de Grandson 72, 1400 Yverdon-les-Bains",
    "plz": "1400",
    "marken": [],
    "lat": 46.79055505,
    "lon": 6.6291340924990685
  },
  {
    "name": "AMAG First AG Porsche Zentrum ZÃ¼rich",
    "adresse": "Bernstrasse 59, 8952 Schlieren",
    "plz": "8952",
    "marken": [],
    "lat": 47.40023235,
    "lon": 8.4657925
  },
  {
    "name": "AMAG Automobiles et Moteurs SA Succursale Retail Prangins Centre Audi",
    "adresse": "Route de Lausanne 114, 1197 Prangins",
    "plz": "1197",
    "marken": [],
    "lat": 46.3909986,
    "lon": 6.2511229953425484
  },
  {
    "name": "AMAG Automobil und Motoren AG Zweigniederlassung Retail Aarau",
    "adresse": "Rohrerstrasse 29, 5000 Aarau",
    "plz": "5000",
    "marken": [],
    "lat": 47.395159250000006,
    "lon": 8.057839525991394
  },
  {
    "name": "AMAG Automobil und Motoren AG Zweigniederlassung Retail Altstetten",
    "adresse": "Vulkanstrasse 120, 8048 ZÃ¼rich",
    "plz": "8048",
    "marken": [],
    "lat": 47.3940505,
    "lon": 8.4820011
  },
  {
    "name": "AMAG Automobil und Motoren AG Zweigniederlassung Retail Autowelt ZÃ¼rich",
    "adresse": "Giessenstrasse 4, 8600 DÃ¼bendorf",
    "plz": "8600",
    "marken": [],
    "lat": 47.4020992,
    "lon": 8.609658910468216
  },
  {
    "name": "AMAG Automobil und Motoren AG Zweigniederlassung Retail Badenerstrasse",
    "adresse": "Badenerstrasse 329, 8003 ZÃ¼rich",
    "plz": "8003",
    "marken": [],
    "lat": 47.3775378,
    "lon": 8.511578
  },
  {
    "name": "AMAG Automobil und Motoren AG Zweigniederlassung Retail Basel",
    "adresse": "Reinacherstrasse 149/151, 4053 Basel",
    "plz": "4053",
    "marken": [],
    "lat": 47.53970042126476,
    "lon": 7.603035602538693
  },
  {
    "name": "AMAG Automobil und Motoren AG Zweigniederlassung Basel Audi Center",
    "adresse": "Reinacherstrasse 149, 4053 Basel",
    "plz": "4053",
    "marken": [],
    "lat": 47.5348729,
    "lon": 7.6048675
  },
  {
    "name": "AMAG Automobili e Motori SA Succursale Retail di Bellinzona",
    "adresse": "Via San Gottardo 71, 6500 Bellinzona",
    "plz": "6500",
    "marken": [],
    "lat": 46.2054012,
    "lon": 9.035848888849998
  },
  {
    "name": "AMAG Automobil und Motoren AG Zweigniederlassung Retail Bern Wankdorf",
    "adresse": "Wankdorffeldstrasse 60, 3014 Bern",
    "plz": "3014",
    "marken": [],
    "lat": 46.9656943,
    "lon": 7.4670871
  },
  {
    "name": "AMAG Automobil und Motoren AG Zweigniederlassung Retail BeromÃ¼nster",
    "adresse": "Aargauerstrasse 13, 6215 BeromÃ¼nster",
    "plz": "6215",
    "marken": [],
    "lat": 47.20894695,
    "lon": 8.190991238442464
  },
  {
    "name": "AMAG Automobil und Motoren AG Zweigniederlassung Retail Biel LÃ¤ngfeldweg",
    "adresse": "LÃ¤ngfeldweg 118, 2504 Biel/Bienne",
    "plz": "2504",
    "marken": [],
    "lat": 47.15334705,
    "lon": 7.285130500000006
  },
  {
    "name": "AMAG Automobili e Motori SA Succursale Retail di Breganzona Centro Audi",
    "adresse": "via San Carlo 6, 6932 Breganzona",
    "plz": "6932",
    "marken": [],
    "lat": 46.0131551,
    "lon": 8.931315999999999
  },
  {
    "name": "AMAG Automobil und Motoren AG Zweigniederlassung Retail Biel",
    "adresse": "RÃ¶merstrasse 16, 2555 BrÃ¼gg BE",
    "plz": "2555",
    "marken": [],
    "lat": 47.121744,
    "lon": 7.261137840721355
  },
  {
    "name": "AMAG Automobil und Motoren AG Zweigniederlassung Retail Buchrain",
    "adresse": "Elsihof 1, 6035 Perlen",
    "plz": "6035",
    "marken": [],
    "lat": 47.1069759,
    "lon": 8.353707569162388
  },
  {
    "name": "AMAG Automobil und Motoren AG Zweigniederlassung Retail BÃ¼lach",
    "adresse": "BÃ¤chliwis 29, 8184 BachenbÃ¼lach",
    "plz": "8184",
    "marken": [],
    "lat": 47.5078468,
    "lon": 8.543466174782292
  },
  {
    "name": "AMAG Automobiles et Moteurs SA Succursale Retail Bulle",
    "adresse": "rue de Vuippens 55, 1630 Bulle",
    "plz": "1630",
    "marken": [],
    "lat": 46.62789495,
    "lon": 7.060406748815647
  },
  {
    "name": "AMAG Automobiles et Moteurs SA Succursale Retail Carouge",
    "adresse": "chemin de la Marbrerie 8, 1227 Carouge",
    "plz": "1227",
    "marken": [],
    "lat": 46.179108,
    "lon": 6.135440575813399
  },
  {
    "name": "AMAG Automobil und Motoren AG Zweigniederlassung Retail Zug",
    "adresse": "Alte Steinhauserstrasse 1, 6330 Cham",
    "plz": "6330",
    "marken": [],
    "lat": 47.1865003,
    "lon": 8.4739032
  },
  {
    "name": "AMAG Automobiles et Moteurs SA Succursale Retail ChÃ¢telaine",
    "adresse": "Chemin J.-Ph. De-Sauvage 44-46, 1219 ChÃ¢telaine",
    "plz": "1219",
    "marken": [],
    "lat": 46.21367318171051,
    "lon": 6.10321150736455
  },
  {
    "name": "AMAG Automobil und Motoren AG Zweigniederlassung Retail Chur",
    "adresse": "Rossbodenstrasse 14-19, 7000 Chur",
    "plz": "7000",
    "marken": [],
    "lat": 46.85108238114653,
    "lon": 9.504796984470692
  },
  {
    "name": "AMAG Automobili e Motori SA Succursale Retail di Coldrerio",
    "adresse": "Via San Gottardo 52, 6877 Coldrerio",
    "plz": "6877",
    "marken": [],
    "lat": 45.8577362,
    "lon": 8.9861793
  },
  {
    "name": "AMAG Automobiles et Moteurs SA Succursale Retail Crissier",
    "adresse": "Rue de la Vernie 2, 1023 Crissier",
    "plz": "1023",
    "marken": [],
    "lat": 46.54362145,
    "lon": 6.571714096701429
  },
  {
    "name": "AMAG Automobil und Motoren AG Zweigniederlassung Retail Davos",
    "adresse": "Talstrasse 22, 7270 Davos Platz",
    "plz": "7270",
    "marken": [],
    "lat": 46.7953859,
    "lon": 9.824810297271616
  },
  {
    "name": "AMAG Automobil und Motoren AG Zweigniederlassung Retail Dulliken",
    "adresse": "Bodenackerstrasse 61, 4657 Dulliken",
    "plz": "4657",
    "marken": [],
    "lat": 47.350824200000005,
    "lon": 7.953822077604169
  },
  {
    "name": "AMAG Automobil und Motoren AG Zweigniederlassung Retail Emmen",
    "adresse": "MooshÃ¼slistrasse 32, 6032 Emmen",
    "plz": "6032",
    "marken": [],
    "lat": 47.07842385,
    "lon": 8.290448318710064
  },
  {
    "name": "AMAG Automobiles et Moteurs SA Succursale Retail Etoy",
    "adresse": "Route de Buchillon 1, 1163 Etoy",
    "plz": "1163",
    "marken": [],
    "lat": 46.47353505,
    "lon": 6.414028934925258
  },
  {
    "name": "AMAG Automobil und Motoren AG Zweigniederlassung Retail Fislisbach",
    "adresse": "Winkelstrasse 2, 5442 Fislisbach",
    "plz": "5442",
    "marken": [],
    "lat": 47.4416483,
    "lon": 8.2956752
  },
  {
    "name": "AMAG Automobil und Motoren AG Zweigniederlassung Retail Frauenfeld",
    "adresse": "ZÃ¼rcherstrasse 331, 8500 Frauenfeld",
    "plz": "8500",
    "marken": [],
    "lat": 47.5666715,
    "lon": 8.912403271483804
  },
  {
    "name": "AMAG Automobiles et Moteurs SA Succursale Retail Fribourg",
    "adresse": "Route de Villars 103-106, 1701 Fribourg",
    "plz": "1701",
    "marken": [],
    "lat": 46.80089195135172,
    "lon": 7.142988215561818
  },
  {
    "name": "AMAG Automobili e Motori SA Succursale Retail di Giubiasco Centro Audi",
    "adresse": "Via Bellinzona 37, 6512 Giubiasco",
    "plz": "6512",
    "marken": [],
    "lat": 46.173888541193925,
    "lon": 9.010764299096444
  },
  {
    "name": "AMAG Automobili e Motori SA Succursale Retail di Giubiasco Centro Skoda",
    "adresse": "Via Bellinzona 20, 6512 Giubiasco",
    "plz": "6512",
    "marken": [],
    "lat": 46.173888541193925,
    "lon": 9.010764299096444
  },
  {
    "name": "AMAG Automobil und Motoren AG Zweigniederlassung Retail GÃ¼mligen",
    "adresse": "Worbstrasse 226, 3073 GÃ¼mligen",
    "plz": "3073",
    "marken": [],
    "lat": 46.93290845,
    "lon": 7.506158179209031
  },
  {
    "name": "AMAG Automobil und Motoren AG Zweigniederlassung Retail Heerbrugg",
    "adresse": "Auerstrasse 20, 9435 Heerbrugg",
    "plz": "9435",
    "marken": [],
    "lat": 47.41357515,
    "lon": 9.630651584397086
  },
  {
    "name": "AMAG Automobil und Motoren AG Zweigniederlassung Retail Horgen",
    "adresse": "Im Schnegg 1, 8810 Horgen",
    "plz": "8810",
    "marken": [],
    "lat": 47.2481368,
    "lon": 8.6048958
  },
  {
    "name": "AMAG Automobil und Motoren AG Zweigniederlassung Retail Jona",
    "adresse": "St. Gallerstrasse 101, 8645 Jona",
    "plz": "8645",
    "marken": [],
    "lat": 47.2304044,
    "lon": 8.84733385354506
  },
  {
    "name": "AMAG Automobil und Motoren AG Zweigniederlassung Retail Kleinbasel",
    "adresse": "SchÃ¶naustrasse 25, 4058 Basel",
    "plz": "4058",
    "marken": [],
    "lat": 47.5677783,
    "lon": 7.5991173
  },
  {
    "name": "AMAG Automobil und Motoren AG Zweigniederlassung Retail Kloten",
    "adresse": "Steinackerstrasse 20, 8302 Kloten",
    "plz": "8302",
    "marken": [],
    "lat": 47.4489878,
    "lon": 8.596771043788248
  },
  {
    "name": "AMAG Automobil und Motoren AG Zweigniederlassung Retail Kriens",
    "adresse": "Grabenhofstrasse 10, 6010 Kriens",
    "plz": "6010",
    "marken": [],
    "lat": 47.02375155,
    "lon": 8.295981788254364
  },
  {
    "name": "AMAG Automobiles et Moteurs SA Succursale Retail Lausanne",
    "adresse": "Avenue de Provence 2, 1007 Lausanne",
    "plz": "1007",
    "marken": [],
    "lat": 46.52241825,
    "lon": 6.612710338643375
  },
  {
    "name": "AMAG Automobil und Motoren AG Zweigniederlassung Retail Letzigrund Audi Center",
    "adresse": "Rautistrasse 23, 8048 ZÃ¼rich",
    "plz": "8048",
    "marken": [],
    "lat": 47.38040215,
    "lon": 8.492757820238086
  },
  {
    "name": "AMAG Automobil und Motoren AG Zweigniederlassung Retail Liestal",
    "adresse": "Rheinstrasse 107, 4410 Liestal",
    "plz": "4410",
    "marken": [],
    "lat": 47.49675285,
    "lon": 7.723208475446682
  },
  {
    "name": "AMAG Automobili e Motori SA Succursale Retail di Mendrisio Garage Cassarate",
    "adresse": "Via Rinaldi 3, 6850 Mendrisio",
    "plz": "6850",
    "marken": [],
    "lat": 45.8804544,
    "lon": 8.958604060839129
  },
  {
    "name": "AMAG Automobil und Motoren AG Zweigniederlassung Retail Murten",
    "adresse": "Bernstrasse 11, 3280 Murten",
    "plz": "3280",
    "marken": [],
    "lat": 46.93031037299125,
    "lon": 7.122521113213559
  },
  {
    "name": "AMAG Automobil und Motoren AG Zweigniederlassung Retail Muttenz",
    "adresse": "Birsfelderstrasse 50, 4132 Muttenz",
    "plz": "4132",
    "marken": [],
    "lat": 47.53697035,
    "lon": 7.6341464547152995
  },
  {
    "name": "AMAG Automobil und Motoren AG Zweigniederlassung Retail Schlieren",
    "adresse": "LÃ¤ttenstrasse 37, 8952 Schlieren",
    "plz": "8952",
    "marken": [],
    "lat": 47.4028543,
    "lon": 8.4410925
  },
  {
    "name": "AMAG Automobil und Motoren AG Zweigniederlassung Retail NF Uster VW Nutzfahrzeugcenter",
    "adresse": "PfÃ¤ffikerstrasse 32, 8610 Uster",
    "plz": "8610",
    "marken": [],
    "lat": 47.3575687,
    "lon": 8.728557949999999
  },
  {
    "name": "AMAG Automobiles et Moteurs SA Succursale Retail Nyon Champ-Colin Centre VW et Skoda",
    "adresse": "Route de Champ-Colin 9, 1260 Nyon",
    "plz": "1260",
    "marken": [],
    "lat": 46.3836539,
    "lon": 6.2166932
  },
  {
    "name": "AMAG Automobil und Motoren AG Zweigniederlassung Retail Oftringen",
    "adresse": "Bernstrasse 23, 4665 Oftringen",
    "plz": "4665",
    "marken": [],
    "lat": 47.3098145,
    "lon": 7.9125348
  },
  {
    "name": "AMAG Automobili e Motori SA Succursale Retail di Pambio-Noranco",
    "adresse": "Via Pian Scairolo 36, 6915 Pambio-Noranco",
    "plz": "6915",
    "marken": [],
    "lat": 45.9818828,
    "lon": 8.929204642873874
  },
  {
    "name": "AMAG Automobiles et Moteurs SA Succursale Retail Petit-Lancy",
    "adresse": "Chemin du Bac 21, 1213 Petit-Lancy",
    "plz": "1213",
    "marken": [],
    "lat": 46.1958738,
    "lon": 6.1129194
  },
  {
    "name": "AMAG Automobil und Motoren AG Zweigniederlassung Retail Pratteln",
    "adresse": "Muttenzerstrasse 143, 4133 Pratteln",
    "plz": "4133",
    "marken": [],
    "lat": 47.5208124,
    "lon": 7.6742785
  },
  {
    "name": "AMAG Automobil und Motoren AG Zweigniederlassung Retail PW Uster",
    "adresse": "Ackerstrasse 47, 8610 Uster",
    "plz": "8610",
    "marken": [],
    "lat": 47.35661545,
    "lon": 8.706119064034532
  },
  {
    "name": "AMAG Automobil und Motoren AG Zweigniederlassung Retail Rheinfelden",
    "adresse": "ZÃ¼rcherstrasse 34, 4310 Rheinfelden",
    "plz": "4310",
    "marken": [],
    "lat": 47.55154855,
    "lon": 7.803961785073865
  },
  {
    "name": "AMAG Automobil und Motoren AG Zweigniederlassung Retail Schaffhausen",
    "adresse": "Spitalstrasse 27, 8201 Schaffhausen",
    "plz": "8201",
    "marken": [],
    "lat": 47.69980625,
    "lon": 8.633044470918367
  },
  {
    "name": "AMAG Automobil und Motoren AG Zweigniederlassung Retail Schinznach-Bad",
    "adresse": "Aarauerstrasse 22, 5116 Schinznach Bad",
    "plz": "5116",
    "marken": [],
    "lat": 47.44352957556569,
    "lon": 8.168680202486852
  },
  {
    "name": "AMAG Automobil und Motoren AG Zweigniederlassung Retail Solothurn/Zuchwil",
    "adresse": "Gewerbestrasse 11, 4528 Zuchwil",
    "plz": "4528",
    "marken": [],
    "lat": 47.200787,
    "lon": 7.574528753714089
  },
  {
    "name": "AMAG Automobiles et Moteurs SA Succursale Retail St. LÃ©gier",
    "adresse": "route Industrielle 9, 1806 St-LÃ©gier-La ChiÃ©saz",
    "plz": "1806",
    "marken": [],
    "lat": 46.47464425,
    "lon": 6.863861746805366
  },
  {
    "name": "AMAG Automobil und Motoren AG Zweigniederlassung Retail Sursee",
    "adresse": "Neuweidstrasse 1, 6208 Oberkirch LU",
    "plz": "6208",
    "marken": [],
    "lat": 47.1523882,
    "lon": 8.116179475567687
  },
  {
    "name": "AMAG Automobil und Motoren AG Zweigniederlassung Retail Thun",
    "adresse": "Gwattstrasse 22-28, 3604 Thun",
    "plz": "3604",
    "marken": [],
    "lat": 46.734397903246695,
    "lon": 7.627146169539347
  },
  {
    "name": "AMAG Automobil und Motoren AG Zweigniederlassung Retail Vaduz",
    "adresse": "Austrasse 37, 9490 Vaduz",
    "plz": "9490",
    "marken": [],
    "lat": 47.12944455,
    "lon": 9.523342638376054
  },
  {
    "name": "AMAG Automobiles et Moteurs SA Succursale Retail Vernier Centre VW VÃ©hicules Utilitaires",
    "adresse": "Route du Nant-d'Avril 34, 1214 Vernier",
    "plz": "1214",
    "marken": [],
    "lat": 46.2201938,
    "lon": 6.0855256
  },
  {
    "name": "AMAG Automobil und Motoren AG Zweigniederlassung Retail Vevey",
    "adresse": "avenue GÃ©nÃ©ral-Guisan 78, 1800 Vevey",
    "plz": "1800",
    "marken": [],
    "lat": 46.46342629212888,
    "lon": 6.841114149896987
  },
  {
    "name": "AMAG Automobil und Motoren AG Zweigniederlassung Retail Villeneuve",
    "adresse": "route du Simplon 17, 1845 Noville",
    "plz": "1845",
    "marken": [],
    "lat": 46.39102305,
    "lon": 6.922379106051398
  },
  {
    "name": "AMAG Automobil und Motoren AG Zweigniederlassung Retail NF Winterthur",
    "adresse": "ZÃ¼rcherstrasse 312, 8406 Winterthur",
    "plz": "8406",
    "marken": [],
    "lat": 47.47754665,
    "lon": 8.703925922697753
  },
  {
    "name": "AMAG Automobil und Motoren AG Zweigniederlassung Retail PW Winterthur",
    "adresse": "ZÃ¼rcherstrasse 240, 8406 Winterthur",
    "plz": "8406",
    "marken": [],
    "lat": 47.4860541,
    "lon": 8.70188346789959
  },
  {
    "name": "AMAG Automobil und Motoren AG Zweigniederlassung Retail Wettswil",
    "adresse": "Moosstrasse 33a, 8907 Wettswil",
    "plz": "8907",
    "marken": [],
    "lat": 47.33461825,
    "lon": 8.467478253039566
  },
  {
    "name": "AMAG Automobil und Motoren AG Zweigniederlassung Retail Utoquai",
    "adresse": "Utoquai 47/49, 8008 ZÃ¼rich",
    "plz": "8008",
    "marken": [],
    "lat": 47.3623515,
    "lon": 8.5477223
  },
  {
    "name": "AMAG Automobil und Motoren AG Zweigniederlassung Retail ZÃ¼rich-Wollishofen",
    "adresse": "KalchbÃ¼hlstrasse 40-44, 8038 ZÃ¼rich",
    "plz": "8038",
    "marken": [],
    "lat": 47.335315220713575,
    "lon": 8.534339943288124
  },
  {
    "name": "AMAG Automobil und Motoren AG Zweigniederlassung Retail Zuchwil/Solothurn",
    "adresse": "Langfeldstrasse 30, 4528 Zuchwil",
    "plz": "4528",
    "marken": [],
    "lat": 47.2024646,
    "lon": 7.571978474533596
  },
  {
    "name": "AMAG Automobiles et Moteurs SA AMAG Retail La Tour-de-TrÃªme",
    "adresse": "Route de Pra-Riond 5, 1635 La Tour-de-TrÃªme",
    "plz": "1635",
    "marken": [],
    "lat": 46.6016328,
    "lon": 7.0755693
  },
  {
    "name": "AMAG Automobil- und Motoren AG",
    "adresse": "Oberfeldstrasse 6, 8570 Weinfelden",
    "plz": "8570",
    "marken": [],
    "lat": 47.5607536,
    "lon": 9.131500097011688
  },
  {
    "name": "AMAG Automobil und Motoren AG Wettingen",
    "adresse": "Landstrasse 51, 5430 Wettingen",
    "plz": "5430",
    "marken": [],
    "lat": 47.46435685214266,
    "lon": 8.32977034867766
  },
  {
    "name": "Andrea Bricalli SA",
    "adresse": "Via San Gottardo 31, 6877 Coldrerio",
    "plz": "6877",
    "marken": [],
    "lat": 45.853611529123256,
    "lon": 8.996344041358238
  },
  {
    "name": "Annerturgi Nutzfahrzeuge AG",
    "adresse": "Vogelsangstrasse 13a, 5412 Gebenstorf",
    "plz": "5412",
    "marken": [],
    "lat": 47.4891503,
    "lon": 8.2413127
  },
  {
    "name": "Garage Arena AG",
    "adresse": "Weingartenstrasse 70, 3904 Naters",
    "plz": "3904",
    "marken": [],
    "lat": 46.32850285,
    "lon": 8.009402901412003
  },
  {
    "name": "Arenaz Automobiles Crissier SA",
    "adresse": "Chemin de l'esparcette 6, 1023 Crissier",
    "plz": "1023",
    "marken": [],
    "lat": 46.55253235,
    "lon": 6.572955607987232
  },
  {
    "name": "Arenaz Automobiles et Service SA",
    "adresse": "Route de Bremblens 2, 1122 Romanel-sur-Morges",
    "plz": "1122",
    "marken": [],
    "lat": 46.5511054,
    "lon": 6.511973558975354
  },
  {
    "name": "ASS Auto-Sport-Service SA",
    "adresse": "Route des Acacias 39, 1227 Les Acacias",
    "plz": "1227",
    "marken": [],
    "lat": 46.19080888928608,
    "lon": 6.134790555499706
  },
  {
    "name": "Asticher SA Garage & Carrosserie",
    "adresse": "Rue du Jura-Industriel 32, 2304 La Chaux-de-Fonds",
    "plz": "2304",
    "marken": [],
    "lat": 47.08534585,
    "lon": 6.800974452047583
  },
  {
    "name": "Garage Atlantic Eyer Paul AG",
    "adresse": "Industriestrasse 32, 3900 Gamsen",
    "plz": "3900",
    "marken": [],
    "lat": 46.307087938096174,
    "lon": 7.962717067237158
  },
  {
    "name": "Atlas Automobiles SA",
    "adresse": "Avenue du Grand-St-Bernard 42, 1920 Martigny",
    "plz": "1920",
    "marken": [],
    "lat": 46.0962759,
    "lon": 7.0679888
  },
  {
    "name": "Atlas Automobiles Sierre SA",
    "adresse": "route du Simplon 75, 3960 Sierre",
    "plz": "3960",
    "marken": [],
    "lat": 46.2985274,
    "lon": 7.5466482
  },
  {
    "name": "Auto AG Truck Gossau",
    "adresse": "Lagerstrasse 4, 9200 Gossau SG",
    "plz": "9200",
    "marken": [],
    "lat": 47.4113807,
    "lon": 9.275177907194571
  },
  {
    "name": "Auto AG Truck Limmattal",
    "adresse": "Im Gewerbepark 1, 8104 Weiningen ZH",
    "plz": "8104",
    "marken": [],
    "lat": 47.4171457,
    "lon": 8.4182211
  },
  {
    "name": "Auto AG Truck MÃ¼llheim",
    "adresse": "GrÃ¼neck, 8555 MÃ¼llheim Dorf",
    "plz": "8555",
    "marken": [],
    "lat": 47.5943176,
    "lon": 8.9938568
  },
  {
    "name": "Auto AG Truck Oberland",
    "adresse": "GlÃ¼tschbachstrasse 5, 3661 Uetendorf",
    "plz": "3661",
    "marken": [],
    "lat": 46.77759235,
    "lon": 7.582211405262871
  },
  {
    "name": "Auto AG Truck Rothenburg",
    "adresse": "Stationsstrasse 88, 6023 Rothenburg",
    "plz": "6023",
    "marken": [],
    "lat": 47.09138995,
    "lon": 8.251067754023302
  },
  {
    "name": "Auto AG Truck SchÃ¶nbÃ¼hl",
    "adresse": "Gewerbestrasse 12, 3322 Urtenen-SchÃ¶nbÃ¼hl",
    "plz": "3322",
    "marken": [],
    "lat": 47.01756005,
    "lon": 7.499094063617839
  },
  {
    "name": "Auto AG Truck Staad",
    "adresse": "Hauptstrasse 104, 9422 Staad SG",
    "plz": "9422",
    "marken": [],
    "lat": 47.4840182,
    "lon": 9.551733147545756
  },
  {
    "name": "Auto Bolli AG, Benken ZH",
    "adresse": "Marthalerstrasse 9, 8463 Benken ZH",
    "plz": "8463",
    "marken": [],
    "lat": 47.6510295,
    "lon": 8.652920873115578
  },
  {
    "name": "Auto Center AG Worben",
    "adresse": "Hauptstrasse 64, 3252 Worben",
    "plz": "3252",
    "marken": [],
    "lat": 47.094332300000005,
    "lon": 7.290261758987156
  },
  {
    "name": "Auto-Center H.R. FlÃ¼ckiger AG",
    "adresse": "Langenthalstrasse 61, 4912 Aarwangen",
    "plz": "4912",
    "marken": [],
    "lat": 47.2344018,
    "lon": 7.774837220282264
  },
  {
    "name": "Auto-Center KÃ¼ng AG",
    "adresse": "Landstrasse 73, 5412 Gebenstorf",
    "plz": "5412",
    "marken": [],
    "lat": 47.4815048,
    "lon": 8.240272497839442
  },
  {
    "name": "Auto DÃ¼nki AG",
    "adresse": "Weiachstrasse 2, 8413 Neftenbach",
    "plz": "8413",
    "marken": [],
    "lat": 47.5189125,
    "lon": 8.655496953002388
  },
  {
    "name": "Auto-Graf AG",
    "adresse": "Seestrasse 941, 8706 Meilen",
    "plz": "8706",
    "marken": [],
    "lat": 47.26429965,
    "lon": 8.66159492491834
  },
  {
    "name": "Auto KÃ¤mpf AG",
    "adresse": "Winterhaldenstrasse 5, 3627 Heimberg",
    "plz": "3627",
    "marken": [],
    "lat": 46.79769005,
    "lon": 7.602549051875717
  },
  {
    "name": "Auto Kurve AG",
    "adresse": "Hauptstrasse 7, 4416 Bubendorf",
    "plz": "4416",
    "marken": [],
    "lat": 47.4562793,
    "lon": 7.7410472
  },
  {
    "name": "Auto-La CÃ´te SA",
    "adresse": "Rue de lâEtraz 2, 1196 Gland",
    "plz": "1196",
    "marken": [],
    "lat": 46.4222795,
    "lon": 6.2608642088588695
  },
  {
    "name": "Auto Lang AG",
    "adresse": "Langfeldstrasse 76, 8500 Frauenfeld",
    "plz": "8500",
    "marken": [],
    "lat": 47.56651945,
    "lon": 8.908863601385463
  },
  {
    "name": "Auto Lang AG",
    "adresse": "Sonnenwiesenstrasse 17, 8280 Kreuzlingen",
    "plz": "8280",
    "marken": [],
    "lat": 47.6443316,
    "lon": 9.194361994745986
  },
  {
    "name": "Auto LÃ¼thi GmbH",
    "adresse": "Hauptstrasse 74, 8572 Berg TG",
    "plz": "8572",
    "marken": [],
    "lat": 47.58408585,
    "lon": 9.169192205155838
  },
  {
    "name": "Auto Margarethen AG",
    "adresse": "Margarethenstrasse 79, 4053 Basel",
    "plz": "4053",
    "marken": [],
    "lat": 47.5450183,
    "lon": 7.5827339
  },
  {
    "name": "Auto Mathis AG",
    "adresse": "Via Somplaz 33, 7500 St. Moritz",
    "plz": "7500",
    "marken": [],
    "lat": 46.49644450809571,
    "lon": 9.83658222457698
  },
  {
    "name": "Auto-Mathis AG",
    "adresse": "Cho d'Punt 33, 7503 Samedan",
    "plz": "7503",
    "marken": [],
    "lat": 46.5299559,
    "lon": 9.8753271
  },
  {
    "name": "Auto Moto Marine Brienz AG",
    "adresse": "Lauimattenweg 11, 3855 Brienz BE",
    "plz": "3855",
    "marken": [],
    "lat": 46.7439625,
    "lon": 8.056633999999999
  },
  {
    "name": "Auto NeubrÃ¼ck AG",
    "adresse": "Talstrasse 18, 3922 Stalden VS",
    "plz": "3922",
    "marken": [],
    "lat": 46.22740190095946,
    "lon": 7.871675535184789
  },
  {
    "name": "Auto NÃ¼ssle AG",
    "adresse": "Industriestrasse 11, 7220 Schiers",
    "plz": "7220",
    "marken": [],
    "lat": 46.9667328,
    "lon": 9.690793789459974
  },
  {
    "name": "Auto-Rives, succursale de Groupe Leuba SA",
    "adresse": "Rue de Lausanne 45, 1110 Morges",
    "plz": "1110",
    "marken": [],
    "lat": 46.5158866,
    "lon": 6.5046429
  },
  {
    "name": "Auto RÃ¼ger AG GrosshÃ¶chstetten",
    "adresse": "Thunstrasse 6, 3506 GrosshÃ¶chstetten",
    "plz": "3506",
    "marken": [],
    "lat": 46.9004119,
    "lon": 7.633050385048801
  },
  {
    "name": "Auto RÃ¼ger AG",
    "adresse": "Hauptstrasse 7, 3860 Meiringen",
    "plz": "3860",
    "marken": [],
    "lat": 46.72817475,
    "lon": 8.183144979280623
  },
  {
    "name": "Auto RÃ¼ger AG Langnau",
    "adresse": "SchÃ¤rischachen 808, 3550 Langnau im Emmental",
    "plz": "3550",
    "marken": [],
    "lat": 46.9241349,
    "lon": 7.820984625014196
  },
  {
    "name": "Auto RÃ¼ger AG Wilderswil",
    "adresse": "Industriestrasse 12, 3812 Wilderswil",
    "plz": "3812",
    "marken": [],
    "lat": 46.67166265,
    "lon": 7.877599604691065
  },
  {
    "name": "Auto SA Truck Ticino",
    "adresse": "via San Mamete 98, 6805 Mezzovico",
    "plz": "6805",
    "marken": [],
    "lat": 46.09238475,
    "lon": 8.9217374
  },
  {
    "name": "Auto Sauter AG",
    "adresse": "Landstrasse 6, 8754 Netstal",
    "plz": "8754",
    "marken": [],
    "lat": 47.06598055,
    "lon": 9.057388446833157
  },
  {
    "name": "Auto Suter AG",
    "adresse": "Chamerstrasse 50, 6331 HÃ¼nenberg",
    "plz": "6331",
    "marken": [],
    "lat": 47.18045243594741,
    "lon": 8.437909745764358
  },
  {
    "name": "Auto Suter AG Filiale Sins",
    "adresse": "Luzernerstrasse 27, 5643 Sins",
    "plz": "5643",
    "marken": [],
    "lat": 47.1883609,
    "lon": 8.3963494
  },
  {
    "name": "Auto Suter KÃ¼ssnacht GmbH",
    "adresse": "Bodenweid 2, 6403 KÃ¼ssnacht am Rigi",
    "plz": "6403",
    "marken": [],
    "lat": 47.08704145,
    "lon": 8.440130723005783
  },
  {
    "name": "Auto Walser AG",
    "adresse": "Bahnhofstrasse 56, 7323 Wangs",
    "plz": "7323",
    "marken": [],
    "lat": 47.03876695,
    "lon": 9.436745759814857
  },
  {
    "name": "Auto WerthmÃ¼ller AG",
    "adresse": "Tempelstrasse 8A, 3608 Thun",
    "plz": "3608",
    "marken": [],
    "lat": 46.74540372064296,
    "lon": 7.597197499147576
  },
  {
    "name": "Auto Wild AG",
    "adresse": "UntermÃ¼li 6, 6300 Zug",
    "plz": "6300",
    "marken": [],
    "lat": 47.1805506,
    "lon": 8.5181305
  },
  {
    "name": "Auto Wydematt AG",
    "adresse": "Laufenstrasse 6, 4226 Breitenbach",
    "plz": "4226",
    "marken": [],
    "lat": 47.40784425,
    "lon": 7.5424142372785745
  },
  {
    "name": "Auto Zentrum West AG",
    "adresse": "Piccardstrasse 1, 9015 St. Gallen",
    "plz": "9015",
    "marken": [],
    "lat": 47.4091981,
    "lon": 9.31285124261422
  },
  {
    "name": "Auto Zollikofer AG",
    "adresse": "Sonnmattstrasse 10, 9532 Rickenbach b. Wil",
    "plz": "9532",
    "marken": [],
    "lat": 47.4532731,
    "lon": 9.045396303846136
  },
  {
    "name": "AUTOBRITT AUTOMOBILE SA",
    "adresse": "Rue Viguet 1, 1227 Les Acacias",
    "plz": "1227",
    "marken": [],
    "lat": 46.1921368,
    "lon": 6.1293435
  },
  {
    "name": "Autocenter Aebi AG",
    "adresse": "Bernstrasse, 3250 Lyss",
    "plz": "3250",
    "marken": [],
    "lat": 47.07011808088454,
    "lon": 7.310644634933912
  },
  {
    "name": "Autocenter BÃ¼lach-SÃ¼d AG",
    "adresse": "LÃ¤nggenstrasse 36, 8184 BachenbÃ¼lach",
    "plz": "8184",
    "marken": [],
    "lat": 47.5023178,
    "lon": 8.53810949769555
  },
  {
    "name": "AutoCenter Effretikon Inglin & Roci AG",
    "adresse": "Industriestrasse 2, 8307 Effretikon",
    "plz": "8307",
    "marken": [],
    "lat": 47.41846005,
    "lon": 8.684516516074186
  },
  {
    "name": "Autocenter Meier AG",
    "adresse": "Hauptstrasse 158, 5742 KÃ¶lliken",
    "plz": "5742",
    "marken": [],
    "lat": 47.3280213,
    "lon": 8.02130143176625
  },
  {
    "name": "Autocenter SÃ¤ntis AG",
    "adresse": "Bildstrasse 3, 9030 Abtwil SG",
    "plz": "9030",
    "marken": [],
    "lat": 47.4171367,
    "lon": 9.3123782
  },
  {
    "name": "Autocenter Zimmerli GmbH",
    "adresse": "Bruggerstrasse 47, 5102 Rupperswil",
    "plz": "5102",
    "marken": [],
    "lat": 47.40757605,
    "lon": 8.137019504068952
  },
  {
    "name": "Autocorner Valais SA",
    "adresse": "Rue TraversiÃ¨re 10, 1950 Sion",
    "plz": "1950",
    "marken": [],
    "lat": 46.2184068,
    "lon": 7.3500338
  },
  {
    "name": "Autofrank AG",
    "adresse": "Trockenloostrasse 65, 8105 Regensdorf",
    "plz": "8105",
    "marken": [],
    "lat": 47.44084135,
    "lon": 8.472187133265827
  },
  {
    "name": "Autohaus Imholz AG Ebikon",
    "adresse": "Luzernerstrasse 49, 6030 Ebikon",
    "plz": "6030",
    "marken": [],
    "lat": 47.0719577,
    "lon": 8.324985486808373
  },
  {
    "name": "Autohaus Schneider AG",
    "adresse": "Zeughausstrasse 74, 8400 Winterthur",
    "plz": "8400",
    "marken": [],
    "lat": 47.4966682,
    "lon": 8.7317987
  },
  {
    "name": "Autohaus Thun-Nord AG Steffisburg",
    "adresse": "Bernstrasse 119, 3613 Steffisburg",
    "plz": "3613",
    "marken": [],
    "lat": 46.77599145,
    "lon": 7.614671479182494
  },
  {
    "name": "Autohaus von KÃ¤nel AG",
    "adresse": "Spiezstrasse 22, 3714 Frutigen",
    "plz": "3714",
    "marken": [],
    "lat": 46.59504895,
    "lon": 7.652089007775885
  },
  {
    "name": "Autohaus Wederich, DonÃ  AG",
    "adresse": "Grienweg 7, 4222 Zwingen",
    "plz": "4222",
    "marken": [],
    "lat": 47.4392211,
    "lon": 7.53759005
  },
  {
    "name": "Autohaus Willi AG",
    "adresse": "Kasernenstrasse 30, 7000 Chur",
    "plz": "7000",
    "marken": [],
    "lat": 46.84769485,
    "lon": 9.524203272830755
  },
  {
    "name": "Automaxx AG",
    "adresse": "MÃ¼hlenstrasse 96, 8207 Schaffhausen",
    "plz": "8207",
    "marken": [],
    "lat": 47.6928425,
    "lon": 8.6232822
  },
  {
    "name": "Automobile Franzen AG",
    "adresse": "Kantonsstrasse 75, 3930 Visp",
    "plz": "3930",
    "marken": [],
    "lat": 46.2939665,
    "lon": 7.9020885
  },
  {
    "name": "Automobiles Senn SA",
    "adresse": "Le Bey, 1442 Montagny-Yverdon",
    "plz": "1442",
    "marken": [],
    "lat": 46.79097285,
    "lon": 6.62558935
  },
  {
    "name": "Automobiles Zimmermann SA",
    "adresse": "Route de ChÃ©salles 56, 1723 Marly",
    "plz": "1723",
    "marken": [],
    "lat": 46.773186527771735,
    "lon": 7.153812890072301
  },
  {
    "name": "AutoNova Payerne SA",
    "adresse": "Route de la Grosse Pierre 24, 1530 Payerne",
    "plz": "1530",
    "marken": [],
    "lat": 46.82613674558433,
    "lon": 6.94572979110506
  },
  {
    "name": "Autorama, Fritz SchlÃ¤pfer AG",
    "adresse": "LangÃ¤ulistrasse 70, 9470 Buchs SG",
    "plz": "9470",
    "marken": [],
    "lat": 47.17442955,
    "lon": 9.466837427343398
  },
  {
    "name": "Autorep AG",
    "adresse": "Kantonsstrasse 111, 6234 Triengen",
    "plz": "6234",
    "marken": [],
    "lat": 47.2458127,
    "lon": 8.06968535
  },
  {
    "name": "Autorimessa Nepple SA Bellinzona",
    "adresse": "viale Stefano Franscini 30, 6500 Bellinzona",
    "plz": "6500",
    "marken": [],
    "lat": 46.193247,
    "lon": 9.0120996
  },
  {
    "name": "Autors SA Ford",
    "adresse": "Via Monte Ceneri 20a, 6512 Giubiasco",
    "plz": "6512",
    "marken": [],
    "lat": 46.17183515023637,
    "lon": 9.009721332800453
  },
  {
    "name": "AUTORS SA Renault",
    "adresse": "via Monte Ceneri 20, 6512 Giubiasco",
    "plz": "6512",
    "marken": [],
    "lat": 46.17183515023637,
    "lon": 9.009721332800453
  },
  {
    "name": "AUTORS SA",
    "adresse": "via Industria 21, 6934 Bioggio",
    "plz": "6934",
    "marken": [],
    "lat": 46.0179134,
    "lon": 8.917877449999999
  },
  {
    "name": "Autos Carouge, AndrÃ© Chevalley SA",
    "adresse": "route de Saint-Julien 46, 1227 Carouge",
    "plz": "1227",
    "marken": [],
    "lat": 46.1762991,
    "lon": 6.1322565
  },
  {
    "name": "Autos Carrefour Dorigny, succursale de Groupe Leuba SA",
    "adresse": "Route Cantonale 1, 1022 Chavannes-Renens",
    "plz": "1022",
    "marken": [],
    "lat": 46.5212537,
    "lon": 6.586269372859019
  },
  {
    "name": "Autoverkehr AG Langenthal",
    "adresse": "Gaswerkstrasse 41, 4900 Langenthal",
    "plz": "4900",
    "marken": [],
    "lat": 47.228383,
    "lon": 7.78727295937862
  },
  {
    "name": "Autoverkehr AG Zuchwil",
    "adresse": "Gewerbestrasse 1, 4528 Zuchwil",
    "plz": "4528",
    "marken": [],
    "lat": 47.201537,
    "lon": 7.5722696
  },
  {
    "name": "Autoverkehr Region Bern AG",
    "adresse": "Hubelgutstrasse 2, 3048 Worblaufen",
    "plz": "3048",
    "marken": [],
    "lat": 46.98072155,
    "lon": 7.455792991305943
  },
  {
    "name": "Autoviva AG",
    "adresse": "Kreuzlingerstrasse 30, 8580 Amriswil",
    "plz": "8580",
    "marken": [],
    "lat": 47.54738815,
    "lon": 9.279887521719242
  },
  {
    "name": "Autoweibel AG",
    "adresse": "Murtenstrasse 4, 3270 Aarberg",
    "plz": "3270",
    "marken": [],
    "lat": 47.0438206,
    "lon": 7.273390839861923
  },
  {
    "name": "Baldegger Automobile AG",
    "adresse": "Erlachstrasse 3, 9014 St. Gallen",
    "plz": "9014",
    "marken": [],
    "lat": 47.4108013,
    "lon": 9.3366448
  },
  {
    "name": "Baldegger Automobile AG ZN Oberuzwil",
    "adresse": "Flawilerstrasse 36, 9242 Oberuzwil",
    "plz": "9242",
    "marken": [],
    "lat": 47.4278255,
    "lon": 9.1286567
  },
  {
    "name": "Baldegger Automobile AG ZN WIl",
    "adresse": "Flawilerstrasse 31, 9500 Wil SG",
    "plz": "9500",
    "marken": [],
    "lat": 47.4505472,
    "lon": 9.055156393904593
  },
  {
    "name": "Gerald Barcal Automobile AG",
    "adresse": "Farbhofstrasse 21, 8048 ZÃ¼rich",
    "plz": "8048",
    "marken": [],
    "lat": 47.3912337,
    "lon": 8.476914665186854
  },
  {
    "name": "BÃ¤rfuss AG",
    "adresse": "Gwattstrasse 54, 3604 Thun",
    "plz": "3604",
    "marken": [],
    "lat": 46.73466265,
    "lon": 7.626912721133904
  },
  {
    "name": "Centralgarage Barth AG",
    "adresse": "Freiburgstrasse 396, 3018 Bern",
    "plz": "3018",
    "marken": [],
    "lat": 46.9346947,
    "lon": 7.391514164670509
  },
  {
    "name": "Emil Baschnagel AG",
    "adresse": "Kestenbergstrasse 32, 5210 Windisch",
    "plz": "5210",
    "marken": [],
    "lat": 47.4699852,
    "lon": 8.210697240055897
  },
  {
    "name": "Garage Battaglia SA",
    "adresse": "Spinadascio 698A, 7746 Le Prese",
    "plz": "7746",
    "marken": [],
    "lat": 46.297386,
    "lon": 10.0740742
  },
  {
    "name": "Moto BÃ¤ttig AG",
    "adresse": "Hauptstrasse 16, 5737 Menziken",
    "plz": "5737",
    "marken": [],
    "lat": 47.244476250000005,
    "lon": 8.186035200877264
  },
  {
    "name": "Garage Bel-Air SA",
    "adresse": "Avenue des Sports 13, 1400 Yverdon-les-Bains",
    "plz": "1400",
    "marken": [],
    "lat": 46.7805729,
    "lon": 6.653356496915791
  },
  {
    "name": "Belwag Belp",
    "adresse": "Viehweidstrasse 12, 3123 Belp",
    "plz": "3123",
    "marken": [],
    "lat": 46.89122115,
    "lon": 7.50953848485342
  },
  {
    "name": "BELWAG AG Bern",
    "adresse": "Schermenweg 5, 3014 Bern",
    "plz": "3014",
    "marken": [],
    "lat": 46.9649315,
    "lon": 7.4692992
  },
  {
    "name": "Garage Berset SÃ rl",
    "adresse": "Route de la GruyÃ¨re 4, 1723 Marly",
    "plz": "1723",
    "marken": [],
    "lat": 46.76997643048279,
    "lon": 7.160389640979642
  },
  {
    "name": "Bertoni Automobili SA",
    "adresse": "via Delta 11, 6612 Ascona",
    "plz": "6612",
    "marken": [],
    "lat": 46.16494954638386,
    "lon": 8.777007124003108
  },
  {
    "name": "Bertschy Automobiles SA",
    "adresse": "Route du Madelain 1, 1753 Matran",
    "plz": "1753",
    "marken": [],
    "lat": 46.7814874,
    "lon": 7.087832524729
  },
  {
    "name": "Auto Bettschen AG",
    "adresse": "Bernstrasse 40, 3612 Steffisburg",
    "plz": "3612",
    "marken": [],
    "lat": 46.7655789,
    "lon": 7.625840856612645
  },
  {
    "name": "Auto Bettschen AG",
    "adresse": "Bernstrasse 210, 3613 Steffisburg",
    "plz": "3613",
    "marken": [],
    "lat": 46.7808289,
    "lon": 7.611327560931198
  },
  {
    "name": "Garage Daniel Bieli",
    "adresse": "Brislachstrasse 3, 4226 Breitenbach",
    "plz": "4226",
    "marken": [],
    "lat": 47.40952645,
    "lon": 7.543799386277625
  },
  {
    "name": "Garage Bifang Trachsel AG",
    "adresse": "Bifang 5, 1716 Plaffeien",
    "plz": "1716",
    "marken": [],
    "lat": 46.74794855,
    "lon": 7.288686867337377
  },
  {
    "name": "Bike-Atelier GmbH",
    "adresse": "BrÃ¼nigstrasse 34, 6074 Giswil",
    "plz": "6074",
    "marken": [],
    "lat": 46.83817855,
    "lon": 8.186943822407446
  },
  {
    "name": "Binelli Automobile AG Filiale Baar",
    "adresse": "Neuhofstrasse 1, 6341 Baar",
    "plz": "6341",
    "marken": [],
    "lat": 47.1918324,
    "lon": 8.5131378
  },
  {
    "name": "Binelli Automobile AG Filiale Sihlbrugg",
    "adresse": "Sihlbruggstrasse 138, 6340 Baar",
    "plz": "6340",
    "marken": [],
    "lat": 47.215162,
    "lon": 8.570313
  },
  {
    "name": "Binelli Automobile AG Filiale ZÃ¼rich",
    "adresse": "Badenerstrasse 527, 8048 ZÃ¼rich",
    "plz": "8048",
    "marken": [],
    "lat": 47.3815879,
    "lon": 8.500982942076892
  },
  {
    "name": "A. & M. Bizzozero",
    "adresse": "LÃ¤nggassstrasse 103, 3000 Bern",
    "plz": "3000",
    "marken": [],
    "lat": 46.9563944,
    "lon": 7.4243029
  },
  {
    "name": "Garage Bolero Bumann Gert",
    "adresse": "Grosses Moos 8, 3906 Saas-Fee",
    "plz": "3906",
    "marken": [],
    "lat": 46.1125832,
    "lon": 7.931958811245937
  },
  {
    "name": "Garage-Carrosserie Maurice Bonny SA",
    "adresse": "Rue du CollÃ¨ge 22, 2300 La Chaux-de-Fonds",
    "plz": "2300",
    "marken": [],
    "lat": 47.1057917,
    "lon": 6.834230891136059
  },
  {
    "name": "Boost Garage GmbH",
    "adresse": "Thurgauerstr 27, 9400 Rorschach",
    "plz": "9400",
    "marken": [],
    "lat": 47.4794746,
    "lon": 9.486444831364572
  },
  {
    "name": "Bossard & Humm GmbH",
    "adresse": "Untere BrÃ¼hlstrasse 48, 4800 Zofingen",
    "plz": "4800",
    "marken": [],
    "lat": 47.29639725,
    "lon": 7.931901047650518
  },
  {
    "name": "Garage Bosshardt AG",
    "adresse": "Schwerzenbachstrasse 41, 8117 FÃ¤llanden",
    "plz": "8117",
    "marken": [],
    "lat": 47.3752232,
    "lon": 8.642788023093546
  },
  {
    "name": "Garage Bouby-Rolls SA",
    "adresse": "quai de la ThiÃ¨le 30, 1400 Yverdon-les-Bains",
    "plz": "1400",
    "marken": [],
    "lat": 46.78147107638455,
    "lon": 6.637167128606569
  },
  {
    "name": "Garage Bove SA",
    "adresse": "Avenue Adrien-Lachenal 23a, 1290 Versoix",
    "plz": "1290",
    "marken": [],
    "lat": 46.2822133,
    "lon": 6.163676928659954
  },
  {
    "name": "Bowman Automobile AG",
    "adresse": "Ausserdorfstrasse 19, 5107 Schinznach Dorf",
    "plz": "5107",
    "marken": [],
    "lat": 47.4485975,
    "lon": 8.1437519
  },
  {
    "name": "BrÃ¤m AG",
    "adresse": "Rietlistrasse 1, 9403 Goldach",
    "plz": "9403",
    "marken": [],
    "lat": 47.48319115,
    "lon": 9.475147827510328
  },
  {
    "name": "Auto Brander AG",
    "adresse": "Schwerzistrasse 8, 8807 Freienbach",
    "plz": "8807",
    "marken": [],
    "lat": 47.20065514637757,
    "lon": 8.752339166467127
  },
  {
    "name": "Garage Breitschmid AG",
    "adresse": "Aargauerstrasse 16, 5610 Wohlen AG",
    "plz": "5610",
    "marken": [],
    "lat": 47.345284,
    "lon": 8.274554
  },
  {
    "name": "Garage Brender SA",
    "adresse": "route Aloys-Fauquez 128, 1018 Lausanne",
    "plz": "1018",
    "marken": [],
    "lat": 46.54166835,
    "lon": 6.633464529128961
  },
  {
    "name": "Bruttin FrÃ¨res SA",
    "adresse": "Route de Sion 79, 3960 Sierre",
    "plz": "3960",
    "marken": [],
    "lat": 46.2848926,
    "lon": 7.5168942
  },
  {
    "name": "Buchard Atelier-Carrosserie Bus&Cars SA",
    "adresse": "Route de Saillon 69, 1912 Leytron",
    "plz": "1912",
    "marken": [],
    "lat": 46.1809327,
    "lon": 7.2020806
  },
  {
    "name": "R. BÃ¼hler AG",
    "adresse": "Austrasse 8, 3176 Neuenegg",
    "plz": "3176",
    "marken": [],
    "lat": 46.89442965,
    "lon": 7.30528971326151
  },
  {
    "name": "Busbetrieb Solothurn und Umgebung AG",
    "adresse": "Waldeggstrasse 35, 4528 Zuchwil",
    "plz": "4528",
    "marken": [],
    "lat": 47.198582650000006,
    "lon": 7.575984527447572
  },
  {
    "name": "Garage Ernst Buser AG Ormalingen",
    "adresse": "Hauptstrasse 175, 4466 Ormalingen",
    "plz": "4466",
    "marken": [],
    "lat": 47.470104,
    "lon": 7.8688478
  },
  {
    "name": "Garage Caflisch AG",
    "adresse": "Via Principala 5-7, 7151 Schluein",
    "plz": "7151",
    "marken": [],
    "lat": 46.77953705429895,
    "lon": 9.218182354231889
  },
  {
    "name": "Camionrep. AG Studen",
    "adresse": "SÃ¤geweg 8, 2557 Studen BE",
    "plz": "2557",
    "marken": [],
    "lat": 47.1102736,
    "lon": 7.310275372615921
  },
  {
    "name": "Garage du Carrefour JoÃ«l Regamey",
    "adresse": "Chemin des Cases 2 bis, 1072 Forel (Lavaux)",
    "plz": "1072",
    "marken": [],
    "lat": 46.5297664,
    "lon": 6.768473889838079
  },
  {
    "name": "Cassi et Imhof SA",
    "adresse": "Boulevard des Eplatures 1-3, 2304 La Chaux-de-Fonds",
    "plz": "2304",
    "marken": [],
    "lat": 47.0881081989338,
    "lon": 6.80481105632581
  },
  {
    "name": "CC-Nova AG",
    "adresse": "Churerstrasse 5, 7013 Domat/Ems",
    "plz": "7013",
    "marken": [],
    "lat": 46.83737525,
    "lon": 9.461503772391108
  },
  {
    "name": "CDS Automobiles SA",
    "adresse": "rue Edouard-Dubied 12, 2108 Couvet",
    "plz": "2108",
    "marken": [],
    "lat": 46.9291509,
    "lon": 6.636957
  },
  {
    "name": "Garage Carrosserie Centra AG",
    "adresse": "Alte Landstrasse 1, 3900 Gamsen",
    "plz": "3900",
    "marken": [],
    "lat": 46.30514969906537,
    "lon": 7.952614355941878
  },
  {
    "name": "Centra-Garage AG",
    "adresse": "Leimgrubenweg 14, 4053 Basel",
    "plz": "4053",
    "marken": [],
    "lat": 47.53687,
    "lon": 7.6063373
  },
  {
    "name": "Central-Garage Denoth AG",
    "adresse": "Stradun 270, 7550 Scuol",
    "plz": "7550",
    "marken": [],
    "lat": 46.7987407,
    "lon": 10.304334
  },
  {
    "name": "Central-Garage H.BÃ¶ckmann AG",
    "adresse": "Benknerstrasse 20, 8730 Uznach",
    "plz": "8730",
    "marken": [],
    "lat": 47.2194596,
    "lon": 8.986651011027615
  },
  {
    "name": "Garage Central Hulmann David",
    "adresse": "rue Gustave-Amweg 9 a, 2900 Porrentruy",
    "plz": "2900",
    "marken": [],
    "lat": 47.41751015626799,
    "lon": 7.076258489217175
  },
  {
    "name": "Centralgarage AG Steffisburg",
    "adresse": "Bernstrasse 47, 3613 Steffisburg",
    "plz": "3613",
    "marken": [],
    "lat": 46.7664577,
    "lon": 7.623487897936588
  },
  {
    "name": "Garage Challandes SA",
    "adresse": "Grand-Rue 22, 2046 Fontaines NE",
    "plz": "2046",
    "marken": [],
    "lat": 47.0459465,
    "lon": 6.9001519
  },
  {
    "name": "Garage Chatelanat SA",
    "adresse": "rue EugÃ¨ne Marziano 18, 1227 Les Acacias",
    "plz": "1227",
    "marken": [],
    "lat": 46.19374115,
    "lon": 6.129486469104189
  },
  {
    "name": "ChrÃ¤bel Garage AndrÃ© Kunz",
    "adresse": "Sonneggstrasse 28, 6410 Goldau",
    "plz": "6410",
    "marken": [],
    "lat": 47.0454661,
    "lon": 8.548289958104618
  },
  {
    "name": "Christen Automobile AG",
    "adresse": "Umfahrungsstrasse 25, 6467 Schattdorf",
    "plz": "6467",
    "marken": [],
    "lat": 46.85863285,
    "lon": 8.639055984601724
  },
  {
    "name": "Citag AG",
    "adresse": "Bildstrasse 3, 9030 Abtwil SG",
    "plz": "9030",
    "marken": [],
    "lat": 47.4171367,
    "lon": 9.3123782
  },
  {
    "name": "City-Garage AG Betrieb Goldach",
    "adresse": "St. Gallerstrasse 76, 9403 Goldach",
    "plz": "9403",
    "marken": [],
    "lat": 47.47881145,
    "lon": 9.468824327536234
  },
  {
    "name": "City-Garage AG",
    "adresse": "ZÃ¼rcher Strasse 511, 9015 St. Gallen",
    "plz": "9015",
    "marken": [],
    "lat": 47.4073161,
    "lon": 9.30897195
  },
  {
    "name": "Clinic Cars Yverdon SÃ rl",
    "adresse": "Av. de Grandson 64, 1400 Yverdon-les-Bains",
    "plz": "1400",
    "marken": [],
    "lat": 46.7896553,
    "lon": 6.630069395331094
  },
  {
    "name": "Garage CorbassiÃ¨res SÃ rl",
    "adresse": "Rue de Savoie 31, 1950 Sion",
    "plz": "1950",
    "marken": [],
    "lat": 46.2253823,
    "lon": 7.3322656
  },
  {
    "name": "Garage Corpataux AG",
    "adresse": "Thunstrasse 35, 3150 Schwarzenburg",
    "plz": "3150",
    "marken": [],
    "lat": 46.81900935,
    "lon": 7.349314278178888
  },
  {
    "name": "crazy riders Interlaken GmbH",
    "adresse": "Kammistrasse 11, 3800 Interlaken",
    "plz": "3800",
    "marken": [],
    "lat": 46.6915383,
    "lon": 7.8753597
  },
  {
    "name": "Garage Cuenot SÃ rl",
    "adresse": "rue du Marais 3, 2400 Le Locle",
    "plz": "2400",
    "marken": [],
    "lat": 47.0613699,
    "lon": 6.755389428440676
  },
  {
    "name": "Cycles et Motos Refouss SÃ rl",
    "adresse": "Rue Achille-Merguin 12, 2900 Porrentruy",
    "plz": "2900",
    "marken": [],
    "lat": 47.41543055,
    "lon": 7.07203832328244
  },
  {
    "name": "Garage d'Hermance SA Michel Piuz",
    "adresse": "route d'Hermance 564, 1248 Hermance",
    "plz": "1248",
    "marken": [],
    "lat": 46.3023697,
    "lon": 6.24628129302444
  },
  {
    "name": "De Blasio SA",
    "adresse": "route de Berne 2, 1524 Marnand",
    "plz": "1524",
    "marken": [],
    "lat": 46.75742335,
    "lon": 6.89969155
  },
  {
    "name": "Inter Promotion SA Garage Champsec",
    "adresse": "avenue du Grand-Champsec 51, 1950 Sion",
    "plz": "1950",
    "marken": [],
    "lat": 46.2331624,
    "lon": 7.3826504
  },
  {
    "name": "Garage de L`Etoile, Rox`Otz SA",
    "adresse": "rue Fritz-Courvoisier 54, 2300 La Chaux-de-Fonds",
    "plz": "2300",
    "marken": [],
    "lat": 47.10642385,
    "lon": 6.838471356374633
  },
  {
    "name": "Garage de la Cour SA",
    "adresse": "Rue des Uttins 43, 2034 Peseux",
    "plz": "2034",
    "marken": [],
    "lat": 46.98857097504021,
    "lon": 6.892389686016815
  },
  {
    "name": "Garage de la Marbrerie AndrÃ© Chevalley SA",
    "adresse": "Chemin de la Marbrerie 1, 1227 Carouge",
    "plz": "1227",
    "marken": [],
    "lat": 46.1802652,
    "lon": 6.1346887
  },
  {
    "name": "Garage de Monthey SA",
    "adresse": "route de Collombey 55, 1870 Monthey",
    "plz": "1870",
    "marken": [],
    "lat": 46.26194755,
    "lon": 6.945500392444039
  },
  {
    "name": "Garage de Nyon A&S Chevalley SA",
    "adresse": "route de Saint-Cergue 293, 1260 Nyon",
    "plz": "1260",
    "marken": [],
    "lat": 46.4008832,
    "lon": 6.218557413847071
  },
  {
    "name": "Garage de Palud Jean-Marc Kolly",
    "adresse": "Rte de Morlon 47, 1630 Bulle",
    "plz": "1630",
    "marken": [],
    "lat": 46.622678050000005,
    "lon": 7.0679631
  },
  {
    "name": "Garage dell'Aria GmbH",
    "adresse": "Tannenstrasse 112, 8424 Embrach",
    "plz": "8424",
    "marken": [],
    "lat": 47.51058255,
    "lon": 8.589398465676158
  },
  {
    "name": "Garage des Parcs S.Ã .r.l.",
    "adresse": "Rue de la RosiÃ¨re 2, 2000 NeuchÃ¢tel",
    "plz": "2000",
    "marken": [],
    "lat": 46.9917944,
    "lon": 6.917286237473352
  },
  {
    "name": "Garage des Sports SA",
    "adresse": "Avenue du Simplon 34, 1870 Monthey",
    "plz": "1870",
    "marken": [],
    "lat": 46.2481067,
    "lon": 6.9559891
  },
  {
    "name": "Garage Carrosserie des Trois ChÃªnes S.A",
    "adresse": "Route d'Yverdon 19, 1040 Echallens",
    "plz": "1040",
    "marken": [],
    "lat": 46.6456099,
    "lon": 6.63698274812416
  },
  {
    "name": "Destimoto De Simone + Stierli",
    "adresse": "Loretostrasse 18, 9620 Lichtensteig",
    "plz": "9620",
    "marken": [],
    "lat": 47.3250492,
    "lon": 9.086242661297378
  },
  {
    "name": "Automobile Diethelm AG",
    "adresse": "St. Gallerstrasse 26/28, 8580 Amriswil",
    "plz": "8580",
    "marken": [],
    "lat": 47.54420802682748,
    "lon": 9.298590329882826
  },
  {
    "name": "Dimab Chablais SA",
    "adresse": "Route du Simplon 16, 1895 Vionnaz",
    "plz": "1895",
    "marken": [],
    "lat": 46.30845935,
    "lon": 6.904958444531844
  },
  {
    "name": "Dimab Riviera SA",
    "adresse": "Ch. de la Veyre d'en Haut A3, 1806 St-LÃ©gier-La ChiÃ©saz",
    "plz": "1806",
    "marken": [],
    "lat": 46.4768107,
    "lon": 6.859867714575023
  },
  {
    "name": "DIMAB Rossens SA",
    "adresse": "Chemin de la Longivue 1, 1726 Farvagny-le-Grand",
    "plz": "1726",
    "marken": [],
    "lat": 46.7231472,
    "lon": 7.0841993
  },
  {
    "name": "Dimab SA Succursale d'Yverdon",
    "adresse": "Avenue Haldimand 34, 1400 Yverdon-les-Bains",
    "plz": "1400",
    "marken": [],
    "lat": 46.77870945,
    "lon": 6.6462942143750094
  },
  {
    "name": "DM - DOUCE MOBILITÃ SARL",
    "adresse": "Chemin du Petit-Flon 27, 1052 Le Mont-sur-Lausanne",
    "plz": "1052",
    "marken": [],
    "lat": 46.54463185,
    "lon": 6.62671685205172
  },
  {
    "name": "Garage du Mont-Blanc Moulin SA",
    "adresse": "route du Grand-St-Bernard 24, 1921 Martigny-Croix",
    "plz": "1921",
    "marken": [],
    "lat": 46.08795269173175,
    "lon": 7.055940351235378
  },
  {
    "name": "Garage du Nord Monthey SA",
    "adresse": "route du Simplon 19, 1870 Monthey",
    "plz": "1870",
    "marken": [],
    "lat": 46.2988934,
    "lon": 6.90994315
  },
  {
    "name": "Garage du Rallye Cornol SA",
    "adresse": "Route de Courgenay 8, 2952 Cornol",
    "plz": "2952",
    "marken": [],
    "lat": 47.407732,
    "lon": 7.1575834
  },
  {
    "name": "Automobiles du Verdel SA",
    "adresse": "Rue de l'Etang 13, 1630 Bulle",
    "plz": "1630",
    "marken": [],
    "lat": 46.6252737,
    "lon": 7.0676178
  },
  {
    "name": "Garage et Carrosserie du Viaduc- Villeneuve S.A",
    "adresse": "Zone Industrielle C, 1844 Villeneuve VD",
    "plz": "1844",
    "marken": [],
    "lat": 46.39148315,
    "lon": 6.932887262885755
  },
  {
    "name": "Garage Dubach AG",
    "adresse": "Oltenstrasse 9, 4702 Oensingen",
    "plz": "4702",
    "marken": [],
    "lat": 47.29052865,
    "lon": 7.727764889057738
  },
  {
    "name": "Auto-Center Durrer AG",
    "adresse": "BrÃ¼nigstrasse 37, 6055 Alpnach Dorf",
    "plz": "6055",
    "marken": [],
    "lat": 46.9385645,
    "lon": 8.270894639510278
  },
  {
    "name": "Durret Automobiles SA - FordStore",
    "adresse": "Route de la Drague 60, 1950 Sion",
    "plz": "1950",
    "marken": [],
    "lat": 46.220153,
    "lon": 7.3514954
  },
  {
    "name": "Duxon AG",
    "adresse": "Betti 46, 8856 Tuggen",
    "plz": "8856",
    "marken": [],
    "lat": 47.18568595,
    "lon": 8.9330897
  },
  {
    "name": "Garage E. Bieri AG",
    "adresse": "Hauptstrasse, 6162 Entlebuch",
    "plz": "6162",
    "marken": [],
    "lat": 47.00163492692486,
    "lon": 8.070418478326713
  },
  {
    "name": "Garage Elite C. Chammartin SÃ rl",
    "adresse": "route de Bocheferra 9, 1680 Romont FR",
    "plz": "1680",
    "marken": [],
    "lat": 46.7041628,
    "lon": 6.9324678031566425
  },
  {
    "name": "Emil Frey AG Zweigniederlassung Rossbodenstrasse",
    "adresse": "Rossbodenstrasse 10, 7000 Chur",
    "plz": "7000",
    "marken": [],
    "lat": 46.8501855,
    "lon": 9.505197921593677
  },
  {
    "name": "Emil Frey AG Zweigniederlassung Kasernenstrasse",
    "adresse": "Kasernenstrasse 148, 7007 Chur",
    "plz": "7007",
    "marken": [],
    "lat": 46.84658505,
    "lon": 9.512337163543693
  },
  {
    "name": "Emil Frey AG Zweigniederlassung Autowelt Basel-Dreispitz",
    "adresse": "BrÃ¼glingerstrasse 2, 4002 Basel",
    "plz": "4002",
    "marken": [],
    "lat": 47.5365011,
    "lon": 7.6102123
  },
  {
    "name": "Emil Frey AG Zweigniederlassung Bern Eigerplatz",
    "adresse": "Eigerplatz 2, 3007 Bern",
    "plz": "3007",
    "marken": [],
    "lat": 46.9414294,
    "lon": 7.43059
  },
  {
    "name": "Emil Frey AG Zweigniederlassung DÃ¼bendorf",
    "adresse": "ZÃ¼richstrasse 127/129, 8600 DÃ¼bendorf",
    "plz": "8600",
    "marken": [],
    "lat": 47.3957739612395,
    "lon": 8.606474564549362
  },
  {
    "name": "Emil Frey SA Succursale Centre Automobiles aux Vernets",
    "adresse": "Rue FranÃ§ois-Dussaud 13, 1211 GenÃ¨ve",
    "plz": "1211",
    "marken": [],
    "lat": 46.1946302,
    "lon": 6.1310789
  },
  {
    "name": "Emil Frey AG Zweigniederlassung Kreuzgarage Schaffhausen",
    "adresse": "Herblingerstrasse 44, 8207 Schaffhausen",
    "plz": "8207",
    "marken": [],
    "lat": 47.7191279,
    "lon": 8.655793943560418
  },
  {
    "name": "Emil Frey SA Succursale Pambio-Noranco",
    "adresse": "via Pian Scairolo, 6915 Pambio-Noranco",
    "plz": "6915",
    "marken": [],
    "lat": 45.985427928120885,
    "lon": 8.932393251940544
  },
  {
    "name": "Emil Frey AG Autocenter Luzern-Littau",
    "adresse": "Schachenhof 2, 6014 Luzern",
    "plz": "6014",
    "marken": [],
    "lat": 47.0619045,
    "lon": 8.264945749999999
  },
  {
    "name": "Emil Frey AG Zweigniederlassung Moosseedorf",
    "adresse": "Gewerbestrasse 17, 3302 Moosseedorf",
    "plz": "3302",
    "marken": [],
    "lat": 47.01418925,
    "lon": 7.492135121694377
  },
  {
    "name": "Emil Frey SA Succursale Garage et Carrosserie",
    "adresse": "route de Fribourg 11, 1723 Marly",
    "plz": "1723",
    "marken": [],
    "lat": 46.7794795,
    "lon": 7.152160886616363
  },
  {
    "name": "Emil Frey SA Succursale Morges",
    "adresse": "Avenue de Plan 8, 1110 Morges",
    "plz": "1110",
    "marken": [],
    "lat": 46.517341,
    "lon": 6.5042234
  },
  {
    "name": "Emil Frey AG Zweigniederlassung MÃ¼nchenstein",
    "adresse": "Grabenackerstrasse 10, 4142 MÃ¼nchenstein",
    "plz": "4142",
    "marken": [],
    "lat": 47.5220112,
    "lon": 7.6047883
  },
  {
    "name": "Emil Frey AG, Zweigniederlassung Autocenter",
    "adresse": "Milchstrasse 3, 3072 Ostermundigen",
    "plz": "3072",
    "marken": [],
    "lat": 46.96306955,
    "lon": 7.480175061824894
  },
  {
    "name": "Emil Frey AG Zweigniederlassung Safenwil",
    "adresse": "Emil-Frey-Strasse, 5745 Safenwil",
    "plz": "5745",
    "marken": [],
    "lat": 47.323842229028585,
    "lon": 7.979901467037533
  },
  {
    "name": "Emil Frey AG Zweigniederlassung Schaffhausen",
    "adresse": "Gennersbrunnerstrasse 58, 8207 Schaffhausen",
    "plz": "8207",
    "marken": [],
    "lat": 47.7176527,
    "lon": 8.6625378
  },
  {
    "name": "Emil Frey AG Zweigniederlassung Schlieren",
    "adresse": "ZÃ¼rcherstrasse 94, 8952 Schlieren",
    "plz": "8952",
    "marken": [],
    "lat": 47.3971338,
    "lon": 8.460827457683306
  },
  {
    "name": "Emil Frey SA Succursale Sion",
    "adresse": "Rue de la Dixence 83, 1950 Sion",
    "plz": "1950",
    "marken": [],
    "lat": 46.2252869,
    "lon": 7.3739805
  },
  {
    "name": "Emil Frey AG Zweigniederlassung Spreitenbach",
    "adresse": "Landstrasse 148, 8957 Spreitenbach",
    "plz": "8957",
    "marken": [],
    "lat": 47.4179936,
    "lon": 8.3754652
  },
  {
    "name": "Emil Frey SA Succursale Centre Automobile St. LÃ©gier",
    "adresse": "route Industrielle 10, 1806 St-LÃ©gier-La ChiÃ©saz",
    "plz": "1806",
    "marken": [],
    "lat": 46.4755138,
    "lon": 6.864248019020673
  },
  {
    "name": "Emil Frey AG Zweigniederlassung St. Moritz",
    "adresse": "Via Maistra 46, 7500 St. Moritz",
    "plz": "7500",
    "marken": [],
    "lat": 46.50092115,
    "lon": 9.845029234011893
  },
  {
    "name": "Emil Frey AG Zweigniederlassung Volketswil",
    "adresse": "Industriestrasse 31/33, 8604 Volketswil",
    "plz": "8604",
    "marken": [],
    "lat": 47.379873223123454,
    "lon": 8.67941285797192
  },
  {
    "name": "Emil Frey AG Zweigniederlassung Auto Central Zuchwil",
    "adresse": "Langfeldstrasse 1, 4528 Zuchwil",
    "plz": "4528",
    "marken": [],
    "lat": 47.20461945,
    "lon": 7.563592500830517
  },
  {
    "name": "Emil Frey AG Zweigniederlassung ZÃ¼ri-Oberland Volketswil",
    "adresse": "Industriestrasse 2b, 8604 Volketswil",
    "plz": "8604",
    "marken": [],
    "lat": 47.38267775,
    "lon": 8.664299455544317
  },
  {
    "name": "Emil Frey AG Zweigniederlassung Garage ZÃ¼rich Nord",
    "adresse": "Thurgauerstrasse 35, 8050 ZÃ¼rich",
    "plz": "8050",
    "marken": [],
    "lat": 47.4137337,
    "lon": 8.550269003006845
  },
  {
    "name": "Emil Frey AG Zweigniederlassung Rheintal-Garage Chur",
    "adresse": "Rossbodenstrasse 2, 7000 Chur",
    "plz": "7000",
    "marken": [],
    "lat": 46.84882695,
    "lon": 9.504811701953413
  },
  {
    "name": "Emil Frey AG Zweigniederlassung Landquart",
    "adresse": "Wuhrstrasse 15, 7302 Landquart",
    "plz": "7302",
    "marken": [],
    "lat": 46.96903415,
    "lon": 9.57184784506108
  },
  {
    "name": "EMIL FREY SA succursale de Chavannes-prÃ¨s-Renens",
    "adresse": "Route de la MaladiÃ¨re 44, 1022 Chavannes-prÃ¨s-Renens",
    "plz": "1022",
    "marken": [],
    "lat": 46.5266586,
    "lon": 6.5814935
  },
  {
    "name": "Garage Engeler AG",
    "adresse": "ZÃ¼rcherstrasse 281, 8501 Frauenfeld",
    "plz": "8501",
    "marken": [],
    "lat": 47.5629819,
    "lon": 8.907137560930671
  },
  {
    "name": "Engeler Automobile AG",
    "adresse": "Dunantstrasse 9, 8570 Weinfelden",
    "plz": "8570",
    "marken": [],
    "lat": 47.56597855,
    "lon": 9.093254528593128
  },
  {
    "name": "Engeler Automobile AG",
    "adresse": "Romanshornerstrasse 113, 8280 Kreuzlingen",
    "plz": "8280",
    "marken": [],
    "lat": 47.6399085,
    "lon": 9.201506921888374
  },
  {
    "name": "Garage Enzian B&F AG",
    "adresse": "Kantonsstrasse 1, 3946 Turtmann",
    "plz": "3946",
    "marken": [],
    "lat": 46.3015754,
    "lon": 7.6998099
  },
  {
    "name": "Epper AG",
    "adresse": "Horwerstrasse 81, 6005 Luzern",
    "plz": "6005",
    "marken": [],
    "lat": 47.0359679,
    "lon": 8.3027709
  },
  {
    "name": "Epper AG",
    "adresse": "Baselstrasse 10, 6210 Sursee",
    "plz": "6210",
    "marken": [],
    "lat": 47.1725278,
    "lon": 8.092504681765003
  },
  {
    "name": "Ernst Ruckstuhl AG",
    "adresse": "Industriestrasse 10, 8302 Kloten",
    "plz": "8302",
    "marken": [],
    "lat": 47.4499276,
    "lon": 8.5886938
  },
  {
    "name": "ETech-3 GmbH",
    "adresse": "KÃ¤genstrasse 25, 4153 Reinach BL",
    "plz": "4153",
    "marken": [],
    "lat": 47.4852349,
    "lon": 7.5984263
  },
  {
    "name": "Etoile Automobile, succursale de Groupe Leuba SA",
    "adresse": "Les Tilles 5, 2016 Cortaillod",
    "plz": "2016",
    "marken": [],
    "lat": 46.9455149528145,
    "lon": 6.833035869493727
  },
  {
    "name": "ETPL SA",
    "adresse": "Rte du Bois de Bay 16, 1242 Satigny",
    "plz": "1242",
    "marken": [],
    "lat": 46.2003894,
    "lon": 6.064115
  },
  {
    "name": "Euro Truck AG Zweigniederlassung Aarau",
    "adresse": "Weihermattstrasse 64, 5000 Aarau",
    "plz": "5000",
    "marken": [],
    "lat": 47.3960931,
    "lon": 8.062329460659507
  },
  {
    "name": "Euromobile SÃ rl",
    "adresse": "Chemin des Grandes-Vies 21, 2900 Porrentruy",
    "plz": "2900",
    "marken": [],
    "lat": 47.42976295,
    "lon": 7.080846741337556
  },
  {
    "name": "Euromobile SÃ rl, succursale DelÃ©mont",
    "adresse": "Route de Moutier 64, 2800 DelÃ©mont",
    "plz": "2800",
    "marken": [],
    "lat": 47.36269511453488,
    "lon": 7.350760160547764
  },
  {
    "name": "Evodrive SÃ rl",
    "adresse": "Route de l'industrie 16, 1680 Romont FR",
    "plz": "1680",
    "marken": [],
    "lat": 46.68880465959989,
    "lon": 6.908768565117801
  },
  {
    "name": "Facchinetti Automobiles (DelÃ©mont) SA",
    "adresse": "Route de Moutier 113, 2800 DelÃ©mont",
    "plz": "2800",
    "marken": [],
    "lat": 47.362666450000006,
    "lon": 7.361626372878822
  },
  {
    "name": "Facchinetti Automobiles (GenÃ¨ve-Meyrin) SA",
    "adresse": "route de Meyrin 214, 1217 Meyrin",
    "plz": "1217",
    "marken": [],
    "lat": 46.2254112,
    "lon": 6.0855951
  },
  {
    "name": "Facchinetti Automobiles SA",
    "adresse": "boulevard de la LibertÃ© 2, 2300 La Chaux-de-Fonds",
    "plz": "2300",
    "marken": [],
    "lat": 47.09335245,
    "lon": 6.822236791550785
  },
  {
    "name": "Falknisgarge Kunz AG",
    "adresse": "Landstrasse 27, 7304 Maienfeld",
    "plz": "7304",
    "marken": [],
    "lat": 47.0021098,
    "lon": 9.532386967282708
  },
  {
    "name": "Felder 2Rad-Center GmbH",
    "adresse": "Entlebucherstrasse 10, 6110 Wolhusen",
    "plz": "6110",
    "marken": [],
    "lat": 47.05857495,
    "lon": 8.07185040572493
  },
  {
    "name": "Felix Emmenegger AG",
    "adresse": "Bollstrasse 2, 5417 Untersiggenthal",
    "plz": "5417",
    "marken": [],
    "lat": 47.496485,
    "lon": 8.2683652
  },
  {
    "name": "Fila Groupe SA",
    "adresse": "ChaussÃ©e de Treycovagnes 7-13, 1401 Yverdon-les-Bains",
    "plz": "1401",
    "marken": [],
    "lat": 46.77882275,
    "lon": 6.62674855
  },
  {
    "name": "Fila Groupe SA",
    "adresse": "Rue EugÃ¨ne-de-Coulon 13, 2022 Bevaix",
    "plz": "2022",
    "marken": [],
    "lat": 46.9238196,
    "lon": 6.8099136
  },
  {
    "name": "Fila Groupe SA",
    "adresse": "Boulevard des Eplatures 51, 2300 La Chaux-de-Fonds",
    "plz": "2300",
    "marken": [],
    "lat": 47.085036200000005,
    "lon": 6.799623799398119
  },
  {
    "name": "Fischer AG, Baldegg",
    "adresse": "Hauptstrasse 8, 6283 Baldegg",
    "plz": "6283",
    "marken": [],
    "lat": 47.1851546,
    "lon": 8.280907919284768
  },
  {
    "name": "Fleuben-Garage AG",
    "adresse": "Oberrieterstrasse 61, 9450 AltstÃ¤tten SG",
    "plz": "9450",
    "marken": [],
    "lat": 47.36603555000001,
    "lon": 9.554659501328596
  },
  {
    "name": "FlÃ¼ckiger Baumaschinen/Nutz- fahrzeuge AG",
    "adresse": "Industriestrasse 12, 3315 BÃ¤tterkinden",
    "plz": "3315",
    "marken": [],
    "lat": 47.14079165,
    "lon": 7.536760450000001
  },
  {
    "name": "Forellensee-Garage Aktiengesellschaft B. Salzmann",
    "adresse": "Thunstrasse 30, 3770 Zweisimmen",
    "plz": "3770",
    "marken": [],
    "lat": 46.56320315,
    "lon": 7.375849650261014
  },
  {
    "name": "Franz AG",
    "adresse": "St. Gallerstrasse 106, 8404 Winterthur",
    "plz": "8404",
    "marken": [],
    "lat": 47.4979699,
    "lon": 8.7471104
  },
  {
    "name": "Frei Bahnhof-Garage AG",
    "adresse": "Schlosstalstrasse 211, 8408 Winterthur",
    "plz": "8408",
    "marken": [],
    "lat": 47.50467355,
    "lon": 8.68648966550926
  },
  {
    "name": "Freihof-Garage AG",
    "adresse": "Oberdorf 40, 8752 NÃ¤fels",
    "plz": "8752",
    "marken": [],
    "lat": 47.09433955,
    "lon": 9.060208577748938
  },
  {
    "name": "Frey Cars AG",
    "adresse": "Thalstrasse 143, 4714 Aedermannsdorf",
    "plz": "4714",
    "marken": [],
    "lat": 47.2984159,
    "lon": 7.6155132
  },
  {
    "name": "Friderici Services SA",
    "adresse": "Rte du Molliau 30, 1131 Tolochenaz",
    "plz": "1131",
    "marken": [],
    "lat": 46.5008099463923,
    "lon": 6.482431650687107
  },
  {
    "name": "Garage Fries AG",
    "adresse": "Kantonsstrasse 73, 6234 Triengen",
    "plz": "6234",
    "marken": [],
    "lat": 47.2372419,
    "lon": 8.0749263
  },
  {
    "name": "Fritz SchlÃ¤pfer & Co. AG",
    "adresse": "Bildstrasse 3, 9015 St. Gallen",
    "plz": "9015",
    "marken": [],
    "lat": 47.41348765,
    "lon": 9.311473040295729
  },
  {
    "name": "Furrer Auto Lachen AG",
    "adresse": "GlÃ¤rnischstrasse 17, 8853 Lachen SZ",
    "plz": "8853",
    "marken": [],
    "lat": 47.19132845,
    "lon": 8.864710196383221
  },
  {
    "name": "G. Kolly S.A.",
    "adresse": "Rte de la GruyÃ¨re 88, 1724 Le Mouret",
    "plz": "1724",
    "marken": [],
    "lat": 46.7437238,
    "lon": 7.1721963
  },
  {
    "name": "Garage G. Zell GmbH",
    "adresse": "Juchstrasse 1, 8604 Volketswil",
    "plz": "8604",
    "marken": [],
    "lat": 47.39197645,
    "lon": 8.665060201407382
  },
  {
    "name": "Garage & Carrosserie Gachnang SA",
    "adresse": "Chemin des Orlons 1, 1860 Aigle",
    "plz": "1860",
    "marken": [],
    "lat": 46.3131108,
    "lon": 6.940969553724377
  },
  {
    "name": "Garage Galliker AG Aarburg",
    "adresse": "Oltnerstrasse 101, 4663 Aarburg",
    "plz": "4663",
    "marken": [],
    "lat": 47.33366625,
    "lon": 7.906052318029798
  },
  {
    "name": "Garage Galliker AG Bellach",
    "adresse": "RÃ¶merstrasse 8, 4512 Bellach",
    "plz": "4512",
    "marken": [],
    "lat": 47.2122493,
    "lon": 7.5091851
  },
  {
    "name": "Garage Galliker Nidfeld AG",
    "adresse": "Sternmattweg 4, 6010 Kriens",
    "plz": "6010",
    "marken": [],
    "lat": 47.0285369,
    "lon": 8.297111497732416
  },
  {
    "name": "Garage Galliker AG Luzern",
    "adresse": "Staldenhof 1, 6014 Luzern",
    "plz": "6014",
    "marken": [],
    "lat": 47.06650775,
    "lon": 8.269482786772487
  },
  {
    "name": "Garage Galliker AG Strengelbach",
    "adresse": "Zofingerstrasse 30, 4802 Strengelbach",
    "plz": "4802",
    "marken": [],
    "lat": 47.28066605,
    "lon": 7.934167565934062
  },
  {
    "name": "Garage Galliker AG",
    "adresse": "Hohenrainstrasse 50, 6280 Hochdorf",
    "plz": "6280",
    "marken": [],
    "lat": 47.16840515,
    "lon": 8.304422913398444
  },
  {
    "name": "Garage Galliker Mittelland AG Zweigniederlassung Bern",
    "adresse": "Freiburgstrasse 451, 3018 Bern",
    "plz": "3018",
    "marken": [],
    "lat": 46.9334183,
    "lon": 7.390939747999827
  },
  {
    "name": "Garage Galliker Mittelland AG",
    "adresse": "Kanalweg 4, 3322 Urtenen-SchÃ¶nbÃ¼hl",
    "plz": "3322",
    "marken": [],
    "lat": 47.0188561,
    "lon": 7.490648346088198
  },
  {
    "name": "Garage Galliker Nidfeld AG Kriens",
    "adresse": "Luzernerstrasse 57, 6030 Ebikon",
    "plz": "6030",
    "marken": [],
    "lat": 47.0711862,
    "lon": 8.323914960622684
  },
  {
    "name": "Garage Ackermann AG, Dotzigen",
    "adresse": "Scheurenstrasse 15, 3293 Dotzigen",
    "plz": "3293",
    "marken": [],
    "lat": 47.12011405,
    "lon": 7.335407484511822
  },
  {
    "name": "Garage Arnet AG",
    "adresse": "Ettiswilerstrasse 34, 6130 Willisau",
    "plz": "6130",
    "marken": [],
    "lat": 47.1278017,
    "lon": 7.998186711426484
  },
  {
    "name": "Garage B. Studer AG",
    "adresse": "Industriezone Basper 17, 3942 Raron",
    "plz": "3942",
    "marken": [],
    "lat": 46.30353181981528,
    "lon": 7.811497199531243
  },
  {
    "name": "Garage Balmer AG",
    "adresse": "Simmentalstrasse 625a, 3758 Latterbach",
    "plz": "3758",
    "marken": [],
    "lat": 46.6644809,
    "lon": 7.5796665
  },
  {
    "name": "Garage Bernard Despont SA",
    "adresse": "Zi du Vivier 2, 1690 Villaz-St-Pierre",
    "plz": "1690",
    "marken": [],
    "lat": 46.7179475,
    "lon": 6.9618666
  },
  {
    "name": "Garage Berset SÃ rl, la Tour-de-TrÃªme",
    "adresse": "Impasse Verte 5, 1635 La Tour-de-TrÃªme",
    "plz": "1635",
    "marken": [],
    "lat": 46.6031764,
    "lon": 7.0732139
  },
  {
    "name": "Garage Bircher Ãgeri AG",
    "adresse": "Zugerstrasse 75, 6314 UnterÃ¤geri",
    "plz": "6314",
    "marken": [],
    "lat": 47.1400985,
    "lon": 8.5731214
  },
  {
    "name": "Garage Bolzern Koch AG",
    "adresse": "Schachenweidstrasse 48, 6030 Ebikon",
    "plz": "6030",
    "marken": [],
    "lat": 47.07329435,
    "lon": 8.327527516640213
  },
  {
    "name": "Garage Brem AG",
    "adresse": "Sonnmattweg 6b, 5620 Bremgarten AG",
    "plz": "5620",
    "marken": [],
    "lat": 47.3543173,
    "lon": 8.338796
  },
  {
    "name": "Garage BÃ¼rgler GmbH",
    "adresse": "Gewerbestrasse 19, 6438 Ibach",
    "plz": "6438",
    "marken": [],
    "lat": 47.01271145,
    "lon": 8.632776545692023
  },
  {
    "name": "Garage-Carrosserie Friedli SA",
    "adresse": "rue de la Vignette 65, 1530 Payerne",
    "plz": "1530",
    "marken": [],
    "lat": 46.814295328402565,
    "lon": 6.938955716414954
  },
  {
    "name": "Garage-Carrosserie Willemin SA",
    "adresse": "Route de Porrentruy 88, 2800 DelÃ©mont",
    "plz": "2800",
    "marken": [],
    "lat": 47.36153917898166,
    "lon": 7.322877204785409
  },
  {
    "name": "Garage Carrozzeria Maffeis SA",
    "adresse": "Via Lugano 125, 6950 Tesserete",
    "plz": "6950",
    "marken": [],
    "lat": 46.06516615655478,
    "lon": 8.968191992722181
  },
  {
    "name": "Garage Chuard SA",
    "adresse": "Route de la Maladaire 6, 1562 Corcelles-prÃ¨s-Payerne",
    "plz": "1562",
    "marken": [],
    "lat": 46.82685376379902,
    "lon": 6.9519752935547485
  },
  {
    "name": "Garage de l'Etoile, succursale de Groupe Leuba SA",
    "adresse": "route de Cossonay 101, 1020 Renens VD",
    "plz": "1020",
    "marken": [],
    "lat": 46.5388537,
    "lon": 6.5971845
  },
  {
    "name": "Garage de la Broye Ansermet SA",
    "adresse": "Route du Grand-Chemin 30, 1562 Corcelles-prÃ¨s-Payerne",
    "plz": "1562",
    "marken": [],
    "lat": 46.83086507662658,
    "lon": 6.961598349679991
  },
  {
    "name": "Garage de la Gare Vevey S.A.",
    "adresse": "avenue GÃ©nÃ©ral-Guisan 47, 1800 Vevey",
    "plz": "1800",
    "marken": [],
    "lat": 46.46527705,
    "lon": 6.8383467301867285
  },
  {
    "name": "Garage de la Plaine CrÃ©tin SA",
    "adresse": "Route de Porrentruy 30, 2923 CourtemaÃ®che",
    "plz": "2923",
    "marken": [],
    "lat": 47.452173,
    "lon": 7.0536081
  },
  {
    "name": "Garage de la Plaine, succursale de Groupe Leuba SA",
    "adresse": "rue de la Plaine 65, 1400 Yverdon-les-Bains",
    "plz": "1400",
    "marken": [],
    "lat": 46.77695385,
    "lon": 6.646214631167814
  },
  {
    "name": "Garage de la Riviera, succursale de Groupe Leuba SA R.Leuba & Fils SA",
    "adresse": "route de Saint-Maurice 233, 1814 La Tour-de-Peilz",
    "plz": "1814",
    "marken": [],
    "lat": 46.4486665,
    "lon": 6.872444442530862
  },
  {
    "name": "Garage de la Vigie MC Sport SÃ rl",
    "adresse": "chemin de la Rottaz 3, 1820 Montreux",
    "plz": "1820",
    "marken": [],
    "lat": 46.45222405,
    "lon": 6.898811589266963
  },
  {
    "name": "Garage du ChÃ¢teau d'Enbas",
    "adresse": "Rue du PrieurÃ© 38, 1636 Broc",
    "plz": "1636",
    "marken": [],
    "lat": 46.60329015,
    "lon": 7.093805062605043
  },
  {
    "name": "Garage du CrÃªt",
    "adresse": "rue de la Chapelle 52, 2035 Corcelles NE",
    "plz": "2035",
    "marken": [],
    "lat": 46.9855998,
    "lon": 6.8656895
  },
  {
    "name": "Garage du Nord SA",
    "adresse": "route de SÃ©cheron 2, 1964 Conthey",
    "plz": "1964",
    "marken": [],
    "lat": 46.2144774,
    "lon": 7.292997047993101
  },
  {
    "name": "Garage du Nord Martigny Sarl",
    "adresse": "rue du Simplon 53, 1920 Martigny",
    "plz": "1920",
    "marken": [],
    "lat": 46.1096654,
    "lon": 7.0913627
  },
  {
    "name": "Garage du Nord Sierre SA",
    "adresse": "Ecoparc de Daval B 10, 3960 Sierre",
    "plz": "3960",
    "marken": [],
    "lat": 46.2730781,
    "lon": 7.5205139
  },
  {
    "name": "Garage du Repuis SA J.-J. Reymond",
    "adresse": "rue de NeuchÃ¢tel 43, 1422 Grandson",
    "plz": "1422",
    "marken": [],
    "lat": 46.81515515,
    "lon": 6.651907143094182
  },
  {
    "name": "Garage ChÃ¨vre SA",
    "adresse": "Rue Auguste-Quiquerez 14, 2800 DelÃ©mont",
    "plz": "2800",
    "marken": [],
    "lat": 47.3661843,
    "lon": 7.358886505134025
  },
  {
    "name": "Garage du Simplon Viscardi & Cie SA",
    "adresse": "Route du Grand-Saint-Bernard 17, 1880 Bex",
    "plz": "1880",
    "marken": [],
    "lat": 46.2507662,
    "lon": 7.002193208791617
  },
  {
    "name": "Garage Egli AG",
    "adresse": "ZÃ¼rcherstrasse 7, 4310 Rheinfelden",
    "plz": "4310",
    "marken": [],
    "lat": 47.5530924,
    "lon": 7.797183428888974
  },
  {
    "name": "Garage Erard SÃ rl",
    "adresse": "rue des Rangiers 22, 2350 SaignelÃ©gier",
    "plz": "2350",
    "marken": [],
    "lat": 47.25865895,
    "lon": 7.000025207867382
  },
  {
    "name": "Garage Eric Bussy",
    "adresse": "Route d'Yverdon 30, 1373 Chavornay",
    "plz": "1373",
    "marken": [],
    "lat": 46.71372045,
    "lon": 6.57507920000001
  },
  {
    "name": "Garage Galliker AG GÃ¼mligen",
    "adresse": "Worbstrasse 171, 3073 GÃ¼mligen",
    "plz": "3073",
    "marken": [],
    "lat": 46.9353071,
    "lon": 7.499787432144965
  },
  {
    "name": "Garage Gautschi AG",
    "adresse": "BÃ¼tzbergstrasse 98, 4900 Langenthal",
    "plz": "4900",
    "marken": [],
    "lat": 47.21732555,
    "lon": 7.770099890435261
  },
  {
    "name": "Garage Gautschi AG",
    "adresse": "Bern-ZÃ¼richstrasse 44, 4900 Langenthal",
    "plz": "4900",
    "marken": [],
    "lat": 47.21921905000001,
    "lon": 7.769065100288185
  },
  {
    "name": "Garage Gautschi AG",
    "adresse": "Schachenstrasse 31, 3421 Lyssach",
    "plz": "3421",
    "marken": [],
    "lat": 47.0737707,
    "lon": 7.58881183771784
  },
  {
    "name": "Garage Gloor AG",
    "adresse": "Dorfstrasse 489, 5728 Gontenschwil",
    "plz": "5728",
    "marken": [],
    "lat": 47.2676699,
    "lon": 8.1473245
  },
  {
    "name": "Garage Grenacher AG",
    "adresse": "Kirchgass 26, 9442 Berneck",
    "plz": "9442",
    "marken": [],
    "lat": 47.424189,
    "lon": 9.614751754353458
  },
  {
    "name": "Garage Greub AG Honda Terminal Oberaargau",
    "adresse": "Kapellenweg 2+4, 4923 Wynau",
    "plz": "4923",
    "marken": [],
    "lat": 47.25799943556019,
    "lon": 7.823736135314328
  },
  {
    "name": "Garage Guex Nyon SA",
    "adresse": "Route dâOulteret 44, 1260 Nyon",
    "plz": "1260",
    "marken": [],
    "lat": 46.39322845,
    "lon": 6.237043225135058
  },
  {
    "name": "Garage Guex SA",
    "adresse": "Route de Romanel 40, 1121 Bremblens",
    "plz": "1121",
    "marken": [],
    "lat": 46.5488623427251,
    "lon": 6.514112256835344
  },
  {
    "name": "Garage H.R. Baumgartner AG",
    "adresse": "Kreuzmatte 12, 6260 Reiden",
    "plz": "6260",
    "marken": [],
    "lat": 47.24691385,
    "lon": 7.96254109595609
  },
  {
    "name": "Garage Herzog AG",
    "adresse": "Wilerstrasse 106, 8370 Sirnach",
    "plz": "8370",
    "marken": [],
    "lat": 47.463194650000005,
    "lon": 9.0230106
  },
  {
    "name": "Garage Hofer AG",
    "adresse": "Landstrasse 24, 8595 Altnau",
    "plz": "8595",
    "marken": [],
    "lat": 47.6178793,
    "lon": 9.2676533
  },
  {
    "name": "Garage Hofmann AG",
    "adresse": "Emmentalstrasse 100, 3414 Oberburg",
    "plz": "3414",
    "marken": [],
    "lat": 47.03555555,
    "lon": 7.629270184101279
  },
  {
    "name": "Garage Hug AG",
    "adresse": "Karmaad 17, 9473 Gams",
    "plz": "9473",
    "marken": [],
    "lat": 47.20265094777087,
    "lon": 9.456174231717435
  },
  {
    "name": "Garage Kaufmann AG Wittenbach",
    "adresse": "Arbonerstrasse 39, 9300 Wittenbach",
    "plz": "9300",
    "marken": [],
    "lat": 47.46524395,
    "lon": 9.393860354088952
  },
  {
    "name": "Garage Kehrli FrÃ¨res Aubonne SNC",
    "adresse": "Route d'Allaman 106, 1170 Aubonne",
    "plz": "1170",
    "marken": [],
    "lat": 46.4897415,
    "lon": 6.3987288623116285
  },
  {
    "name": "Garage LÃ¼thi AG Hermiswil",
    "adresse": "Hauptstrasse 83, 3475 Hermiswil",
    "plz": "3475",
    "marken": [],
    "lat": 47.15265555,
    "lon": 7.695908108495347
  },
  {
    "name": "Garage LÃ¼thi AG Hermiswil Zweigniederlassung Langenthal",
    "adresse": "Bleienbachstrasse 54, 4900 Langenthal",
    "plz": "4900",
    "marken": [],
    "lat": 47.202269,
    "lon": 7.780900567254477
  },
  {
    "name": "Garage Marti AG",
    "adresse": "Solothurnerstrasse 22, 4614 HÃ¤gendorf",
    "plz": "4614",
    "marken": [],
    "lat": 47.3308022,
    "lon": 7.836390340384444
  },
  {
    "name": "Garage Moderne SA",
    "adresse": "rue de la Poterne 1-3, 1630 Bulle",
    "plz": "1630",
    "marken": [],
    "lat": 46.62060231367547,
    "lon": 7.05859650774998
  },
  {
    "name": "Garage Moix",
    "adresse": "Route de Bramois 2, 1950 Sion",
    "plz": "1950",
    "marken": [],
    "lat": 46.2260736,
    "lon": 7.3872419
  },
  {
    "name": "Garage Oehri AG",
    "adresse": "Ober Au 4, 9487 Gamprin-Bendern",
    "plz": "9487",
    "marken": [],
    "lat": 47.2110415,
    "lon": 9.501115883476391
  },
  {
    "name": "Garage Oetterli AG",
    "adresse": "Murgenthalstrasse 67, 4900 Langenthal",
    "plz": "4900",
    "marken": [],
    "lat": 47.2273103,
    "lon": 7.79115315980758
  },
  {
    "name": "Garage Pfister AG",
    "adresse": "Bischofszellerstrasse 315, 9212 Arnegg",
    "plz": "9212",
    "marken": [],
    "lat": 47.44095915,
    "lon": 9.254795646898652
  },
  {
    "name": "Garage Rickli",
    "adresse": "Bleichiweg 3, 4460 Gelterkinden",
    "plz": "4460",
    "marken": [],
    "lat": 47.4606279,
    "lon": 7.8610335752257665
  },
  {
    "name": "Garage Robert SA",
    "adresse": "route de Boudry 11, 2016 Cortaillod",
    "plz": "2016",
    "marken": [],
    "lat": 46.94463229971642,
    "lon": 6.843488324853032
  },
  {
    "name": "Garage Rupli",
    "adresse": "Bahnhofstrasse 25, 4950 Huttwil",
    "plz": "4950",
    "marken": [],
    "lat": 47.11364475,
    "lon": 7.845234730583035
  },
  {
    "name": "Garage Sport Lugano SA",
    "adresse": "Via Sonvico 17, 6952 Canobbio",
    "plz": "6952",
    "marken": [],
    "lat": 46.029600491289486,
    "lon": 8.96776761078212
  },
  {
    "name": "Garage St-Christophe, Willemin SA",
    "adresse": "Route de DelÃ©mont 91, 2802 Develier",
    "plz": "2802",
    "marken": [],
    "lat": 47.3614267,
    "lon": 7.3112504
  },
  {
    "name": "Garage Staehlin Cycles-motos Succ. Alain Coucheman",
    "adresse": "rue de Lausanne 3, 1530 Payerne",
    "plz": "1530",
    "marken": [],
    "lat": 46.82051675,
    "lon": 6.936738617038543
  },
  {
    "name": "Garage Tanguy Micheloud SA",
    "adresse": "route de Riddes 54, 1950 Sion",
    "plz": "1950",
    "marken": [],
    "lat": 46.2236368,
    "lon": 7.369696178590974
  },
  {
    "name": "Garage ThÃ¶ni AG",
    "adresse": "Via Santeri 73, 7130 Ilanz",
    "plz": "7130",
    "marken": [],
    "lat": 46.77227035930359,
    "lon": 9.196285979915306
  },
  {
    "name": "Garage Tondo AG",
    "adresse": "Landstrasse 6, 8754 Netstal",
    "plz": "8754",
    "marken": [],
    "lat": 47.06598055,
    "lon": 9.057388446833157
  },
  {
    "name": "Garage Tondo AG",
    "adresse": "Hauptstrasse 1, 8756 MitlÃ¶di",
    "plz": "8756",
    "marken": [],
    "lat": 47.0082492,
    "lon": 9.078342595411549
  },
  {
    "name": "Garage Voigtmann AG",
    "adresse": "Frauenfelderstrasse 1A, 8404 Winterthur",
    "plz": "8404",
    "marken": [],
    "lat": 47.5156708,
    "lon": 8.765602171994855
  },
  {
    "name": "Garage Wirz AG",
    "adresse": "Wyhlenstrasse 43, 4133 Pratteln",
    "plz": "4133",
    "marken": [],
    "lat": 47.533751800000005,
    "lon": 7.707274459625223
  },
  {
    "name": "Gattoni Maintenance Poids Lourds SA",
    "adresse": "Rue du Closillon 45, 1870 Monthey",
    "plz": "1870",
    "marken": [],
    "lat": 46.25737465,
    "lon": 6.962801454765179
  },
  {
    "name": "Garage Gavillet SA",
    "adresse": "Route de Moudon 30, 1670 Ursy",
    "plz": "1670",
    "marken": [],
    "lat": 46.63667525,
    "lon": 6.833038121952116
  },
  {
    "name": "G.E.M. Garage Electro & MÃ©canique SA",
    "adresse": "rue de Vermont 4, 1202 GenÃ¨ve",
    "plz": "1202",
    "marken": [],
    "lat": 46.2152438,
    "lon": 6.1343519
  },
  {
    "name": "Garage Gerber Sarl",
    "adresse": "Le Saucy 2, 2722 Les Reussilles",
    "plz": "2722",
    "marken": [],
    "lat": 47.22405655,
    "lon": 7.084479833304049
  },
  {
    "name": "Garage Gerbsch GmbH",
    "adresse": "Badhausstrasse 1, 3063 Ittigen",
    "plz": "3063",
    "marken": [],
    "lat": 46.97339385,
    "lon": 7.485894742146533
  },
  {
    "name": "Auto Germann AG",
    "adresse": "Hauptstrasse 37, 5502 Hunzenschwil",
    "plz": "5502",
    "marken": [],
    "lat": 47.38702325,
    "lon": 8.118218155825197
  },
  {
    "name": "GNG AG",
    "adresse": "Langfeldstrasse 10, 9200 Gossau SG",
    "plz": "9200",
    "marken": [],
    "lat": 47.42395095,
    "lon": 9.242186534912816
  },
  {
    "name": "Gotthelf Garage AG",
    "adresse": "Wanderstrasse 63, 4054 Basel",
    "plz": "4054",
    "marken": [],
    "lat": 47.5523002,
    "lon": 7.5661412
  },
  {
    "name": "Karl Graf Automobile AG",
    "adresse": "ZÃ¼richstrasse 30, 8932 Mettmenstetten",
    "plz": "8932",
    "marken": [],
    "lat": 47.246959200000006,
    "lon": 8.461144015476911
  },
  {
    "name": "Garage Grandjean SÃ rl",
    "adresse": "Chemin de Budron D5, 1052 Le Mont-sur-Lausanne",
    "plz": "1052",
    "marken": [],
    "lat": 46.57830654048037,
    "lon": 6.631863774133915
  },
  {
    "name": "GrÃ¤ub Auto Center AG",
    "adresse": "Industriestrasse 39, 5036 Oberentfelden",
    "plz": "5036",
    "marken": [],
    "lat": 47.3507286,
    "lon": 8.052575549999997
  },
  {
    "name": "Garage Nicola Greco SA",
    "adresse": "Via Industria 4, 6807 Taverne",
    "plz": "6807",
    "marken": [],
    "lat": 46.0604876,
    "lon": 8.929827
  },
  {
    "name": "Grimm Centre AndrÃ© Chevalley SA",
    "adresse": "avenue des Morgines 26, 1213 Petit-Lancy",
    "plz": "1213",
    "marken": [],
    "lat": 46.1938772,
    "lon": 6.109485
  },
  {
    "name": "Gross Garage Baden AG",
    "adresse": "Halbartenstrasse 7a, 5430 Wettingen",
    "plz": "5430",
    "marken": [],
    "lat": 47.45909588175102,
    "lon": 8.33497257359011
  },
  {
    "name": "Gross Garage Baden AG",
    "adresse": "Bruggerstrasse 194, 5400 Baden",
    "plz": "5400",
    "marken": [],
    "lat": 47.4826127,
    "lon": 8.278853481274258
  },
  {
    "name": "Groupe AFH Automobiles Autosport SA",
    "adresse": "Avenue de Grandson 39, 1400 Yverdon-les-Bains",
    "plz": "1400",
    "marken": [],
    "lat": 46.78962985,
    "lon": 6.628772986607145
  },
  {
    "name": "Groupe AFH Automobiles Forges SA",
    "adresse": "Boulevard des Eplatures 59, 2300 La Chaux-de-Fonds",
    "plz": "2300",
    "marken": [],
    "lat": 47.0842087,
    "lon": 6.7976182
  },
  {
    "name": "Groupe AFH Automobiles Hauterive SA",
    "adresse": "Rouges-Terres 57, 2068 Hauterive NE",
    "plz": "2068",
    "marken": [],
    "lat": 47.01005405,
    "lon": 6.97303084999999
  },
  {
    "name": "Garage Grundbacher AG",
    "adresse": "Industrieweg 3, 3426 Aefligen",
    "plz": "3426",
    "marken": [],
    "lat": 47.09589135,
    "lon": 7.560595227939057
  },
  {
    "name": "Grunderco SA",
    "adresse": "rue de la BergÃ¨re 26, 1242 Satigny",
    "plz": "1242",
    "marken": [],
    "lat": 46.2235875,
    "lon": 6.059484619045338
  },
  {
    "name": "GrÃ¼zenfeld-Garage AG",
    "adresse": "Rudolf-Dieselstrasse 1, 8404 Winterthur",
    "plz": "8404",
    "marken": [],
    "lat": 47.49564025,
    "lon": 8.753339326695935
  },
  {
    "name": "Garage Gubler AG",
    "adresse": "Industriestrasse 1, 4654 Lostorf",
    "plz": "4654",
    "marken": [],
    "lat": 47.3720745,
    "lon": 7.947414770329302
  },
  {
    "name": "Garage Gut AG",
    "adresse": "Untere Industrie 6, 7304 Maienfeld",
    "plz": "7304",
    "marken": [],
    "lat": 47.0028289,
    "lon": 9.523975601075318
  },
  {
    "name": "Moto GÃ¼Ã¼ge GmbH",
    "adresse": "Bouley 5, 1792 Guschelmuth",
    "plz": "1792",
    "marken": [],
    "lat": 46.88087335,
    "lon": 7.137702341280221
  },
  {
    "name": "Gysin + Gerspacher AG",
    "adresse": "Hunnenweg 8, 4503 Solothurn",
    "plz": "4503",
    "marken": [],
    "lat": 47.19881815,
    "lon": 7.532025314413307
  },
  {
    "name": "Gysin + Gerspacher AG",
    "adresse": "Ringstrasse 21, 4556 Aeschi SO",
    "plz": "4556",
    "marken": [],
    "lat": 47.17802215,
    "lon": 7.657640478448279
  },
  {
    "name": "H.P. Senn AG",
    "adresse": "Kasernenstrasse 67, 7007 Chur",
    "plz": "7007",
    "marken": [],
    "lat": 46.8469079,
    "lon": 9.5213314
  },
  {
    "name": "HÃ¤chler AG Nutzfahrzeuge",
    "adresse": "Giesserstrasse 1, 5504 Othmarsingen",
    "plz": "5504",
    "marken": [],
    "lat": 47.4076539,
    "lon": 8.215711943010213
  },
  {
    "name": "Halbeisen AG",
    "adresse": "Schneckelerstrasse 14, 4414 FÃ¼llinsdorf",
    "plz": "4414",
    "marken": [],
    "lat": 47.51494985,
    "lon": 7.720668897392979
  },
  {
    "name": "Garage Haltinner AG",
    "adresse": "Oberaustrasse 62, 9453 Eichberg",
    "plz": "9453",
    "marken": [],
    "lat": 47.3387202,
    "lon": 9.523991036816277
  },
  {
    "name": "Hammer Auto Center AG",
    "adresse": "Luzernerstrasse 44, 6045 Meggen",
    "plz": "6045",
    "marken": [],
    "lat": 47.04396545,
    "lon": 8.363587438647588
  },
  {
    "name": "Erich HÃ¤nggi Garage",
    "adresse": "Im See 14, 4208 Nunningen",
    "plz": "4208",
    "marken": [],
    "lat": 47.39574205,
    "lon": 7.615435575885206
  },
  {
    "name": "HÃ¤usermann AG",
    "adresse": "Rohrerstrasse 30, 5000 Aarau",
    "plz": "5000",
    "marken": [],
    "lat": 47.39512305,
    "lon": 8.0588417
  },
  {
    "name": "HÃ¤usermann Automobile AG",
    "adresse": "Am Dorfbach 14, 8308 Illnau",
    "plz": "8308",
    "marken": [],
    "lat": 47.4120177,
    "lon": 8.722731
  },
  {
    "name": "HÃ¤usermann Automobile AG",
    "adresse": "Bernerstrasse Nord 188, 8064 ZÃ¼rich",
    "plz": "8064",
    "marken": [],
    "lat": 47.3953609,
    "lon": 8.485827511914472
  },
  {
    "name": "HÃ¤usermann Citygarage AG",
    "adresse": "In Huebwiesen 11, 8600 DÃ¼bendorf",
    "plz": "8600",
    "marken": [],
    "lat": 47.40101485,
    "lon": 8.614964395731295
  },
  {
    "name": "HÃ¤usermann Stadion Garage AG",
    "adresse": "Rapperswilerstrasse 66, 8620 Wetzikon ZH",
    "plz": "8620",
    "marken": [],
    "lat": 47.31583865,
    "lon": 8.7956257
  },
  {
    "name": "Garage Hediger SA",
    "adresse": "Route d'Italie 35, 1951 Sion",
    "plz": "1951",
    "marken": [],
    "lat": 46.2463218,
    "lon": 7.3879373
  },
  {
    "name": "Hedin Automotive Chur AG",
    "adresse": "Kasernenstrasse 165, 7007 Chur",
    "plz": "7007",
    "marken": [],
    "lat": 46.8460814,
    "lon": 9.5102194
  },
  {
    "name": "Hedin Automotive Schweiz AG",
    "adresse": "HÃ¼gsamstrasse 2, 8833 Samstagern",
    "plz": "8833",
    "marken": [],
    "lat": 47.1966588,
    "lon": 8.680741670353195
  },
  {
    "name": "Hedin Automotive Schweiz AG Zweigniederlassung Dielsdorf",
    "adresse": "Industriestrasse 6, 8157 Dielsdorf",
    "plz": "8157",
    "marken": [],
    "lat": 47.4833093,
    "lon": 8.4636207
  },
  {
    "name": "Hedin Automotive Schweiz AG Zweigniederlassung Wohlen",
    "adresse": "SchÃ¼tzenmattweg 20, 5610 Wohlen AG",
    "plz": "5610",
    "marken": [],
    "lat": 47.3578079,
    "lon": 8.272181261615138
  },
  {
    "name": "Hedin Automotive Widnau AG",
    "adresse": "Unterdorfstrasse 85, 9443 Widnau",
    "plz": "9443",
    "marken": [],
    "lat": 47.4161739,
    "lon": 9.6341763
  },
  {
    "name": "Hedin Automotive Widnau AG",
    "adresse": "Schuppisstrasse 9, 9016 St. Gallen",
    "plz": "9016",
    "marken": [],
    "lat": 47.4410691,
    "lon": 9.41742164613003
  },
  {
    "name": "Garage M. Heiz AG",
    "adresse": "Motorenstrasse 105, 8620 Wetzikon ZH",
    "plz": "8620",
    "marken": [],
    "lat": 47.33211345,
    "lon": 8.791019676317756
  },
  {
    "name": "Garage Hertach AG",
    "adresse": "Arbonerstrasse 7, 9315 Neukirch (Egnach)",
    "plz": "9315",
    "marken": [],
    "lat": 47.52822915,
    "lon": 9.37129504968888
  },
  {
    "name": "Hilfsmittel-Markt GmbH",
    "adresse": "LeenrÃ¼timattweg 7, 4704 Niederbipp",
    "plz": "4704",
    "marken": [],
    "lat": 47.2821539,
    "lon": 7.7022276532638525
  },
  {
    "name": "Hirn Appenzell AG",
    "adresse": "Gaiserstrasse 151, 9050 Appenzell",
    "plz": "9050",
    "marken": [],
    "lat": 47.3479286,
    "lon": 9.4317159
  },
  {
    "name": "Hirn Balgach AG",
    "adresse": "Hauptstrasse 64, 9436 Balgach",
    "plz": "9436",
    "marken": [],
    "lat": 47.4052558,
    "lon": 9.601744219486289
  },
  {
    "name": "Hirn Oberriet AG",
    "adresse": "Staatstrasse 192, 9463 Oberriet SG",
    "plz": "9463",
    "marken": [],
    "lat": 47.31157391419836,
    "lon": 9.55494313597784
  },
  {
    "name": "Hirsch Automobile AG",
    "adresse": "Teslastrasse 3, 9015 St. Gallen",
    "plz": "9015",
    "marken": [],
    "lat": 47.41013895,
    "lon": 9.314243770716145
  },
  {
    "name": "HKS FÃ¶rdertechnik AG",
    "adresse": "Alti Ruedelfingerstrass 18, 8460 Marthalen",
    "plz": "8460",
    "marken": [],
    "lat": 47.63472845090632,
    "lon": 8.65718768808014
  },
  {
    "name": "Garage Hofer AG",
    "adresse": "Weinfelderstrasse 125, 8580 Amriswil",
    "plz": "8580",
    "marken": [],
    "lat": 47.5449654521371,
    "lon": 9.299889480967003
  },
  {
    "name": "hoffmann automobile AG",
    "adresse": "Butthollenring 1-3, 4147 Aesch BL",
    "plz": "4147",
    "marken": [],
    "lat": 47.47905000266981,
    "lon": 7.588696033350218
  },
  {
    "name": "hoffmann automobil ag",
    "adresse": "Baselstrasse 31, 4222 Zwingen",
    "plz": "4222",
    "marken": [],
    "lat": 47.4396964,
    "lon": 7.53626600654685
  },
  {
    "name": "hoffmann automobile ag",
    "adresse": "Binningerstrasse 115a, 4123 Allschwil",
    "plz": "4123",
    "marken": [],
    "lat": 47.54830045,
    "lon": 7.549587762019467
  },
  {
    "name": "hoffmann automobile ag Betrieb Basel",
    "adresse": "Hardstrasse 62, 4052 Basel",
    "plz": "4052",
    "marken": [],
    "lat": 47.5499204,
    "lon": 7.6054347
  },
  {
    "name": "Garage Hollenstein AG",
    "adresse": "Therwilerstrasse 2, 4147 Aesch BL",
    "plz": "4147",
    "marken": [],
    "lat": 47.4792367,
    "lon": 7.5919779
  },
  {
    "name": "Autogarage HÃ¶rhager AG",
    "adresse": "Bernstrasse 8, 3205 GÃ¼mmenen",
    "plz": "3205",
    "marken": [],
    "lat": 46.943385500000005,
    "lon": 7.239291080313317
  },
  {
    "name": "Garage Otto Howald AG",
    "adresse": "Engestrasse 13, 4500 Solothurn",
    "plz": "4500",
    "marken": [],
    "lat": 47.2011336,
    "lon": 7.5469217
  },
  {
    "name": "Huber Automobile AG",
    "adresse": "Lenzburgerstrasse 8, 5507 Mellingen",
    "plz": "5507",
    "marken": [],
    "lat": 47.4174003,
    "lon": 8.272184179555666
  },
  {
    "name": "Huber Nutzfahrzeuge AG",
    "adresse": "LenzbÃ¼el 5, 8370 Sirnach",
    "plz": "8370",
    "marken": [],
    "lat": 47.4626841,
    "lon": 9.024527662852108
  },
  {
    "name": "HÃ¼sser & Palkoska AG",
    "adresse": "Sihlbruggstrasse 2, 6340 Baar",
    "plz": "6340",
    "marken": [],
    "lat": 47.1971363,
    "lon": 8.539601
  },
  {
    "name": "Hutter Auto Riedbach AG",
    "adresse": "Frauenfelderstrasse 9, 8404 Winterthur",
    "plz": "8404",
    "marken": [],
    "lat": 47.5108572,
    "lon": 8.760527718844541
  },
  {
    "name": "Hutter Auto Thomi AG",
    "adresse": "Schaffhauserstrasse 6, 8503 Frauenfeld",
    "plz": "8503",
    "marken": [],
    "lat": 47.5612282,
    "lon": 8.889146749299066
  },
  {
    "name": "Hutter Auto Ziel AG",
    "adresse": "Schaffhauserstrasse 131, 8404 Winterthur",
    "plz": "8404",
    "marken": [],
    "lat": 47.5143294,
    "lon": 8.721151133778738
  },
  {
    "name": "Hutter Dynamics AG Schaffhausen",
    "adresse": "Solenbergstrasse 1, 8207 Schaffhausen",
    "plz": "8207",
    "marken": [],
    "lat": 47.713419,
    "lon": 8.658340090095276
  },
  {
    "name": "Hutter Dynamics AG",
    "adresse": "Hegmattenstrasse 3, 8404 Winterthur",
    "plz": "8404",
    "marken": [],
    "lat": 47.51027055,
    "lon": 8.760568370297404
  },
  {
    "name": "HUWAG - NUTZFAHRZEUGE AG",
    "adresse": "Haltelhusstrasse 12, 9402 MÃ¶rschwil",
    "plz": "9402",
    "marken": [],
    "lat": 47.4576347,
    "lon": 9.431933247615875
  },
  {
    "name": "Imholz Autohaus AG",
    "adresse": "Sinserstrasse 45, 6330 Cham",
    "plz": "6330",
    "marken": [],
    "lat": 47.1858167,
    "lon": 8.454038058132422
  },
  {
    "name": "Auto Inderbitzin AG",
    "adresse": "Gotthardstrasse 18, 6414 Oberarth",
    "plz": "6414",
    "marken": [],
    "lat": 47.0564996,
    "lon": 8.533172465554003
  },
  {
    "name": "Inter-Auto, succursale de Groupe Leuba SA",
    "adresse": "Route d'Ollon 1, 1860 Aigle",
    "plz": "1860",
    "marken": [],
    "lat": 46.3147711,
    "lon": 6.9661443
  },
  {
    "name": "Automobiles JÃ¤ggi SA",
    "adresse": "Grand-rue 29, 2606 CorgÃ©mont",
    "plz": "2606",
    "marken": [],
    "lat": 47.19369565,
    "lon": 7.142119319796531
  },
  {
    "name": "Jost's TÃ¶fflade AG",
    "adresse": "HerzogenmÃ¼hlestrasse 20, 8051 ZÃ¼rich",
    "plz": "8051",
    "marken": [],
    "lat": 47.4055742,
    "lon": 8.573217583755453
  },
  {
    "name": "Automobile Jud AG",
    "adresse": "Hauptstrasse 107, 5070 Frick",
    "plz": "5070",
    "marken": [],
    "lat": 47.5052246,
    "lon": 8.025559651897098
  },
  {
    "name": "Kamoo AG",
    "adresse": "Auwiesenstrasse 1, 8406 Winterthur",
    "plz": "8406",
    "marken": [],
    "lat": 47.4842282,
    "lon": 8.710194566945333
  },
  {
    "name": "Keigel AG",
    "adresse": "St. Alban-Anlage 72, 4052 Basel",
    "plz": "4052",
    "marken": [],
    "lat": 47.5522697,
    "lon": 7.6041204
  },
  {
    "name": "Keigel AG",
    "adresse": "Rheinstrasse 69, 4402 Frenkendorf",
    "plz": "4402",
    "marken": [],
    "lat": 47.5059532,
    "lon": 7.721005184646065
  },
  {
    "name": "Renault FÃ¼llinsdorf Keigel AG",
    "adresse": "Rheinstrasse 32, 4414 FÃ¼llinsdorf",
    "plz": "4414",
    "marken": [],
    "lat": 47.50611625,
    "lon": 7.721693925595238
  },
  {
    "name": "Keigel AG",
    "adresse": "Lausenerstrasse 21, 4410 Liestal",
    "plz": "4410",
    "marken": [],
    "lat": 47.475807,
    "lon": 7.749794291045976
  },
  {
    "name": "Keigel AG Renault Oberwil",
    "adresse": "SÃ¤gestrasse 2, 4104 Oberwil BL",
    "plz": "4104",
    "marken": [],
    "lat": 47.5116296,
    "lon": 7.5559978
  },
  {
    "name": "Keigel AG",
    "adresse": "Hohenrainstrasse, 4133 Pratteln",
    "plz": "4133",
    "marken": [],
    "lat": 47.525431476426334,
    "lon": 7.700086743962637
  },
  {
    "name": "Keigel AG",
    "adresse": "Baselstrasse 14, 4222 Zwingen",
    "plz": "4222",
    "marken": [],
    "lat": 47.4392431,
    "lon": 7.5358288
  },
  {
    "name": "GARAGE P-A KELLER SÃ rl",
    "adresse": "ZI du Moulin du Choc G, 1122 Romanel-sur-Morges",
    "plz": "1122",
    "marken": [],
    "lat": 46.5598739,
    "lon": 6.5212631
  },
  {
    "name": "Kenny's Auto-Center AG Zweigniederlassung DÃ¤llikon",
    "adresse": "Buchserstrasse 30, 8108 DÃ¤llikon",
    "plz": "8108",
    "marken": [],
    "lat": 47.445342,
    "lon": 8.43911581408046
  },
  {
    "name": "Kenny's Auto-Center AG",
    "adresse": "Landstrasse 189, 5430 Wettingen",
    "plz": "5430",
    "marken": [],
    "lat": 47.4593397,
    "lon": 8.3421583
  },
  {
    "name": "Kestenholz Automobil AG NFZ Center",
    "adresse": "GÃ¼terstrasse 99, 4133 Pratteln",
    "plz": "4133",
    "marken": [],
    "lat": 47.5220776,
    "lon": 7.6722519
  },
  {
    "name": "H. Kiener AG",
    "adresse": "Riedmattli 5, 6423 Seewen SZ",
    "plz": "6423",
    "marken": [],
    "lat": 47.0319567,
    "lon": 8.625036898490706
  },
  {
    "name": "Garage Kocher AG",
    "adresse": "Vinelzstrasse 50, 3235 Erlach",
    "plz": "3235",
    "marken": [],
    "lat": 47.0398566,
    "lon": 7.099256406086957
  },
  {
    "name": "Garage Kohli SA",
    "adresse": "route des Tioleires 12, 1880 Bex",
    "plz": "1880",
    "marken": [],
    "lat": 46.24732915,
    "lon": 6.9990758500000005
  },
  {
    "name": "Kolly Aigle SA",
    "adresse": "Chemin de la Biole 12, 1860 Aigle",
    "plz": "1860",
    "marken": [],
    "lat": 46.3096023,
    "lon": 6.9418214
  },
  {
    "name": "Kreuchi Auto AG",
    "adresse": "Aengistrasse 20, 4704 Niederbipp",
    "plz": "4704",
    "marken": [],
    "lat": 47.279485050000005,
    "lon": 7.699556814335573
  },
  {
    "name": "Kreuz-Garage E. Bischof AG",
    "adresse": "Trogenerstrasse 1, 9042 Speicher",
    "plz": "9042",
    "marken": [],
    "lat": 47.40841565,
    "lon": 9.44609900918614
  },
  {
    "name": "Kreuz-Garage Willisau AG",
    "adresse": "Ettiswilerstrasse 10, 6130 Willisau",
    "plz": "6130",
    "marken": [],
    "lat": 47.123021300000005,
    "lon": 7.99421022834021
  },
  {
    "name": "Kreuz-Garage AG Weinfelden",
    "adresse": "Amriswilerstrasse 149, 8570 Weinfelden",
    "plz": "8570",
    "marken": [],
    "lat": 47.5619688,
    "lon": 9.127784632032975
  },
  {
    "name": "Auto-Center KÃ¼ng AG",
    "adresse": "Landstrasse 148, 5430 Wettingen",
    "plz": "5430",
    "marken": [],
    "lat": 47.46435685214266,
    "lon": 8.32977034867766
  },
  {
    "name": "Garage KÃ¼ng AG",
    "adresse": "Landstrasse 53, 5412 Gebenstorf",
    "plz": "5412",
    "marken": [],
    "lat": 47.4839257,
    "lon": 8.2420715
  },
  {
    "name": "Autohaus KÃ¼ng AG",
    "adresse": "Im Halt 2, 5412 Gebenstorf",
    "plz": "5412",
    "marken": [],
    "lat": 47.48971615,
    "lon": 8.245940103062171
  },
  {
    "name": "KÃ¼ry Automobile AG",
    "adresse": "Moosstrasse 9, 8803 RÃ¼schlikon",
    "plz": "8803",
    "marken": [],
    "lat": 47.3025938,
    "lon": 8.5463282
  },
  {
    "name": "Kyburz Switzerland AG",
    "adresse": "Stationsstrasse 90, 8424 Embrach",
    "plz": "8424",
    "marken": [],
    "lat": 47.51368729412677,
    "lon": 8.590632824396689
  },
  {
    "name": "Kyburz Switzerland AG Servicestelle Zentralschweiz",
    "adresse": "Altsagenstrasse 20, 6048 Horw",
    "plz": "6048",
    "marken": [],
    "lat": 47.00962985,
    "lon": 8.305830199999999
  },
  {
    "name": "Kyburz Switzerland AG Servicestelle Jura",
    "adresse": "Clos Donzel 2, 2114 Fleurier",
    "plz": "2114",
    "marken": [],
    "lat": 46.9049722,
    "lon": 6.5947466
  },
  {
    "name": "Kyburz Switzerland AG Servicestelle Suisse Romande",
    "adresse": "Route de Denges 28F, 1027 Lonay",
    "plz": "1027",
    "marken": [],
    "lat": 46.5272058,
    "lon": 6.5298042
  },
  {
    "name": "Garage de l`AthÃ©nÃ©e, AndrÃ© Chevalley SA",
    "adresse": "route de Meyrin 122, 1214 Vernier",
    "plz": "1214",
    "marken": [],
    "lat": 46.2201667,
    "lon": 6.1052508
  },
  {
    "name": "L'Etoile Jurassienne, succursale de Groupe Leuba SA",
    "adresse": "Rue Saint-Maurice 2, 2800 DelÃ©mont",
    "plz": "2800",
    "marken": [],
    "lat": 47.3435315,
    "lon": 7.317351
  },
  {
    "name": "Garage Lanthemann S.A.",
    "adresse": "chemin des Echelles 1, 2016 Cortaillod",
    "plz": "2016",
    "marken": [],
    "lat": 46.94336615,
    "lon": 6.8405505
  },
  {
    "name": "Larag AG Chablais VÃ©hicules Utilitaires",
    "adresse": "Route Boeuferrant-Sud 8, 1870 Monthey",
    "plz": "1870",
    "marken": [],
    "lat": 46.2735892,
    "lon": 6.958676750000009
  },
  {
    "name": "LARAG AG Langenthal",
    "adresse": "Chasseralstrasse 20, 4900 Langenthal",
    "plz": "4900",
    "marken": [],
    "lat": 47.2165462,
    "lon": 7.765525772666786
  },
  {
    "name": "LARAG AG Neftenbach Nutzfahrzeuge",
    "adresse": "Weiachstrasse, 8413 Neftenbach",
    "plz": "8413",
    "marken": [],
    "lat": 47.517973730496585,
    "lon": 8.669095659117481
  },
  {
    "name": "Larag AG RÃ¼mlang Nutzfahrzeuge",
    "adresse": "Riedgrabenstrasse 26, 8153 RÃ¼mlang",
    "plz": "8153",
    "marken": [],
    "lat": 47.46127775,
    "lon": 8.518892938461102
  },
  {
    "name": "Larag AG St. Gallen Nutzfahrzeuge",
    "adresse": "Lerchentalstrasse 6, 9016 St. Gallen",
    "plz": "9016",
    "marken": [],
    "lat": 47.44142095,
    "lon": 9.415465265112202
  },
  {
    "name": "Larag SA Echandens VÃ©hicules Utilitaires",
    "adresse": "route d'Yverdon 18, 1026 Echandens",
    "plz": "1026",
    "marken": [],
    "lat": 46.5347059,
    "lon": 6.548602148618049
  },
  {
    "name": "Larag SA Satigny",
    "adresse": "rue de la BergÃ¨re 42, 1217 Meyrin",
    "plz": "1217",
    "marken": [],
    "lat": 46.221701573104426,
    "lon": 6.064589163522508
  },
  {
    "name": "Garage le Parc D' AndrÃ¨s SA",
    "adresse": "route du Simplon 22, 3960 Sierre",
    "plz": "3960",
    "marken": [],
    "lat": 46.2959303,
    "lon": 7.539692
  },
  {
    "name": "Garage Lerch AG Rothrist-Aarau",
    "adresse": "Helblingstrasse 2, 4852 Rothrist",
    "plz": "4852",
    "marken": [],
    "lat": 47.30985175,
    "lon": 7.893489072875999
  },
  {
    "name": "Les garages Lanthemann S.A",
    "adresse": "Chemin de Praz 10, 1424 Champagne",
    "plz": "1424",
    "marken": [],
    "lat": 46.82731385,
    "lon": 6.663328900000002
  },
  {
    "name": "Honda Automobile ZÃ¼rich Letzigraben Garage AG",
    "adresse": "Letzigraben 77, 8040 ZÃ¼rich",
    "plz": "8040",
    "marken": [],
    "lat": 47.378325,
    "lon": 8.499993604279233
  },
  {
    "name": "Garage Nicolas Limat SA",
    "adresse": "SÃ©cheron 1, 1740 Neyruz FR",
    "plz": "1740",
    "marken": [],
    "lat": 46.771403,
    "lon": 7.069714262201025
  },
  {
    "name": "Autocenter Limmattal B. Strebel AG",
    "adresse": "Grindlenstrasse 2, 8954 Geroldswil",
    "plz": "8954",
    "marken": [],
    "lat": 47.4167438,
    "lon": 8.4146957
  },
  {
    "name": "Lion Automobile AG",
    "adresse": "Bleienbachstrasse 54, 4900 Langenthal",
    "plz": "4900",
    "marken": [],
    "lat": 47.202269,
    "lon": 7.780900567254477
  },
  {
    "name": "Lorenz Nutzfahrzeuge AG",
    "adresse": "Kirchbergstrasse 61, 3421 Lyssach",
    "plz": "3421",
    "marken": [],
    "lat": 47.074239000000006,
    "lon": 7.580693430509751
  },
  {
    "name": "Lueg AG Zweigniederlassung Kriens",
    "adresse": "Sternmatt 6, 6010 Kriens",
    "plz": "6010",
    "marken": [],
    "lat": 47.02829685,
    "lon": 8.30038076636957
  },
  {
    "name": "Lueg AG",
    "adresse": "Spitalstrasse 8, 6004 Luzern",
    "plz": "6004",
    "marken": [],
    "lat": 47.05945115,
    "lon": 8.301500454081635
  },
  {
    "name": "Lueg AG Zweigniederlassung NF Luzern",
    "adresse": "Unterwilrain 16, 6004 Luzern",
    "plz": "6004",
    "marken": [],
    "lat": 47.0489684,
    "lon": 8.27180997411832
  },
  {
    "name": "Lueg AG Zweigniederlassung Sursee",
    "adresse": "Sandgruebestrasse 2, 6210 Sursee",
    "plz": "6210",
    "marken": [],
    "lat": 47.17706975,
    "lon": 8.110068449739963
  },
  {
    "name": "LUEG AG, Zweigniederlassung Langenthal",
    "adresse": "Schulhausstrasse 24, 4900 Langenthal",
    "plz": "4900",
    "marken": [],
    "lat": 47.212039950000005,
    "lon": 7.784265070038117
  },
  {
    "name": "Lustenberger Lehnhofgarage AG",
    "adresse": "Renggstrasse 2, 6162 Entlebuch",
    "plz": "6162",
    "marken": [],
    "lat": 46.998441850000006,
    "lon": 8.069511083890024
  },
  {
    "name": "Garage LÃ¼thi Ins GmbH",
    "adresse": "MÃ¼ntschemiergasse 56, 3232 Ins",
    "plz": "3232",
    "marken": [],
    "lat": 47.0041295,
    "lon": 7.114861468335747
  },
  {
    "name": "M. Bobnar AG Ford Hauptvertretung",
    "adresse": "Industriestrasse Ost 9, 4614 HÃ¤gendorf",
    "plz": "4614",
    "marken": [],
    "lat": 47.33619035,
    "lon": 7.852518710010722
  },
  {
    "name": "Maurice Montavon S.A.",
    "adresse": "route de DelÃ©mont 41, 2802 Develier",
    "plz": "2802",
    "marken": [],
    "lat": 47.3603393,
    "lon": 7.3034339
  },
  {
    "name": "M.S.R SÃ rl",
    "adresse": "Route du Bois de Bay 16, 1242 Satigny",
    "plz": "1242",
    "marken": [],
    "lat": 46.2003894,
    "lon": 6.064115
  },
  {
    "name": "Maillard Monthey SA",
    "adresse": "Les Ilettes, 1870 Monthey",
    "plz": "1870",
    "marken": [],
    "lat": 46.2468867,
    "lon": 6.9651251
  },
  {
    "name": "MAN Truck & Bus Suisse SA Succursale de Bussigny",
    "adresse": "Chemin de la Venoge 1, 1030 Bussigny",
    "plz": "1030",
    "marken": [],
    "lat": 46.55013525,
    "lon": 6.542574694975272
  },
  {
    "name": "MAN Truck & Bus Schweiz AG Zweigniederlassung Volketswil",
    "adresse": "Im Chies 23, 8604 Volketswil",
    "plz": "8604",
    "marken": [],
    "lat": 47.38485085,
    "lon": 8.696105506645887
  },
  {
    "name": "mandelaugen group GmbH",
    "adresse": "Lidostrasse 5, 6006 Luzern",
    "plz": "6006",
    "marken": [],
    "lat": 47.05275305,
    "lon": 8.336636310270853
  },
  {
    "name": "Garage Benoit Marchon",
    "adresse": "route de Payerne 2, 1482 Cugy FR",
    "plz": "1482",
    "marken": [],
    "lat": 46.815651946297095,
    "lon": 6.895693264269492
  },
  {
    "name": "Garage Marti AG NiedergÃ¶sgen",
    "adresse": "Oltnerstrasse 45, 5013 NiedergÃ¶sgen",
    "plz": "5013",
    "marken": [],
    "lat": 47.3702686,
    "lon": 7.9820210231203
  },
  {
    "name": "Maurice Chapatte SA",
    "adresse": "Route de Courroux 39, 2824 Vicques",
    "plz": "2824",
    "marken": [],
    "lat": 47.3520484,
    "lon": 7.4018758
  },
  {
    "name": "Maurice Montavon SA Automobiles Olivotti",
    "adresse": "Route de Courtedoux 26, 2900 Porrentruy",
    "plz": "2900",
    "marken": [],
    "lat": 47.412302636650296,
    "lon": 7.06342634323063
  },
  {
    "name": "Max Heidegger AG",
    "adresse": "Messinastrasse 1, 9495 Triesen",
    "plz": "9495",
    "marken": [],
    "lat": 47.11971825,
    "lon": 9.519729099562287
  },
  {
    "name": "Max Jung AG",
    "adresse": "Eisenbahnstrasse 62, 3645 Gwatt (Thun)",
    "plz": "3645",
    "marken": [],
    "lat": 46.7237422,
    "lon": 7.620534134078513
  },
  {
    "name": "Mayer AG Garage Carrosserie",
    "adresse": "Oberaustrasse 2, 7203 Trimmis",
    "plz": "7203",
    "marken": [],
    "lat": 46.91891055,
    "lon": 9.560313557785632
  },
  {
    "name": "MB Auto Center Zug AG",
    "adresse": "Sennweidstrasse 28, 6312 Steinhausen",
    "plz": "6312",
    "marken": [],
    "lat": 47.1911131,
    "lon": 8.480553
  },
  {
    "name": "Autocenter Mels AG",
    "adresse": "Zeughausstrasse 18, 8887 Mels",
    "plz": "8887",
    "marken": [],
    "lat": 47.05553575,
    "lon": 9.411133880719252
  },
  {
    "name": "Mercedes-Benz Automobil  AG",
    "adresse": "ZÃ¼rcherstrasse 109, 8952 Schlieren",
    "plz": "8952",
    "marken": [],
    "lat": 47.39760945,
    "lon": 8.461897363421656
  },
  {
    "name": "Mercedes-Benz Automobil AG Zweigniederlassung Aarburg",
    "adresse": "Oltnerstrasse 85, 4663 Aarburg",
    "plz": "4663",
    "marken": [],
    "lat": 47.3315144,
    "lon": 7.9051293
  },
  {
    "name": "Mercedes-Benz Automobil AG",
    "adresse": "ZÃ¼richstrasse 78, 8134 Adliswil",
    "plz": "8134",
    "marken": [],
    "lat": 47.32381985,
    "lon": 8.53033346426411
  },
  {
    "name": "Mercedes-Benz Automobil AG Zweigniederlassung Aegerten",
    "adresse": "Alte Bernstrasse 34, 2558 Aegerten",
    "plz": "2558",
    "marken": [],
    "lat": 47.11762445,
    "lon": 7.29216160569604
  },
  {
    "name": "Mercedes-Benz Automobil AG Zweigniederlassung Bellach",
    "adresse": "RÃ¶merstrasse 18, 4512 Bellach",
    "plz": "4512",
    "marken": [],
    "lat": 47.21263745,
    "lon": 7.512445095642048
  },
  {
    "name": "Mercedes-Benz Automobiles SA Succursale Bulle",
    "adresse": "Chemin de Champ-Francey 140, 1630 Bulle",
    "plz": "1630",
    "marken": [],
    "lat": 46.6302071,
    "lon": 7.060128398797096
  },
  {
    "name": "Mercedes-Benz Automobili SA Succursale Mendrisio",
    "adresse": "via Borromini 5, 6850 Mendrisio",
    "plz": "6850",
    "marken": [],
    "lat": 45.87293325,
    "lon": 8.978701503522288
  },
  {
    "name": "Mercedes-Benz Automobil AG Zweigniederlassung Neuendorf",
    "adresse": "Industriestrasse 23, 4623 Neuendorf",
    "plz": "4623",
    "marken": [],
    "lat": 47.3130728,
    "lon": 7.786253233343497
  },
  {
    "name": "Mercedes-Benz Automobil AG Zweigniederlassung NF Bern-BÃ¼mpliz",
    "adresse": "Freiburgstrasse 335, 3018 Bern",
    "plz": "3018",
    "marken": [],
    "lat": 46.937257,
    "lon": 7.395991121237088
  },
  {
    "name": "Mercedes-Benz Automobiles SA Succursale vÃ©hicules utilitaires Granges-Paccot Granges-Paccot",
    "adresse": "Route du Lac 6, 1763 Granges-Paccot",
    "plz": "1763",
    "marken": [],
    "lat": 46.823769850000005,
    "lon": 7.1515096000000105
  },
  {
    "name": "Mercedes-Benz Automobil AG Zweigniederlassung NF Schlieren",
    "adresse": "GoldschlÃ¤gistrasse 19, 8952 Schlieren",
    "plz": "8952",
    "marken": [],
    "lat": 47.401526700000005,
    "lon": 8.438163562048093
  },
  {
    "name": "Mercedes-Benz Automobiles SA Succursale voitures particuliÃ¨res Granges-Paccot Granges-Paccot (Fribourg)",
    "adresse": "Route d'Englisberg 4, 1763 Granges-Paccot",
    "plz": "1763",
    "marken": [],
    "lat": 46.82811545,
    "lon": 7.150178851805532
  },
  {
    "name": "Mercedes-Benz Automobil AG Zweigniederlassung Rohr",
    "adresse": "Hauptstrasse 104, 5032 Aarau Rohr",
    "plz": "5032",
    "marken": [],
    "lat": 47.4046542,
    "lon": 8.0944537
  },
  {
    "name": "Mercedes Benz Automobil AG Zweigniederlassung StÃ¤fa",
    "adresse": "Seestrasse 153, 8712 StÃ¤fa",
    "plz": "8712",
    "marken": [],
    "lat": 47.2346316,
    "lon": 8.735060264132775
  },
  {
    "name": "Mercedes-Benz Automobil AG Zweigniederlassung Thun",
    "adresse": "Gwattstrasse 18, 3604 Thun",
    "plz": "3604",
    "marken": [],
    "lat": 46.7383719,
    "lon": 7.6268540175405874
  },
  {
    "name": "Mercedes-Benz Automobil AG Zweigniederlassung Uetendorf",
    "adresse": "Industriestrasse 15, 3661 Uetendorf",
    "plz": "3661",
    "marken": [],
    "lat": 46.77722595,
    "lon": 7.579520562432498
  },
  {
    "name": "Mercedes-Benz Automobili SA Succursale Vezia",
    "adresse": "Via Kosciuszko 1, 6943 Vezia",
    "plz": "6943",
    "marken": [],
    "lat": 46.02962782818941,
    "lon": 8.938420928804048
  },
  {
    "name": "Mercedes-Benz Automobil AG Zweigniederlassung Wettingen",
    "adresse": "Otelfingerstrasse 44, 5430 Wettingen",
    "plz": "5430",
    "marken": [],
    "lat": 47.4583687,
    "lon": 8.3463798
  },
  {
    "name": "Mercedes-Benz Automobil AG Zweigniederlassung Winterthur",
    "adresse": "OhrbÃ¼hlstrasse 37, 8409 Winterthur",
    "plz": "8409",
    "marken": [],
    "lat": 47.500484,
    "lon": 8.767546282463186
  },
  {
    "name": "Mercedes-Benz Automobil AG Zweigniederlassung Zollikon",
    "adresse": "Rotfluhstrasse 54, 8702 Zollikon",
    "plz": "8702",
    "marken": [],
    "lat": 47.34307685,
    "lon": 8.576595710438948
  },
  {
    "name": "Mercedes-Benz Automobil AG Zweigniederlassung ZÃ¼rich-Nord",
    "adresse": "Hagenholzstrasse 111, 8050 ZÃ¼rich",
    "plz": "8050",
    "marken": [],
    "lat": 47.41580415,
    "lon": 8.562736021679827
  },
  {
    "name": "Mercedes-Benz Automobil AG Zweigniederlassung ZÃ¼rich-Seefeld",
    "adresse": "FÃ¤rberstrasse 6, 8008 ZÃ¼rich",
    "plz": "8008",
    "marken": [],
    "lat": 47.361614450000005,
    "lon": 8.54865098999894
  },
  {
    "name": "Mercedes-Benz Automobili SA",
    "adresse": "Via Pian Scairolo 31, 6915 Pambio-Noranco",
    "plz": "6915",
    "marken": [],
    "lat": 45.98096565,
    "lon": 8.929914849599426
  },
  {
    "name": "GARAGE ET CARROSSERIE MISTRAL MARTIGNY SA",
    "adresse": "Avenue des Grandes-Maresches 102, 1920 Martigny",
    "plz": "1920",
    "marken": [],
    "lat": 46.1126895,
    "lon": 7.0892005
  },
  {
    "name": "Garage Moderne Epalinges SA",
    "adresse": "Route de Berne 217, 1066 Epalinges",
    "plz": "1066",
    "marken": [],
    "lat": 46.5497345,
    "lon": 6.67621914890893
  },
  {
    "name": "Mon Repos Automobile, succursale de Groupe Leuba SA",
    "adresse": "rue Etraz 14, 1003 Lausanne",
    "plz": "1003",
    "marken": [],
    "lat": 46.5190403,
    "lon": 6.639433730072465
  },
  {
    "name": "Moncor Automobiles SA",
    "adresse": "route de Chandolan 6, 1752 Villars-sur-GlÃ¢ne",
    "plz": "1752",
    "marken": [],
    "lat": 46.8013971,
    "lon": 7.1189709069918
  },
  {
    "name": "Garage  J. Montavon SA",
    "adresse": "Rue Xavier-Stockmar 8, 2900 Porrentruy",
    "plz": "2900",
    "marken": [],
    "lat": 47.42165545,
    "lon": 7.078602563398361
  },
  {
    "name": "Garage-Carrosserie Moser AG",
    "adresse": "Aspstrasse 4, 8472 Seuzach",
    "plz": "8472",
    "marken": [],
    "lat": 47.5281878,
    "lon": 8.708365293455344
  },
  {
    "name": "MOTO FUCHS AG",
    "adresse": "Ottenbacherstrasse 25, 8912 Obfelden",
    "plz": "8912",
    "marken": [],
    "lat": 47.26730035,
    "lon": 8.423555120732324
  },
  {
    "name": "Moto Strahm AG",
    "adresse": "Unterdorfstrasse 16, 4934 Madiswil",
    "plz": "4934",
    "marken": [],
    "lat": 47.1663441,
    "lon": 7.797086000410023
  },
  {
    "name": "MRS Maschinen + Reparaturservice GmbH",
    "adresse": "Querstrasse 2, 8108 DÃ¤llikon",
    "plz": "8108",
    "marken": [],
    "lat": 47.4468216,
    "lon": 8.4297831
  },
  {
    "name": "MÃ¼hleholz-Garage  AG",
    "adresse": "Landstrasse 126, 9490 Vaduz",
    "plz": "9490",
    "marken": [],
    "lat": 47.15585125,
    "lon": 9.510487541259812
  },
  {
    "name": "MÃ¼ller Grynau-Garage AG Herrn MÃ¼ller Leo",
    "adresse": "Grynaustrasse 21, 8730 Uznach",
    "plz": "8730",
    "marken": [],
    "lat": 47.22342225,
    "lon": 8.982444050000002
  },
  {
    "name": "Multimotor Garage AG",
    "adresse": "Glarnerstrasse 94, 8854 Siebnen",
    "plz": "8854",
    "marken": [],
    "lat": 47.175739,
    "lon": 8.9135252
  },
  {
    "name": "Muota-Garage GmbH",
    "adresse": "Erlenstrasse 4, 6438 Ibach",
    "plz": "6438",
    "marken": [],
    "lat": 47.0104302,
    "lon": 8.641531322110215
  },
  {
    "name": "Muzzarelli und Leuch AG",
    "adresse": "Hauptstrasse 26, 7240 KÃ¼blis",
    "plz": "7240",
    "marken": [],
    "lat": 46.91407849575635,
    "lon": 9.785003075522903
  },
  {
    "name": "Nef Truckcenter AG",
    "adresse": "Flachsackerstrasse 10, 4402 Frenkendorf",
    "plz": "4402",
    "marken": [],
    "lat": 47.51463625,
    "lon": 7.718580260743328
  },
  {
    "name": "Neff AG Flawil Automobile",
    "adresse": "Wilerstrasse 247-249, 9230 Flawil",
    "plz": "9230",
    "marken": [],
    "lat": 47.4173475961796,
    "lon": 9.16926497879233
  },
  {
    "name": "Garage Nepple AG Pratteln",
    "adresse": "Hohenrainstrasse 5, 4133 Pratteln",
    "plz": "4133",
    "marken": [],
    "lat": 47.5254255,
    "lon": 7.6907774
  },
  {
    "name": "Garage Nepple AG Basel",
    "adresse": "Netzibodenstrasse 21, 4133 Pratteln",
    "plz": "4133",
    "marken": [],
    "lat": 47.5318346,
    "lon": 7.7031457
  },
  {
    "name": "Garage Nepple AG",
    "adresse": "Industriestrasse 30 A, 4415 Lausen",
    "plz": "4415",
    "marken": [],
    "lat": 47.4694957,
    "lon": 7.760903163085983
  },
  {
    "name": "Neue Centrum Garage AG",
    "adresse": "Landstrasse 62/64, 5436 WÃ¼renlos",
    "plz": "5436",
    "marken": [],
    "lat": 47.45364165,
    "lon": 8.3493198
  },
  {
    "name": "Garage Neuhof AG",
    "adresse": "Industrie Neuhof 10, 3422 Kirchberg BE",
    "plz": "3422",
    "marken": [],
    "lat": 47.094638200000006,
    "lon": 7.571533750000007
  },
  {
    "name": "Neuhof Garage Frei GmbH",
    "adresse": "Wilerstrasse 48, 9542 MÃ¼nchwilen TG",
    "plz": "9542",
    "marken": [],
    "lat": 47.4738378,
    "lon": 9.00342469965936
  },
  {
    "name": "NH Automobiles",
    "adresse": "Grand-Rue 101, 1110 Morges",
    "plz": "1110",
    "marken": [],
    "lat": 46.5076092,
    "lon": 6.4967317
  },
  {
    "name": "Nidfeld-Garage AG",
    "adresse": "Arsenalstrasse 35, 6010 Kriens",
    "plz": "6010",
    "marken": [],
    "lat": 47.035292600000005,
    "lon": 8.296519349763033
  },
  {
    "name": "Nord-Garage AG Ohringen",
    "adresse": "Erlenstrasse 24, 8472 Ohringen",
    "plz": "8472",
    "marken": [],
    "lat": 47.52550255,
    "lon": 8.714006976047935
  },
  {
    "name": "Garage Nordstern AG",
    "adresse": "GÃ¼terstrasse 10, 8245 Feuerthalen",
    "plz": "8245",
    "marken": [],
    "lat": 47.6911016,
    "lon": 8.645089511877824
  },
  {
    "name": "Nufa AG",
    "adresse": "Gewerbeweg 15, 9490 Vaduz",
    "plz": "9490",
    "marken": [],
    "lat": 47.1240651,
    "lon": 9.523145975484336
  },
  {
    "name": "Nutzfahrzeug AG, Zentralschweiz",
    "adresse": "Bahnhofstrasse 17, 6056 KÃ¤giswil",
    "plz": "6056",
    "marken": [],
    "lat": 46.91220070188331,
    "lon": 8.257098117637916
  },
  {
    "name": "Nutzfahrzeug AG Zentralschweiz",
    "adresse": "Hasliring 18, 6032 Emmen",
    "plz": "6032",
    "marken": [],
    "lat": 47.0862271,
    "lon": 8.310683978490744
  },
  {
    "name": "Obersee Garage AG",
    "adresse": "Rapperswilerstrasse 17, 8733 Eschenbach SG",
    "plz": "8733",
    "marken": [],
    "lat": 47.23806865,
    "lon": 8.920780406918489
  },
  {
    "name": "Autocorner J.-C. & C. Oberson S.A.",
    "adresse": "route de NeuchÃ¢tel 4, 1032 Romanel-sur-Lausanne",
    "plz": "1032",
    "marken": [],
    "lat": 46.5705187,
    "lon": 6.6053734
  },
  {
    "name": "Autocorner J.-C. & C. Oberson S.A.",
    "adresse": "Route de Lavaux 105, 1095 Lutry",
    "plz": "1095",
    "marken": [],
    "lat": 46.5045742,
    "lon": 6.6820679
  },
  {
    "name": "Off Road Shop Metzler GmbH",
    "adresse": "ZÃ¼rcherstrasse 330, 8500 Frauenfeld",
    "plz": "8500",
    "marken": [],
    "lat": 47.56607705,
    "lon": 8.913319902526684
  },
  {
    "name": "Garage Olympia Imhof Edi GmbH",
    "adresse": "Kantonsstrasse 2, 3902 Glis",
    "plz": "3902",
    "marken": [],
    "lat": 46.3091539,
    "lon": 7.971351115909092
  },
  {
    "name": "Garage Olympic A. Antille Sion SA",
    "adresse": "Route des Carolins 3, 1950 Sion",
    "plz": "1950",
    "marken": [],
    "lat": 46.2206968,
    "lon": 7.3616009
  },
  {
    "name": "Garage Olympic SA Agence Volkswagen Sierre",
    "adresse": "avenue de France 52, 3960 Sierre",
    "plz": "3960",
    "marken": [],
    "lat": 46.2885477,
    "lon": 7.5212656
  },
  {
    "name": "Garage Olympic SA Agence Partenaire Service Audi Martigny",
    "adresse": "Rue du Levant 149, 1920 Martigny",
    "plz": "1920",
    "marken": [],
    "lat": 46.1032102,
    "lon": 7.0903035
  },
  {
    "name": "Garage Olympic SA",
    "adresse": "Rte du Levant 151, 1920 Martigny",
    "plz": "1920",
    "marken": [],
    "lat": 46.095968847019726,
    "lon": 7.075135582323311
  },
  {
    "name": "Garage Olympic SA",
    "adresse": "Route d'Aproz 4, 1950 Sion",
    "plz": "1950",
    "marken": [],
    "lat": 46.219374,
    "lon": 7.3426981
  },
  {
    "name": "Orpundgarage Biel AG",
    "adresse": "Orpundstrasse 77, 2501 Biel/Bienne",
    "plz": "2501",
    "marken": [],
    "lat": 47.1462031333071,
    "lon": 7.273240909263617
  },
  {
    "name": "Garage Ozelley AG",
    "adresse": "Erlenauweg 5c, 3110 MÃ¼nsingen",
    "plz": "3110",
    "marken": [],
    "lat": 46.86969705,
    "lon": 7.560087255314265
  },
  {
    "name": "Garage E. Pafumi",
    "adresse": "Wiesenweg 45, 5102 Rupperswil",
    "plz": "5102",
    "marken": [],
    "lat": 47.40839705,
    "lon": 8.14141499586146
  },
  {
    "name": "Pargger AG",
    "adresse": "Riedenmatt 5, 6370 Stans",
    "plz": "6370",
    "marken": [],
    "lat": 46.96456805,
    "lon": 8.384483147830002
  },
  {
    "name": "Park Garage AG Hauptsitz",
    "adresse": "Seestrasse 47, 8800 Thalwil",
    "plz": "8800",
    "marken": [],
    "lat": 47.2865906,
    "lon": 8.574978538557405
  },
  {
    "name": "Park Garage AG Zweigniederlassung KÃ¼snacht (ZH)",
    "adresse": "Seestrasse 115, 8700 KÃ¼snacht ZH",
    "plz": "8700",
    "marken": [],
    "lat": 47.32000225,
    "lon": 8.579152430511225
  },
  {
    "name": "Garage Kunz Automobile AG",
    "adresse": "Worbstrasse 170, 3073 GÃ¼mligen",
    "plz": "3073",
    "marken": [],
    "lat": 46.9345214,
    "lon": 7.500551070037596
  },
  {
    "name": "Pfingstweid Truck Center AG",
    "adresse": "Heimstrasse 45, 8953 Dietikon",
    "plz": "8953",
    "marken": [],
    "lat": 47.412915,
    "lon": 8.4016717
  },
  {
    "name": "Auto Pfister AG",
    "adresse": "San Bastiaun 55, 7503 Samedan",
    "plz": "7503",
    "marken": [],
    "lat": 46.5295065,
    "lon": 9.867320000000005
  },
  {
    "name": "Piaggiorama  AG",
    "adresse": "Johann-Verresius-Strasse 16, 2502 Biel/Bienne",
    "plz": "2502",
    "marken": [],
    "lat": 47.13237785,
    "lon": 7.245806760974824
  },
  {
    "name": "Garage de la Pierre-Ã -Voir SA",
    "adresse": "route du Simplon 7, 1907 Saxon",
    "plz": "1907",
    "marken": [],
    "lat": 46.1518727,
    "lon": 7.1793873
  },
  {
    "name": "Pierre Steulet NeuchÃ¢tel SA",
    "adresse": "Rue Louis-Joseph-Chevrolet 55, 2300 La Chaux-de-Fonds",
    "plz": "2300",
    "marken": [],
    "lat": 47.0833511,
    "lon": 6.803007147089608
  },
  {
    "name": "PP Autotreff AG",
    "adresse": "Arbonerstrasse 19, 9300 Wittenbach",
    "plz": "9300",
    "marken": [],
    "lat": 47.4623168,
    "lon": 9.3942501
  },
  {
    "name": "Procar Davos AG",
    "adresse": "PrÃ¤ttigauerstrasse 12, 7265 Davos Wolfgang",
    "plz": "7265",
    "marken": [],
    "lat": 46.8252283,
    "lon": 9.8542248
  },
  {
    "name": "Garage Proietti SA",
    "adresse": "boulevard des Eplatures 51, 2304 La Chaux-de-Fonds",
    "plz": "2304",
    "marken": [],
    "lat": 47.085036200000005,
    "lon": 6.799623799398119
  },
  {
    "name": "Garage Urs RÃ¤bmatter",
    "adresse": "Grossmattenstrasse 1, 4813 Uerkheim",
    "plz": "4813",
    "marken": [],
    "lat": 47.3056495,
    "lon": 8.01924765182598
  },
  {
    "name": "Radsport Limacher Limacher Hanspeter",
    "adresse": "Bahnhofstrasse 39, 6244 Nebikon",
    "plz": "6244",
    "marken": [],
    "lat": 47.1887597,
    "lon": 7.9758112
  },
  {
    "name": "Rattin AG",
    "adresse": "Zollstrasse 95, 8212 Neuhausen am Rheinfall",
    "plz": "8212",
    "marken": [],
    "lat": 47.67523065,
    "lon": 8.59975904278837
  },
  {
    "name": "Riantbosson Automobiles Meyrin SÃ rl",
    "adresse": "chemin Riantbosson 12, 1217 Meyrin",
    "plz": "1217",
    "marken": [],
    "lat": 46.2263782,
    "lon": 6.0858300211097305
  },
  {
    "name": "RECAM SA",
    "adresse": "route de Soleure 4, 2072 St-Blaise",
    "plz": "2072",
    "marken": [],
    "lat": 47.0127771,
    "lon": 6.990572184799512
  },
  {
    "name": "Garage Reichlin AG",
    "adresse": "Grepperstrasse 86-92, 6403 KÃ¼ssnacht am Rigi",
    "plz": "6403",
    "marken": [],
    "lat": 47.079253742731886,
    "lon": 8.441325741809143
  },
  {
    "name": "RH Auto Service AG",
    "adresse": "Wohlerstrasse 6, 5612 Villmergen",
    "plz": "5612",
    "marken": [],
    "lat": 47.344662850000006,
    "lon": 8.246066240866286
  },
  {
    "name": "RH Auto-Service Lenzburg AG",
    "adresse": "Aarauerstrasse 35, 5600 Lenzburg",
    "plz": "5600",
    "marken": [],
    "lat": 47.3869482,
    "lon": 8.166894178752749
  },
  {
    "name": "Ritter Automobile AG",
    "adresse": "SÃ¤geweg 15, 4452 Itingen",
    "plz": "4452",
    "marken": [],
    "lat": 47.47027915,
    "lon": 7.781177798101432
  },
  {
    "name": "RM Autos SA",
    "adresse": "Rue Auguste-Quiquerez 36, 2800 DelÃ©mont",
    "plz": "2800",
    "marken": [],
    "lat": 47.36996555,
    "lon": 7.35719085
  },
  {
    "name": "Robert Huber AG",
    "adresse": "MÃ¼lligerstrasse, 5210 Windisch",
    "plz": "5210",
    "marken": [],
    "lat": 47.47109969229796,
    "lon": 8.228292134066628
  },
  {
    "name": "Garage Rod SA",
    "adresse": "Rte de Lausanne 33, 1610 Oron-la-Ville",
    "plz": "1610",
    "marken": [],
    "lat": 46.5711445,
    "lon": 6.820830819999999
  },
  {
    "name": "Rolf Aebi & Co.",
    "adresse": "Bahnhofstrasse 9, 6403 KÃ¼ssnacht am Rigi",
    "plz": "6403",
    "marken": [],
    "lat": 47.081622550000006,
    "lon": 8.43952765000001
  },
  {
    "name": "Rollerbude Thun GmbH",
    "adresse": "Grabenstrasse 4, 3600 Thun",
    "plz": "3600",
    "marken": [],
    "lat": 46.7616658,
    "lon": 7.6277986
  },
  {
    "name": "RÃ¶mergarage AG",
    "adresse": "Hauptstrasse 127, 5070 Frick",
    "plz": "5070",
    "marken": [],
    "lat": 47.50342515,
    "lon": 8.030086600000002
  },
  {
    "name": "Garage RÃ¶schmann AG",
    "adresse": "Berglistrasse 14, 8750 Glarus",
    "plz": "8750",
    "marken": [],
    "lat": 47.04477815,
    "lon": 9.05911270428832
  },
  {
    "name": "Rottal Auto AG",
    "adresse": "RÃ¼tmattstrasse 2, 6017 Ruswil",
    "plz": "6017",
    "marken": [],
    "lat": 47.078454,
    "lon": 8.136744626944374
  },
  {
    "name": "RRG SUISSE SA",
    "adresse": "Route de Reculan 11, 1024 Ecublens VD",
    "plz": "1024",
    "marken": [],
    "lat": 46.53772025000001,
    "lon": 6.553562175
  },
  {
    "name": "RRG SUISSE SA Niederlassung ZÃ¼rich",
    "adresse": "Badenerstrasse 330, 8004 ZÃ¼rich",
    "plz": "8004",
    "marken": [],
    "lat": 47.3782914,
    "lon": 8.511942499999993
  },
  {
    "name": "RRG SUISSE SA Succursale Lausanne",
    "adresse": "avenue de Morges 7, 1004 Lausanne",
    "plz": "1004",
    "marken": [],
    "lat": 46.5238834,
    "lon": 6.6211306404682215
  },
  {
    "name": "RRG SUISSE SA Succursale Marly",
    "adresse": "route de Fribourg 13, 1723 Marly",
    "plz": "1723",
    "marken": [],
    "lat": 46.78206075,
    "lon": 7.148174477822376
  },
  {
    "name": "RRG SUISSE SA Niederlassung Glattpark",
    "adresse": "Thurgauerstrasse 103, 8152 Glattpark (Opfikon) ",
    "plz": "8152",
    "marken": [],
    "lat": 47.428403895220704,
    "lon": 8.573335355298177
  },
  {
    "name": "RRG SUISSE SA Succursale Nyon",
    "adresse": "route de Duillier 6, 1260 Nyon",
    "plz": "1260",
    "marken": [],
    "lat": 46.3942563,
    "lon": 6.236355399999995
  },
  {
    "name": "RRG SUISSE SA Succursale Plan-les-Ouates",
    "adresse": "route de St-Julien 180, 1228 Plan-les-Ouates",
    "plz": "1228",
    "marken": [],
    "lat": 46.16623575,
    "lon": 6.112062881360162
  },
  {
    "name": "Rutishauser Automobile AG",
    "adresse": "Hauptstrasse 119, 8274 TÃ¤gerwilen",
    "plz": "8274",
    "marken": [],
    "lat": 47.6592622112308,
    "lon": 9.12372119480077
  },
  {
    "name": "Rutishauser Automobile AG",
    "adresse": "Egelseestrasse 49, 8280 Kreuzlingen",
    "plz": "8280",
    "marken": [],
    "lat": 47.64305585,
    "lon": 9.1827256
  },
  {
    "name": "RÃ¼tli Garage AG",
    "adresse": "Zipfelwiesenstrasse 5, 8305 Dietlikon",
    "plz": "8305",
    "marken": [],
    "lat": 47.4156643,
    "lon": 8.618579950000004
  },
  {
    "name": "S. FlÃ¼ckiger AG",
    "adresse": "Huttwilstrasse 58, 4944 Auswil",
    "plz": "4944",
    "marken": [],
    "lat": 47.1283195,
    "lon": 7.82562316940332
  },
  {
    "name": "S. FlÃ¼ckiger AG",
    "adresse": "Bleienbachstrasse 54, 4900 Langenthal",
    "plz": "4900",
    "marken": [],
    "lat": 47.202269,
    "lon": 7.780900567254477
  },
  {
    "name": "Scania Schweiz AG",
    "adresse": "Buholzstrasse 6, 6032 Emmen",
    "plz": "6032",
    "marken": [],
    "lat": 47.0842441,
    "lon": 8.31178540967299
  },
  {
    "name": "Scania Schweiz AG",
    "adresse": "Ikarusstrasse 6, 9015 St. Gallen",
    "plz": "9015",
    "marken": [],
    "lat": 47.40469455,
    "lon": 9.3049231
  },
  {
    "name": "Scania Schweiz AG",
    "adresse": "Felsenaustrasse 49, 7000 Chur",
    "plz": "7000",
    "marken": [],
    "lat": 46.8599732,
    "lon": 9.509301861598814
  },
  {
    "name": "Scania Schweiz AG",
    "adresse": "ZÃ¼rcherstrasse 334, 8500 Frauenfeld",
    "plz": "8500",
    "marken": [],
    "lat": 47.5665972,
    "lon": 8.914319285179026
  },
  {
    "name": "Scania Schweiz AG",
    "adresse": "Steinackerstrasse 57, 8302 Kloten",
    "plz": "8302",
    "marken": [],
    "lat": 47.44759995,
    "lon": 8.605785049109198
  },
  {
    "name": "Scania Schweiz AG",
    "adresse": "Buechmattstrasse 11, 8645 Jona",
    "plz": "8645",
    "marken": [],
    "lat": 47.22604685,
    "lon": 8.868336045166663
  },
  {
    "name": "Scania Schweiz AG",
    "adresse": "Hauptstrasse 19, 4853 Murgenthal",
    "plz": "4853",
    "marken": [],
    "lat": 47.283984,
    "lon": 7.849004570010843
  },
  {
    "name": "Scania Schweiz AG",
    "adresse": "Netzibodenstrasse 29, 4133 Pratteln",
    "plz": "4133",
    "marken": [],
    "lat": 47.5327929,
    "lon": 7.7054252
  },
  {
    "name": "Scania Schweiz AG",
    "adresse": "Gennersbrunnerstrasse 69, 8207 Schaffhausen",
    "plz": "8207",
    "marken": [],
    "lat": 47.7152925,
    "lon": 8.6647878
  },
  {
    "name": "Scania Schweiz AG",
    "adresse": "Grubenstrasse 9, 3322 Urtenen-SchÃ¶nbÃ¼hl",
    "plz": "3322",
    "marken": [],
    "lat": 47.0201318,
    "lon": 7.503494064786285
  },
  {
    "name": "Scania Suisse SA",
    "adresse": "route d'Ecublens 26, 1026 Echandens",
    "plz": "1026",
    "marken": [],
    "lat": 46.5359613,
    "lon": 6.5476709
  },
  {
    "name": "Schachengarage AG",
    "adresse": "Looweg 2, 9463 Oberriet SG",
    "plz": "9463",
    "marken": [],
    "lat": 47.322279,
    "lon": 9.56540647475346
  },
  {
    "name": "SchÃ¤r Elektrofahrzeuge GmbH",
    "adresse": "Lindengasse 12, 5042 Hirschthal",
    "plz": "5042",
    "marken": [],
    "lat": 47.32112225,
    "lon": 8.0522147
  },
  {
    "name": "W. SchÃ¤rer Schlossgarage AG",
    "adresse": "Lindenstrasse 23, 3367 ThÃ¶rigen",
    "plz": "3367",
    "marken": [],
    "lat": 47.16815795,
    "lon": 7.7311198576083395
  },
  {
    "name": "W. SchÃ¤rer Bahnhof-Garage AG",
    "adresse": "Buchsistrasse 1, 3380 Wangen an der Aare",
    "plz": "3380",
    "marken": [],
    "lat": 47.22940015,
    "lon": 7.6543161196104705
  },
  {
    "name": "SchÃ¤rli + Bossert AG",
    "adresse": "HackenrÃ¼ti 10, 6110 Wolhusen",
    "plz": "6110",
    "marken": [],
    "lat": 47.05508655,
    "lon": 8.085824495295874
  },
  {
    "name": "Scheidweg-Garage AG",
    "adresse": "Gontenstrasse 1, 9050 Appenzell",
    "plz": "9050",
    "marken": [],
    "lat": 47.3314827,
    "lon": 9.39601637970955
  },
  {
    "name": "Garage Scheuber",
    "adresse": "Pilatusstrasse 25, 5630 Muri AG",
    "plz": "5630",
    "marken": [],
    "lat": 47.2617774,
    "lon": 8.352229506870488
  },
  {
    "name": "Garage Schmid",
    "adresse": "Sternenhofstrasse 13a, 4153 Reinach BL",
    "plz": "4153",
    "marken": [],
    "lat": 47.4891478,
    "lon": 7.596038
  },
  {
    "name": "Schmid-Garage AG",
    "adresse": "Kirchbergerstrasse 36, 9534 GÃ¤hwil",
    "plz": "9534",
    "marken": [],
    "lat": 47.39712635,
    "lon": 9.006567121895014
  },
  {
    "name": "Garage Schmitt SA",
    "adresse": "Avenue Mayor-Vautier 10, 1815 Clarens",
    "plz": "1815",
    "marken": [],
    "lat": 46.4424871,
    "lon": 6.895071689441589
  },
  {
    "name": "Schneeberger AG Automobile",
    "adresse": "ZÃ¼richstrasse 37, 4922 BÃ¼tzberg",
    "plz": "4922",
    "marken": [],
    "lat": 47.21766925,
    "lon": 7.75605169643398
  },
  {
    "name": "Bahnhof-Garage Leo Schnyder AG",
    "adresse": "Hauptstrasse 39, 6170 SchÃ¼pfheim",
    "plz": "6170",
    "marken": [],
    "lat": 46.9502427,
    "lon": 8.01615847631579
  },
  {
    "name": "SchÃ¶nenberger Auto-Elektro GmbH",
    "adresse": "Brunngasse 12, 4463 Buus",
    "plz": "4463",
    "marken": [],
    "lat": 47.507545,
    "lon": 7.86586101477754
  },
  {
    "name": "Garage Schuwey SA",
    "adresse": "rue de l'Ancien Comte 105, 1635 La Tour-de-TrÃªme",
    "plz": "1635",
    "marken": [],
    "lat": 46.6050302,
    "lon": 7.0702149
  },
  {
    "name": "Schweri Zweirad",
    "adresse": "Hauptstrasse 14, 8259 Wagenhausen",
    "plz": "8259",
    "marken": [],
    "lat": 47.6590777,
    "lon": 8.8511519
  },
  {
    "name": "Garage SÃ©dunois SA",
    "adresse": "Route de Riddes 115, 1950 Sion",
    "plz": "1950",
    "marken": [],
    "lat": 46.2212193,
    "lon": 7.3655814
  },
  {
    "name": "Seegarage MÃ¼ller AG",
    "adresse": "Seestrasse 340, 8810 Horgen",
    "plz": "8810",
    "marken": [],
    "lat": 47.2531303,
    "lon": 8.6194521
  },
  {
    "name": "Automobiles Senn SA",
    "adresse": "CrÃªtets 90, 2301 La Chaux-de-Fonds",
    "plz": "2301",
    "marken": [],
    "lat": 47.09440035,
    "lon": 6.821306934427993
  },
  {
    "name": "Automobiles Senn SA",
    "adresse": "Rue de la Pierre-Ã -Mazel 25, 2000 NeuchÃ¢tel",
    "plz": "2000",
    "marken": [],
    "lat": 46.9948813825558,
    "lon": 6.941024507127641
  },
  {
    "name": "Automobiles Senn SA",
    "adresse": "Champ de la Croix, 2075 Thielle",
    "plz": "2075",
    "marken": [],
    "lat": 47.0193599,
    "lon": 7.026964
  },
  {
    "name": "Sepp FÃ¤ssler AG",
    "adresse": "Feldstrasse 11, 9050 Appenzell",
    "plz": "9050",
    "marken": [],
    "lat": 47.334256,
    "lon": 9.404237800729568
  },
  {
    "name": "Sepp FÃ¤ssler (Wil) AG",
    "adresse": "Flawilerstrasse 23, 9500 Wil SG",
    "plz": "9500",
    "marken": [],
    "lat": 47.4523208,
    "lon": 9.0532989
  },
  {
    "name": "Auto Sidler AG",
    "adresse": "BrÃ¼nigstrasse 109, 6060 Sarnen",
    "plz": "6060",
    "marken": [],
    "lat": 46.89931605,
    "lon": 8.246686985325773
  },
  {
    "name": "Garage Siegenthaler AG",
    "adresse": "HÃ¶henstrasse 2, 9555 Tobel",
    "plz": "9555",
    "marken": [],
    "lat": 47.5124184,
    "lon": 9.03097595
  },
  {
    "name": "Romeo Solidoro Auto-Garage Solidoro Carrosserie",
    "adresse": "ZÃ¼rcherstrasse 73, 8800 Thalwil",
    "plz": "8800",
    "marken": [],
    "lat": 47.285635,
    "lon": 8.563142808001063
  },
  {
    "name": "Spring - BÃ¤chler AG",
    "adresse": "Galteren 19, 1712 Tafers",
    "plz": "1712",
    "marken": [],
    "lat": 46.8029012,
    "lon": 7.2279951
  },
  {
    "name": "Auto Zentrum St.Margrethen AG",
    "adresse": "Nebengraben 5, 9430 St. Margrethen SG",
    "plz": "9430",
    "marken": [],
    "lat": 47.45936725,
    "lon": 9.612777545591468
  },
  {
    "name": "Garage Stadio SA",
    "adresse": "Via alla Bozzoreda 49, 6963 Pregassona",
    "plz": "6963",
    "marken": [],
    "lat": 46.02280509950002,
    "lon": 8.96948735653444
  },
  {
    "name": "Autohaus Steffen AG",
    "adresse": "LÃ¤nggasse 3, 6208 Oberkirch LU",
    "plz": "6208",
    "marken": [],
    "lat": 47.15136285,
    "lon": 8.115828931014152
  },
  {
    "name": "Steinbach Garage AG",
    "adresse": "Steinbachstrasse 39, 3123 Belp",
    "plz": "3123",
    "marken": [],
    "lat": 46.8969731,
    "lon": 7.490779803528129
  },
  {
    "name": "Garage Steiner AG",
    "adresse": "Eystrasse 6, 3427 Utzenstorf",
    "plz": "3427",
    "marken": [],
    "lat": 47.12664505,
    "lon": 7.552939727796242
  },
  {
    "name": "Steiner Group AG",
    "adresse": "FluhmÃ¼hle 9, 6015 Luzern",
    "plz": "6015",
    "marken": [],
    "lat": 47.0576008,
    "lon": 8.285337925579952
  },
  {
    "name": "Steiner Group AG Filiale Kriens",
    "adresse": "Horwerstrasse 70, 6010 Kriens",
    "plz": "6010",
    "marken": [],
    "lat": 47.02838035,
    "lon": 8.293686983518562
  },
  {
    "name": "Steiner Group AG Filiale Nebikon",
    "adresse": "Vorstatt 28, 6244 Nebikon",
    "plz": "6244",
    "marken": [],
    "lat": 47.18901235,
    "lon": 7.973966455287682
  },
  {
    "name": "Steiner Tech AG",
    "adresse": "Gehracker 2, 3042 Ortschwaben",
    "plz": "3042",
    "marken": [],
    "lat": 46.9949881,
    "lon": 7.4038579
  },
  {
    "name": "Pierre Steulet SA",
    "adresse": "route de DelÃ©mont 115, 2802 Develier",
    "plz": "2802",
    "marken": [],
    "lat": 47.362332,
    "lon": 7.3133742
  },
  {
    "name": "Garage O. Stock AG",
    "adresse": "Kantonsstrasse 152, 7205 Zizers",
    "plz": "7205",
    "marken": [],
    "lat": 46.9277785,
    "lon": 9.562172226310532
  },
  {
    "name": "Strack AG",
    "adresse": "Ebnatstrasse 125, 8200 Schaffhausen",
    "plz": "8200",
    "marken": [],
    "lat": 47.71072215,
    "lon": 8.651245622055612
  },
  {
    "name": "Stratos Automobile AG",
    "adresse": "Bildstrasse 3, 9030 Abtwil SG",
    "plz": "9030",
    "marken": [],
    "lat": 47.4171367,
    "lon": 9.3123782
  },
  {
    "name": "Garage Ruedi Strub AG",
    "adresse": "Weiermatt 1, 4446 Buckten",
    "plz": "4446",
    "marken": [],
    "lat": 47.4154257,
    "lon": 7.844331651502909
  },
  {
    "name": "Suhre Garage AG Fam. H.Roth",
    "adresse": "Holzikerstrasse 14, 5040 SchÃ¶ftland",
    "plz": "5040",
    "marken": [],
    "lat": 47.3125188,
    "lon": 8.047246687198793
  },
  {
    "name": "Garage Sulser AG",
    "adresse": "St. Gallerstrasse 19, 9470 Buchs SG",
    "plz": "9470",
    "marken": [],
    "lat": 47.1660379,
    "lon": 9.467513000183596
  },
  {
    "name": "Garage Susten AG",
    "adresse": "Kantonsstrasse 12, 3952 Susten",
    "plz": "3952",
    "marken": [],
    "lat": 46.310562950000005,
    "lon": 7.643713845431872
  },
  {
    "name": "Garage Suter AG",
    "adresse": "Hauptstrasse 278, 3852 Ringgenberg BE",
    "plz": "3852",
    "marken": [],
    "lat": 46.7059233,
    "lon": 7.904016118965226
  },
  {
    "name": "Garage Tanner AG",
    "adresse": "Auerstrasse 45, 9435 Heerbrugg",
    "plz": "9435",
    "marken": [],
    "lat": 47.4175209,
    "lon": 9.632244246767865
  },
  {
    "name": "Th. Willy AG Auto-Zentrum, Schlieren",
    "adresse": "ZÃ¼rcherstrasse 145, 8952 Schlieren",
    "plz": "8952",
    "marken": [],
    "lat": 47.39643340000001,
    "lon": 8.467153438276965
  },
  {
    "name": "Thomann Nutzfahrzeuge AG",
    "adresse": "Blumenaustrasse 11, 9320 Arbon",
    "plz": "9320",
    "marken": [],
    "lat": 47.4975559,
    "lon": 9.419072888850389
  },
  {
    "name": "Thomann Nutzfahrzeuge AG",
    "adresse": "Juchstrasse 45, 8500 Frauenfeld",
    "plz": "8500",
    "marken": [],
    "lat": 47.5721381,
    "lon": 8.913852976431984
  },
  {
    "name": "Thomann Nutzfahrzeuge AG",
    "adresse": "Allmeindstrasse 10, 8716 Schmerikon",
    "plz": "8716",
    "marken": [],
    "lat": 47.225226000000006,
    "lon": 8.94734333681045
  },
  {
    "name": "Tognetti Auto SA",
    "adresse": "via San Gottardo 139, 6596 Gordola",
    "plz": "6596",
    "marken": [],
    "lat": 46.18077212221276,
    "lon": 8.862513015826122
  },
  {
    "name": "Garage Tondo AG",
    "adresse": "Industriestrasse 86, 7310 Bad Ragaz",
    "plz": "7310",
    "marken": [],
    "lat": 47.0145849,
    "lon": 9.496813823410967
  },
  {
    "name": "Top Garage Fischenthal AG",
    "adresse": "TÃ¶sstalstrasse 263, 8497 Fischenthal",
    "plz": "8497",
    "marken": [],
    "lat": 47.33801965,
    "lon": 8.925798548063248
  },
  {
    "name": "Garage Tornisello AG",
    "adresse": "Kornweg 17A, 4665 Oftringen",
    "plz": "4665",
    "marken": [],
    "lat": 47.30623955,
    "lon": 7.932580434539342
  },
  {
    "name": "Garage Torretta SA",
    "adresse": "via San Gottardo 109, 6500 Bellinzona",
    "plz": "6500",
    "marken": [],
    "lat": 46.2024187,
    "lon": 9.0341903
  },
  {
    "name": "Touring-Garage AG Huttwil",
    "adresse": "Luzernstrasse 76, 4950 Huttwil",
    "plz": "4950",
    "marken": [],
    "lat": 47.11454455,
    "lon": 7.865977687036359
  },
  {
    "name": "Touring-Garage Luggen AG",
    "adresse": "LaubisrÃ¼tistrasse 68, 8712 StÃ¤fa",
    "plz": "8712",
    "marken": [],
    "lat": 47.23835335,
    "lon": 8.749120474976735
  },
  {
    "name": "Auto-Trachsler AG",
    "adresse": "PfÃ¤ffikerstrasse 48, 8623 Wetzikon ZH",
    "plz": "8623",
    "marken": [],
    "lat": 47.3366478,
    "lon": 8.812012795330304
  },
  {
    "name": "Transit-Garage MÃ¼ller AG",
    "adresse": "Gotthardstrasse 8, 6410 Goldau",
    "plz": "6410",
    "marken": [],
    "lat": 47.0511333,
    "lon": 8.543228406288613
  },
  {
    "name": "Truck Center Mittelland AG Nutzfahrzeuge",
    "adresse": "Pfannenstiel 2, 4624 HÃ¤rkingen",
    "plz": "4624",
    "marken": [],
    "lat": 47.3149638,
    "lon": 7.8135742
  },
  {
    "name": "Truck Center Valais AG",
    "adresse": "Littenstrasse 7, 3970 Salgesch",
    "plz": "3970",
    "marken": [],
    "lat": 46.3036752,
    "lon": 7.5686239
  },
  {
    "name": "Trucks Vans Solutions SA",
    "adresse": "route AndrÃ©-Piller 46, 1762 Givisiez",
    "plz": "1762",
    "marken": [],
    "lat": 46.81257345,
    "lon": 7.116786326123965
  },
  {
    "name": "Claude Urfer SA",
    "adresse": "Rue du Levant 171, 1920 Martigny",
    "plz": "1920",
    "marken": [],
    "lat": 46.1066048,
    "lon": 7.0996476
  },
  {
    "name": "Claude Urfer SA",
    "adresse": "Route du Simplon 58, 3960 Sierre",
    "plz": "3960",
    "marken": [],
    "lat": 46.2535331,
    "lon": 7.4248446
  },
  {
    "name": "Claude Urfer SA",
    "adresse": "Chemin Saint-Hubert 12, 1950 Sion",
    "plz": "1950",
    "marken": [],
    "lat": 46.223135,
    "lon": 7.3489742
  },
  {
    "name": "Vasellari AG",
    "adresse": "Bienenweg 10, 4313 MÃ¶hlin",
    "plz": "4313",
    "marken": [],
    "lat": 47.5581536,
    "lon": 7.844172903396299
  },
  {
    "name": "VI VÃ©hicules Industriels SA",
    "adresse": "route de la PlÃ¢triÃ¨re 17, 1907 Saxon",
    "plz": "1907",
    "marken": [],
    "lat": 46.1403813,
    "lon": 7.1594584
  },
  {
    "name": "Garage Viatte-Straub AG",
    "adresse": "Aesplistrasse 1, 4562 Biberist",
    "plz": "4562",
    "marken": [],
    "lat": 47.1907736,
    "lon": 7.5530826
  },
  {
    "name": "VM Cars GmbH",
    "adresse": "Talstrasse 4, 6372 Ennetmoos",
    "plz": "6372",
    "marken": [],
    "lat": 46.9553061,
    "lon": 8.334385655285576
  },
  {
    "name": "Vogelsang AG Garage + Carrosserie",
    "adresse": "Bielstrasse 85-89, 2540 Grenchen",
    "plz": "2540",
    "marken": [],
    "lat": 47.1905772273858,
    "lon": 7.391410952663927
  },
  {
    "name": "Vogt Automobile AG",
    "adresse": "Gewerbestrasse 9, 8162 Steinmaur",
    "plz": "8162",
    "marken": [],
    "lat": 47.4885507,
    "lon": 8.4472916
  },
  {
    "name": "Volvo Group (Schweiz) AG Truck Center Aclens",
    "adresse": "Route de la Venoge 3, 1123 Aclens",
    "plz": "1123",
    "marken": [],
    "lat": 46.562926,
    "lon": 6.5247956223772565
  },
  {
    "name": "Volvo Group (Schweiz) AG Truck Center Egerkingen",
    "adresse": "Industriestrasse 26, 4622 Egerkingen",
    "plz": "4622",
    "marken": [],
    "lat": 47.3145354,
    "lon": 7.789114694677817
  },
  {
    "name": "Volvo Group (Schweiz) AG Truck Center DÃ¤llikon",
    "adresse": "Lindenstrasse 6, 8108 DÃ¤llikon",
    "plz": "8108",
    "marken": [],
    "lat": 47.44799655,
    "lon": 8.435012474390156
  },
  {
    "name": "Volvo Group (Schweiz) AG Truck Center Inwil",
    "adresse": "Industriestrasse 48, 6034 Inwil",
    "plz": "6034",
    "marken": [],
    "lat": 47.117815500000006,
    "lon": 8.348190198425225
  },
  {
    "name": "Volvo Group (Schweiz) AG Trucks Center MÃ¼nchenbuchsee",
    "adresse": "Moosrainweg 12, 3053 MÃ¼nchenbuchsee",
    "plz": "3053",
    "marken": [],
    "lat": 47.03028225,
    "lon": 7.435738003496105
  },
  {
    "name": "Volvo Group (Schweiz) AG Truck Center Winterthur",
    "adresse": "WÃ¼lflingerstrasse 149, 8408 Winterthur",
    "plz": "8408",
    "marken": [],
    "lat": 47.50785745,
    "lon": 8.704697941900925
  },
  {
    "name": "Volvo Group (Schweiz) SA Succursale Truck Center Cornaux",
    "adresse": "Route des PrÃ©s-Bersot 31, 2087 Cornaux NE",
    "plz": "2087",
    "marken": [],
    "lat": 47.03594443716707,
    "lon": 7.020796378551472
  },
  {
    "name": "Volvo Group (Schweiz) AG Truck Center Niederuzwil",
    "adresse": "Hirzenstrasse 4, 9244 Niederuzwil",
    "plz": "9244",
    "marken": [],
    "lat": 47.4433479,
    "lon": 9.147879756263592
  },
  {
    "name": "Vorort-Garage AG",
    "adresse": "ZÃ¼richstrasse 61, 8184 BachenbÃ¼lach",
    "plz": "8184",
    "marken": [],
    "lat": 47.5067845,
    "lon": 8.545000772031749
  },
  {
    "name": "Vorstadt-Garage Ilardo AG",
    "adresse": "Hunnenweg 1, 4500 Solothurn",
    "plz": "4500",
    "marken": [],
    "lat": 47.19911995,
    "lon": 7.533076594807396
  },
  {
    "name": "VRA AG",
    "adresse": "Steinachermatt 1, 5033 Buchs AG",
    "plz": "5033",
    "marken": [],
    "lat": 47.3963502,
    "lon": 8.0726927
  },
  {
    "name": "vRbikes.ch ag",
    "adresse": "Bahnhofstrasse 23, 6300 Zug",
    "plz": "6300",
    "marken": [],
    "lat": 47.1700546,
    "lon": 8.5156839
  },
  {
    "name": "VUD Romandie SA",
    "adresse": "Route d'Yverdon 34, 1373 Chavornay",
    "plz": "1373",
    "marken": [],
    "lat": 46.7146803,
    "lon": 6.575401562351987
  },
  {
    "name": "Garage Vuilleumier Sarl",
    "adresse": "rue de Tramelan 2, 2710 Tavannes",
    "plz": "2710",
    "marken": [],
    "lat": 47.22055685,
    "lon": 7.198263051789877
  },
  {
    "name": "Walker Fahrzeugtechnik AG",
    "adresse": "Furkastrasse 140b, 3904 Naters",
    "plz": "3904",
    "marken": [],
    "lat": 46.327692600000006,
    "lon": 8.010692575586443
  },
  {
    "name": "Garage Walker GmbH",
    "adresse": "Ried 2B, 6467 Schattdorf",
    "plz": "6467",
    "marken": [],
    "lat": 46.8548845,
    "lon": 8.640677965866931
  },
  {
    "name": "Walter Streuli AG Sandhof-Garage",
    "adresse": "SchÃ¶nenbergstrasse 139, 8820 WÃ¤denswil",
    "plz": "8820",
    "marken": [],
    "lat": 47.2190675,
    "lon": 8.669760228493775
  },
  {
    "name": "Walter Streuli AG Garage Altendorf",
    "adresse": "Churerstrasse 66, 8852 Altendorf",
    "plz": "8852",
    "marken": [],
    "lat": 47.19002395,
    "lon": 8.843511253151938
  },
  {
    "name": "We Automobile SÃ rl",
    "adresse": "Rue des Grands-PrÃ©s 2, 1964 Conthey",
    "plz": "1964",
    "marken": [],
    "lat": 46.2257824,
    "lon": 7.2943748
  },
  {
    "name": "Garage Weber-Monaco SA",
    "adresse": "Via Kosciuszko 4A, 6943 Vezia",
    "plz": "6943",
    "marken": [],
    "lat": 46.02962782818941,
    "lon": 8.938420928804048
  },
  {
    "name": "Centralgarage Weinfelden AG",
    "adresse": "Walkestrasse 27, 8570 Weinfelden",
    "plz": "8570",
    "marken": [],
    "lat": 47.56319588139422,
    "lon": 9.097652571510716
  },
  {
    "name": "Garage Carrosserie Welti AG",
    "adresse": "MilitÃ¤rstrasse 12, 6467 Schattdorf",
    "plz": "6467",
    "marken": [],
    "lat": 46.8579799,
    "lon": 8.642655748857976
  },
  {
    "name": "Garage Wenger AG",
    "adresse": "Wychelstrasse 32, 3800 Interlaken",
    "plz": "3800",
    "marken": [],
    "lat": 46.68082750000001,
    "lon": 7.859011943167634
  },
  {
    "name": "Wheelpower GmbH",
    "adresse": "Fliegeneggstrasse 7, 9555 Tobel",
    "plz": "9555",
    "marken": [],
    "lat": 47.515527000000006,
    "lon": 9.03000330381105
  },
  {
    "name": "Wiaz AG",
    "adresse": "St. Gallerstrasse 29, 9524 Zuzwil SG",
    "plz": "9524",
    "marken": [],
    "lat": 47.46892345,
    "lon": 9.108701957724534
  },
  {
    "name": "J. Windlin AG",
    "adresse": "Stanserstrasse 113, 6064 Kerns",
    "plz": "6064",
    "marken": [],
    "lat": 46.9100038,
    "lon": 8.293167208063288
  },
  {
    "name": "J. Windlin AG Garage",
    "adresse": "Sternmatt 10, 6010 Kriens",
    "plz": "6010",
    "marken": [],
    "lat": 47.0290396,
    "lon": 8.29838754642062
  },
  {
    "name": "J. Windlin AG",
    "adresse": "Vorderschlund 1, 6010 Kriens",
    "plz": "6010",
    "marken": [],
    "lat": 47.0241544,
    "lon": 8.292768298716245
  },
  {
    "name": "Autocenter Winkeln GmbH",
    "adresse": "Ikarusstrasse 2, 9015 St. Gallen",
    "plz": "9015",
    "marken": [],
    "lat": 47.4042403,
    "lon": 9.304578225442537
  },
  {
    "name": "Garage Wirz AG",
    "adresse": "Netzenstrasse 8, 4450 Sissach",
    "plz": "4450",
    "marken": [],
    "lat": 47.467436000000006,
    "lon": 7.800866073818704
  },
  {
    "name": "Yersin Automobiles et Voyages SA",
    "adresse": "Grand-Rue 94b, 1660 ChÃ¢teau-d'Oex",
    "plz": "1660",
    "marken": [],
    "lat": 46.475876736858034,
    "lon": 7.134996106392438
  },
  {
    "name": "Zbinden AG HÃ¤gendorf",
    "adresse": "Oltnerstrasse 18, 4614 HÃ¤gendorf",
    "plz": "4614",
    "marken": [],
    "lat": 47.3348874,
    "lon": 7.849274328894471
  },
  {
    "name": "Zentrum-Garage AG",
    "adresse": "Hauptstrasse 36, 3186 DÃ¼dingen",
    "plz": "3186",
    "marken": [],
    "lat": 46.8487588,
    "lon": 7.189684750727695
  },
  {
    "name": "Zil-Garage St. Gallen Garage Hirn Gruppe",
    "adresse": "Zilstrasse 79, 9016 St. Gallen",
    "plz": "9016",
    "marken": [],
    "lat": 47.442939300000006,
    "lon": 9.413000835562409
  },
  {
    "name": "Garage Zimmerli Aarau AG",
    "adresse": "Hauptstrasse 1, 5032 Aarau Rohr",
    "plz": "5032",
    "marken": [],
    "lat": 47.399429600000005,
    "lon": 8.072248127799984
  },
  {
    "name": "Garage Zimmerli AG",
    "adresse": "Hendschikerstrasse 9, 5600 Lenzburg",
    "plz": "5600",
    "marken": [],
    "lat": 47.39030985,
    "lon": 8.18361110105139
  },
  {
    "name": "Zollhaus & Paoluzzo AutomoBiel GmbH",
    "adresse": "Guglerstrasse 6, 2560 Nidau",
    "plz": "2560",
    "marken": [],
    "lat": 47.1257111,
    "lon": 7.250490510946076
  },
  {
    "name": "Auto Zollikofer AG",
    "adresse": "Rorschacherstrasse 284, 9016 St. Gallen",
    "plz": "9016",
    "marken": [],
    "lat": 47.44286005,
    "lon": 9.414720590418616
  },
  {
    "name": "Zugerland Verkehrsbetriebe AG",
    "adresse": "General-Guisan-Strasse, 6304 Zug",
    "plz": "6304",
    "marken": [],
    "lat": 47.174887377137466,
    "lon": 8.510674239026244
  }
]