[
  {
    "name": "2-Rad-Fachhandel Benker",
    "strasse": "Bahnhofstrasse 57",
    "plz": 7302,
    "ort": "Landquart",
    "marke": "2-RAD",
    "lat": "46,9686015",
    "lng": "9,562284119"
  },
  {
    "name": "Aare Touring Garage AG",
    "strasse": "Steinachermattweg 1",
    "plz": 5033,
    "ort": "Buchs AG",
    "marke": "DREIRAD",
    "lat": "47,3963502",
    "lng": "8,0726927"
  },
  {
    "name": "Aaretal Garage AG Münsingen",
    "strasse": "Bernstrasse 91-93",
    "plz": 3110,
    "ort": "Münsingen",
    "marke": "FAHRRAD",
    "lat": "46,8869099",
    "lng": "7,5548977"
  },
  {
    "name": "ABAG Nutzfahrzeuge AG",
    "strasse": "Hühnerhubelstrasse 87",
    "plz": 3123,
    "ort": "Belp",
    "marke": "KYBURZ",
    "lat": "46,90589505",
    "lng": "7,492974816"
  },
  {
    "name": "ABAG Nutzfahrzeuge AG",
    "strasse": "Zelgstrasse 87",
    "plz": 3661,
    "ort": "Uetendorf",
    "marke": "VRBIKES",
    "lat": "46,78032505",
    "lng": "7,594042597"
  },
  {
    "name": "ABATRAG AG",
    "strasse": "Längfeldweg 111",
    "plz": 2504,
    "ort": "Biel/Bienne",
    "marke": "DACIA",
    "lat": "47,15599595",
    "lng": "7,28954655"
  },
  {
    "name": "Abt Automobile AG Zweigniederlassung Muttenz",
    "strasse": "St. Jakob-Strasse 72",
    "plz": 4132,
    "ort": "Muttenz",
    "marke": "RENAULT",
    "lat": "47,5310471",
    "lng": "7,638529104"
  },
  {
    "name": "Abt Automobile AG",
    "strasse": "Lausenerstrasse 11",
    "plz": 4410,
    "ort": "Liestal",
    "marke": "POLESTAR",
    "lat": "47,4768148",
    "lng": "7,747570632"
  },
  {
    "name": "Abt Automobile AG",
    "strasse": "Aumattstrasse 144",
    "plz": 4153,
    "ort": "Reinach BL",
    "marke": "VOLVO",
    "lat": "47,4901785",
    "lng": "7,5974339"
  },
  {
    "name": "AC Alu-Car Garagen AG",
    "strasse": "Faden 1",
    "plz": 6374,
    "ort": "Buochs",
    "marke": "DAF",
    "lat": "46,96846095",
    "lng": "8,4041726"
  },
  {
    "name": "ACM Autocentre Moutier SA",
    "strasse": "rue des Gorges 18",
    "plz": 2740,
    "ort": "Moutier",
    "marke": "LKW",
    "lat": "47,28210905",
    "lng": "7,380748837"
  },
  {
    "name": "ACW Auto-Center Visp AG",
    "strasse": "Kantonsstrasse 6",
    "plz": 3930,
    "ort": "Eyholz",
    "marke": "MAN",
    "lat": "46,2938963",
    "lng": "7,905186642"
  },
  {
    "name": "Garage Adank Chur AG",
    "strasse": "Emserstrasse 2",
    "plz": 7000,
    "ort": "Chur",
    "marke": "LKW",
    "lat": "46,84616685",
    "lng": "9,506588086"
  },
  {
    "name": "Aebi Auto AG",
    "strasse": "Bernstrasse 38",
    "plz": 3250,
    "ort": "Lyss",
    "marke": "MAN",
    "lat": "47,0679388",
    "lng": "7,31577529"
  },
  {
    "name": "Sport-Garage Affentranger AG Affentranger Marcel",
    "strasse": "Langenthalstrasse 57",
    "plz": 4932,
    "ort": "Lotzwil",
    "marke": "LKW",
    "lat": "47,1956018",
    "lng": "7,788608533"
  },
  {
    "name": "AHG-Cars Avenches SA",
    "strasse": "Route de Berne 6",
    "plz": 1580,
    "ort": "Avenches",
    "marke": "MINI",
    "lat": "46,88307445",
    "lng": "7,045705118"
  },
  {
    "name": "AHG-Cars Biel",
    "strasse": "Bözingenstrasse 100",
    "plz": 2502,
    "ort": "Biel/Bienne",
    "marke": "BMW",
    "lat": "47,150132",
    "lng": "7,2626213"
  },
  {
    "name": "AHG-Cars Bulle SA",
    "strasse": "Rue de Vevey 82",
    "plz": 1630,
    "ort": "Bulle",
    "marke": "MINI",
    "lat": "46,6156162",
    "lng": "7,0520392"
  },
  {
    "name": "AHG-Cars Fribourg SA",
    "strasse": "route de Villars-Vert 9",
    "plz": 1752,
    "ort": "Villars-sur-Glâne",
    "marke": "MINI",
    "lat": "46,798612",
    "lng": "7,128785699"
  },
  {
    "name": "AHG-Cars Kerzers AG",
    "strasse": "Murtenstrasse 38",
    "plz": 3210,
    "ort": "Kerzers",
    "marke": "VOLKSWAGEN",
    "lat": "46,9683171",
    "lng": "7,189982097"
  },
  {
    "name": "AHG-Cars Murten AG Zweigniederlassung Laupen AHG-Cars Laupen",
    "strasse": "Neueneggstrasse 10",
    "plz": 3177,
    "ort": "Laupen BE",
    "marke": "VOLKSWAGEN NF",
    "lat": "46,9008765",
    "lng": "7,244938639"
  },
  {
    "name": "AHG-Cars Port AG",
    "strasse": "Moosgasse 16",
    "plz": 2562,
    "ort": "Port",
    "marke": "NISSAN",
    "lat": "47,11826045",
    "lng": "7,252769963"
  },
  {
    "name": "AHG-Cars Tafers SA",
    "strasse": "Mariahilfstrasse 1",
    "plz": 1712,
    "ort": "Tafers",
    "marke": "OPEL",
    "lat": "46,8154632",
    "lng": "7,215495567"
  },
  {
    "name": "AHG-Cars Wünnewil AG",
    "strasse": "Dorfstrasse 2",
    "plz": 3184,
    "ort": "Wünnewil",
    "marke": "BMW",
    "lat": "46,875166",
    "lng": "7,279555157"
  },
  {
    "name": "Airport-Garage Geronimi SA",
    "strasse": "Cho d'Punt Dadour 83",
    "plz": 7503,
    "ort": "Samedan",
    "marke": "MINI",
    "lat": "46,5301418",
    "lng": "9,874005937"
  },
  {
    "name": "Albis-Garage Schaub Schaub Daniel",
    "strasse": "Industriestrasse 20",
    "plz": 8910,
    "ort": "Affoltern am Albis",
    "marke": "DACIA",
    "lat": "47,27123255",
    "lng": "8,444241264"
  },
  {
    "name": "Alcardis Automobile AG",
    "strasse": "Worblaufenstrasse 4",
    "plz": 3048,
    "ort": "Worblaufen",
    "marke": "RENAULT",
    "lat": "46,97704967",
    "lng": "7,465874481"
  },
  {
    "name": "Garage Allemann AG",
    "strasse": "Schichtstrasse 1",
    "plz": 4528,
    "ort": "Zuchwil",
    "marke": "FIAT",
    "lat": "47,2102573",
    "lng": "7,5572691"
  },
  {
    "name": "Allmend Automobile AG",
    "strasse": "Zwirnerstrasse 316",
    "plz": 8041,
    "ort": "Zürich",
    "marke": "FIAT PROFESSIONAL",
    "lat": "47,33605985",
    "lng": "8,517557102"
  },
  {
    "name": "Alternative Cars S.A.",
    "strasse": "Avenue de Grandson 72",
    "plz": 1400,
    "ort": "Yverdon-les-Bains",
    "marke": "VOLKSWAGEN",
    "lat": "46,79055505",
    "lng": "6,629134092"
  },
  {
    "name": "AMAG First AG Porsche Zentrum Zürich",
    "strasse": "Bernstrasse 59",
    "plz": 8952,
    "ort": "Schlieren",
    "marke": "VOLKSWAGEN NF",
    "lat": "47,40023235",
    "lng": "8,4657925"
  },
  {
    "name": "AMAG Automobiles et Moteurs SA Succursale Retail Prangins Centre Audi",
    "strasse": "Route de Lausanne 114",
    "plz": 1197,
    "ort": "Prangins",
    "marke": "OPEL",
    "lat": "46,3909986",
    "lng": "6,251122995"
  },
  {
    "name": "AMAG Automobil und Motoren AG Zweigniederlassung Retail Aarau",
    "strasse": "Rohrerstrasse 29",
    "plz": 5000,
    "ort": "Aarau",
    "marke": "CADILLAC",
    "lat": "47,39515925",
    "lng": "8,057839526"
  },
  {
    "name": "AMAG Automobil und Motoren AG Zweigniederlassung Retail Altstetten",
    "strasse": "Vulkanstrasse 120",
    "plz": 8048,
    "ort": "Zürich",
    "marke": "CHEVROLET",
    "lat": "47,3940505",
    "lng": "8,4820011"
  },
  {
    "name": "AMAG Automobil und Motoren AG Zweigniederlassung Retail Autowelt Zürich",
    "strasse": "Giessenstrasse 4",
    "plz": 8600,
    "ort": "Dübendorf",
    "marke": "FORD",
    "lat": "47,4020992",
    "lng": "8,60965891"
  },
  {
    "name": "AMAG Automobil und Motoren AG Zweigniederlassung Retail Badenerstrasse",
    "strasse": "Badenerstrasse 329",
    "plz": 8003,
    "ort": "Zürich",
    "marke": "OPEL",
    "lat": "47,3775378",
    "lng": "8,511578"
  },
  {
    "name": "AMAG Automobil und Motoren AG Zweigniederlassung Retail Basel",
    "strasse": "Reinacherstrasse 149/151",
    "plz": 4053,
    "ort": "Basel",
    "marke": "MAZDA",
    "lat": "47,53970042",
    "lng": "7,603035603"
  },
  {
    "name": "AMAG Automobil und Motoren AG Zweigniederlassung Basel Audi Center",
    "strasse": "Reinacherstrasse 149",
    "plz": 4053,
    "ort": "Basel",
    "marke": "OPEL",
    "lat": "47,5348729",
    "lng": "7,6048675"
  },
  {
    "name": "AMAG Automobili e Motori SA Succursale Retail di Bellinzona",
    "strasse": "Via San Gottardo 71",
    "plz": 6500,
    "ort": "Bellinzona",
    "marke": "CADILLAC",
    "lat": "46,2054012",
    "lng": "9,035848889"
  },
  {
    "name": "AMAG Automobil und Motoren AG Zweigniederlassung Retail Bern Wankdorf",
    "strasse": "Wankdorffeldstrasse 60",
    "plz": 3014,
    "ort": "Bern",
    "marke": "CHEVROLET",
    "lat": "46,9656943",
    "lng": "7,4670871"
  },
  {
    "name": "AMAG Automobil und Motoren AG Zweigniederlassung Retail Beromünster",
    "strasse": "Aargauerstrasse 13",
    "plz": 6215,
    "ort": "Beromünster",
    "marke": "MAZDA",
    "lat": "47,20894695",
    "lng": "8,190991238"
  },
  {
    "name": "AMAG Automobil und Motoren AG Zweigniederlassung Retail Biel Längfeldweg",
    "strasse": "Längfeldweg 118",
    "plz": 2504,
    "ort": "Biel/Bienne",
    "marke": "OPEL",
    "lat": "47,15334705",
    "lng": "7,2851305"
  },
  {
    "name": "AMAG Automobili e Motori SA Succursale Retail di Breganzona Centro Audi",
    "strasse": "via San Carlo 6",
    "plz": 6932,
    "ort": "Breganzona",
    "marke": "ISUZU",
    "lat": "46,0131551",
    "lng": "8,931316"
  },
  {
    "name": "AMAG Automobil und Motoren AG Zweigniederlassung Retail Biel",
    "strasse": "Römerstrasse 16",
    "plz": 2555,
    "ort": "Brügg BE",
    "marke": "MAZDA",
    "lat": "47,121744",
    "lng": "7,261137841"
  },
  {
    "name": "AMAG Automobil und Motoren AG Zweigniederlassung Retail Buchrain",
    "strasse": "Elsihof 1",
    "plz": 6035,
    "ort": "Perlen",
    "marke": "OPEL",
    "lat": "47,1069759",
    "lng": "8,353707569"
  },
  {
    "name": "AMAG Automobil und Motoren AG Zweigniederlassung Retail Bülach",
    "strasse": "Bächliwis 29",
    "plz": 8184,
    "ort": "Bachenbülach",
    "marke": "OPEL",
    "lat": "47,5078468",
    "lng": "8,543466175"
  },
  {
    "name": "AMAG Automobiles et Moteurs SA Succursale Retail Bulle",
    "strasse": "rue de Vuippens 55",
    "plz": 1630,
    "ort": "Bulle",
    "marke": "OPEL",
    "lat": "46,62789495",
    "lng": "7,060406749"
  },
  {
    "name": "AMAG Automobiles et Moteurs SA Succursale Retail Carouge",
    "strasse": "chemin de la Marbrerie 8",
    "plz": 1227,
    "ort": "Carouge",
    "marke": "MERCEDES",
    "lat": "46,179108",
    "lng": "6,135440576"
  },
  {
    "name": "AMAG Automobil und Motoren AG Zweigniederlassung Retail Zug",
    "strasse": "Alte Steinhauserstrasse 1",
    "plz": 6330,
    "ort": "Cham",
    "marke": "RENAULT",
    "lat": "47,1865003",
    "lng": "8,4739032"
  },
  {
    "name": "AMAG Automobiles et Moteurs SA Succursale Retail Châtelaine",
    "strasse": "Chemin J.-Ph. De-Sauvage 44-46",
    "plz": 1219,
    "ort": "Châtelaine",
    "marke": "SUBARU",
    "lat": "46,21367318",
    "lng": "6,103211507"
  },
  {
    "name": "AMAG Automobil und Motoren AG Zweigniederlassung Retail Chur",
    "strasse": "Rossbodenstrasse 14-19",
    "plz": 7000,
    "ort": "Chur",
    "marke": "DACIA",
    "lat": "46,85108238",
    "lng": "9,504796984"
  },
  {
    "name": "AMAG Automobili e Motori SA Succursale Retail di Coldrerio",
    "strasse": "Via San Gottardo 52",
    "plz": 6877,
    "ort": "Coldrerio",
    "marke": "RENAULT",
    "lat": "45,8577362",
    "lng": "8,9861793"
  },
  {
    "name": "AMAG Automobiles et Moteurs SA Succursale Retail Crissier",
    "strasse": "Rue de la Vernie 2",
    "plz": 1023,
    "ort": "Crissier",
    "marke": "HYUNDAI",
    "lat": "46,54362145",
    "lng": "6,571714097"
  },
  {
    "name": "AMAG Automobil und Motoren AG Zweigniederlassung Retail Davos",
    "strasse": "Talstrasse 22",
    "plz": 7270,
    "ort": "Davos Platz",
    "marke": "MAN",
    "lat": "46,7953859",
    "lng": "9,824810297"
  },
  {
    "name": "AMAG Automobil und Motoren AG Zweigniederlassung Retail Dulliken",
    "strasse": "Bodenackerstrasse 61",
    "plz": 4657,
    "ort": "Dulliken",
    "marke": "NISSAN",
    "lat": "47,3508242",
    "lng": "7,953822078"
  },
  {
    "name": "AMAG Automobil und Motoren AG Zweigniederlassung Retail Emmen",
    "strasse": "Mooshüslistrasse 32",
    "plz": 6032,
    "ort": "Emmen",
    "marke": "ABARTH",
    "lat": "47,07842385",
    "lng": "8,290448319"
  },
  {
    "name": "AMAG Automobiles et Moteurs SA Succursale Retail Etoy",
    "strasse": "Route de Buchillon 1",
    "plz": 1163,
    "ort": "Etoy",
    "marke": "ALFA ROMEO",
    "lat": "46,47353505",
    "lng": "6,414028935"
  },
  {
    "name": "AMAG Automobil und Motoren AG Zweigniederlassung Retail Fislisbach",
    "strasse": "Winkelstrasse 2",
    "plz": 5442,
    "ort": "Fislisbach",
    "marke": "FIAT",
    "lat": "47,4416483",
    "lng": "8,2956752"
  },
  {
    "name": "AMAG Automobil und Motoren AG Zweigniederlassung Retail Frauenfeld",
    "strasse": "Zürcherstrasse 331",
    "plz": 8500,
    "ort": "Frauenfeld",
    "marke": "FIAT PROFESSIONAL",
    "lat": "47,5666715",
    "lng": "8,912403271"
  },
  {
    "name": "AMAG Automobiles et Moteurs SA Succursale Retail Fribourg",
    "strasse": "Route de Villars 103-106",
    "plz": 1701,
    "ort": "Fribourg",
    "marke": "JEEP",
    "lat": "46,80089195",
    "lng": "7,142988216"
  },
  {
    "name": "AMAG Automobili e Motori SA Succursale Retail di Giubiasco Centro Audi",
    "strasse": "Via Bellinzona 37",
    "plz": 6512,
    "ort": "Giubiasco",
    "marke": "2-RAD",
    "lat": "46,17388854",
    "lng": "9,010764299"
  },
  {
    "name": "AMAG Automobili e Motori SA Succursale Retail di Giubiasco Centro Skoda",
    "strasse": "Via Bellinzona 20",
    "plz": 6512,
    "ort": "Giubiasco",
    "marke": "KYBURZ",
    "lat": "46,17388854",
    "lng": "9,010764299"
  },
  {
    "name": "AMAG Automobil und Motoren AG Zweigniederlassung Retail Gümligen",
    "strasse": "Worbstrasse 226",
    "plz": 3073,
    "ort": "Gümligen",
    "marke": "SUZUKI",
    "lat": "46,93290845",
    "lng": "7,506158179"
  },
  {
    "name": "AMAG Automobil und Motoren AG Zweigniederlassung Retail Heerbrugg",
    "strasse": "Auerstrasse 20",
    "plz": 9435,
    "ort": "Heerbrugg",
    "marke": "VRBIKES",
    "lat": "47,41357515",
    "lng": "9,630651584"
  },
  {
    "name": "AMAG Automobil und Motoren AG Zweigniederlassung Retail Horgen",
    "strasse": "Im Schnegg 1",
    "plz": 8810,
    "ort": "Horgen",
    "marke": "TOYOTA",
    "lat": "47,2481368",
    "lng": "8,6048958"
  },
  {
    "name": "AMAG Automobil und Motoren AG Zweigniederlassung Retail Jona",
    "strasse": "St. Gallerstrasse 101",
    "plz": 8645,
    "ort": "Jona",
    "marke": "CUPRA",
    "lat": "47,2304044",
    "lng": "8,847333854"
  },
  {
    "name": "AMAG Automobil und Motoren AG Zweigniederlassung Retail Kleinbasel",
    "strasse": "Schönaustrasse 25",
    "plz": 4058,
    "ort": "Basel",
    "marke": "HYUNDAI",
    "lat": "47,5677783",
    "lng": "7,5991173"
  },
  {
    "name": "AMAG Automobil und Motoren AG Zweigniederlassung Retail Kloten",
    "strasse": "Steinackerstrasse 20",
    "plz": 8302,
    "ort": "Kloten",
    "marke": "SEAT",
    "lat": "47,4489878",
    "lng": "8,596771044"
  },
  {
    "name": "AMAG Automobil und Motoren AG Zweigniederlassung Retail Kriens",
    "strasse": "Grabenhofstrasse 10",
    "plz": 6010,
    "ort": "Kriens",
    "marke": "AUDI",
    "lat": "47,02375155",
    "lng": "8,295981788"
  },
  {
    "name": "AMAG Automobiles et Moteurs SA Succursale Retail Lausanne",
    "strasse": "Avenue de Provence 2",
    "plz": 1007,
    "ort": "Lausanne",
    "marke": "AUDI",
    "lat": "46,52241825",
    "lng": "6,612710339"
  },
  {
    "name": "AMAG Automobil und Motoren AG Zweigniederlassung Retail Letzigrund Audi Center",
    "strasse": "Rautistrasse 23",
    "plz": 8048,
    "ort": "Zürich",
    "marke": "SEAT",
    "lat": "47,38040215",
    "lng": "8,49275782"
  },
  {
    "name": "AMAG Automobil und Motoren AG Zweigniederlassung Retail Liestal",
    "strasse": "Rheinstrasse 107",
    "plz": 4410,
    "ort": "Liestal",
    "marke": "SKODA",
    "lat": "47,49675285",
    "lng": "7,723208475"
  },
  {
    "name": "AMAG Automobili e Motori SA Succursale Retail di Mendrisio Garage Cassarate",
    "strasse": "Via Rinaldi 3",
    "plz": 6850,
    "ort": "Mendrisio",
    "marke": "AUDI",
    "lat": "45,8804544",
    "lng": "8,958604061"
  },
  {
    "name": "AMAG Automobil und Motoren AG Zweigniederlassung Retail Murten",
    "strasse": "Bernstrasse 11",
    "plz": 3280,
    "ort": "Murten",
    "marke": "SEAT",
    "lat": "46,93031037",
    "lng": "7,122521113"
  },
  {
    "name": "AMAG Automobil und Motoren AG Zweigniederlassung Retail Muttenz",
    "strasse": "Birsfelderstrasse 50",
    "plz": 4132,
    "ort": "Muttenz",
    "marke": "SKODA",
    "lat": "47,53697035",
    "lng": "7,634146455"
  },
  {
    "name": "AMAG Automobil und Motoren AG Zweigniederlassung Retail Schlieren",
    "strasse": "Lättenstrasse 37",
    "plz": 8952,
    "ort": "Schlieren",
    "marke": "VOLKSWAGEN",
    "lat": "47,4028543",
    "lng": "8,4410925"
  },
  {
    "name": "AMAG Automobil und Motoren AG Zweigniederlassung Retail NF Uster VW Nutzfahrzeugcenter",
    "strasse": "Pfäffikerstrasse 32",
    "plz": 8610,
    "ort": "Uster",
    "marke": "VOLKSWAGEN NF",
    "lat": "47,3575687",
    "lng": "8,72855795"
  },
  {
    "name": "AMAG Automobiles et Moteurs SA Succursale Retail Nyon Champ-Colin Centre VW et Skoda",
    "strasse": "Route de Champ-Colin 9",
    "plz": 1260,
    "ort": "Nyon",
    "marke": "VOLKSWAGEN",
    "lat": "46,3836539",
    "lng": "6,2166932"
  },
  {
    "name": "AMAG Automobil und Motoren AG Zweigniederlassung Retail Oftringen",
    "strasse": "Bernstrasse 23",
    "plz": 4665,
    "ort": "Oftringen",
    "marke": "AUDI",
    "lat": "47,3098145",
    "lng": "7,9125348"
  },
  {
    "name": "AMAG Automobili e Motori SA Succursale Retail di Pambio-Noranco",
    "strasse": "Via Pian Scairolo 36",
    "plz": 6915,
    "ort": "Pambio-Noranco",
    "marke": "CUPRA",
    "lat": "45,9818828",
    "lng": "8,929204643"
  },
  {
    "name": "AMAG Automobiles et Moteurs SA Succursale Retail Petit-Lancy",
    "strasse": "Chemin du Bac 21",
    "plz": 1213,
    "ort": "Petit-Lancy",
    "marke": "SEAT",
    "lat": "46,1958738",
    "lng": "6,1129194"
  },
  {
    "name": "AMAG Automobil und Motoren AG Zweigniederlassung Retail Pratteln",
    "strasse": "Muttenzerstrasse 143",
    "plz": 4133,
    "ort": "Pratteln",
    "marke": "SKODA",
    "lat": "47,5208124",
    "lng": "7,6742785"
  },
  {
    "name": "AMAG Automobil und Motoren AG Zweigniederlassung Retail PW Uster",
    "strasse": "Ackerstrasse 47",
    "plz": 8610,
    "ort": "Uster",
    "marke": "VOLKSWAGEN",
    "lat": "47,35661545",
    "lng": "8,706119064"
  },
  {
    "name": "AMAG Automobil und Motoren AG Zweigniederlassung Retail Rheinfelden",
    "strasse": "Zürcherstrasse 34",
    "plz": 4310,
    "ort": "Rheinfelden",
    "marke": "AUDI",
    "lat": "47,55154855",
    "lng": "7,803961785"
  },
  {
    "name": "AMAG Automobil und Motoren AG Zweigniederlassung Retail Schaffhausen",
    "strasse": "Spitalstrasse 27",
    "plz": 8201,
    "ort": "Schaffhausen",
    "marke": "VOLKSWAGEN",
    "lat": "47,69980625",
    "lng": "8,633044471"
  },
  {
    "name": "AMAG Automobil und Motoren AG Zweigniederlassung Retail Schinznach-Bad",
    "strasse": "Aarauerstrasse 22",
    "plz": 5116,
    "ort": "Schinznach Bad",
    "marke": "VOLKSWAGEN NF",
    "lat": "47,44352958",
    "lng": "8,168680202"
  },
  {
    "name": "AMAG Automobil und Motoren AG Zweigniederlassung Retail Solothurn/Zuchwil",
    "strasse": "Gewerbestrasse 11",
    "plz": 4528,
    "ort": "Zuchwil",
    "marke": "AUDI",
    "lat": "47,200787",
    "lng": "7,574528754"
  },
  {
    "name": "AMAG Automobiles et Moteurs SA Succursale Retail St. Légier",
    "strasse": "route Industrielle 9",
    "plz": 1806,
    "ort": "St-Légier-La Chiésaz",
    "marke": "SKODA",
    "lat": "46,47464425",
    "lng": "6,863861747"
  },
  {
    "name": "AMAG Automobil und Motoren AG Zweigniederlassung Retail Sursee",
    "strasse": "Neuweidstrasse 1",
    "plz": 6208,
    "ort": "Oberkirch LU",
    "marke": "VOLKSWAGEN",
    "lat": "47,1523882",
    "lng": "8,116179476"
  },
  {
    "name": "AMAG Automobil und Motoren AG Zweigniederlassung Retail Thun",
    "strasse": "Gwattstrasse 22-28",
    "plz": 3604,
    "ort": "Thun",
    "marke": "VOLKSWAGEN NF",
    "lat": "46,7343979",
    "lng": "7,62714617"
  },
  {
    "name": "AMAG Automobiles et Moteurs SA Succursale Retail Vernier Centre VW Véhicules Utilitaires",
    "strasse": "Route du Nant-d'Avril 34",
    "plz": 1214,
    "ort": "Vernier",
    "marke": "SEAT",
    "lat": "46,2201938",
    "lng": "6,0855256"
  },
  {
    "name": "AMAG Automobil und Motoren AG Zweigniederlassung Retail Vevey",
    "strasse": "avenue Général-Guisan 78",
    "plz": 1800,
    "ort": "Vevey",
    "marke": "SKODA",
    "lat": "46,46342629",
    "lng": "6,84111415"
  },
  {
    "name": "AMAG Automobil und Motoren AG Zweigniederlassung Retail Villeneuve",
    "strasse": "route du Simplon 17",
    "plz": 1845,
    "ort": "Noville",
    "marke": "CUPRA",
    "lat": "46,39102305",
    "lng": "6,922379106"
  },
  {
    "name": "AMAG Automobil und Motoren AG Zweigniederlassung Retail NF Winterthur",
    "strasse": "Zürcherstrasse 312",
    "plz": 8406,
    "ort": "Winterthur",
    "marke": "SEAT",
    "lat": "47,47754665",
    "lng": "8,703925923"
  },
  {
    "name": "AMAG Automobil und Motoren AG Zweigniederlassung Retail PW Winterthur",
    "strasse": "Zürcherstrasse 240",
    "plz": 8406,
    "ort": "Winterthur",
    "marke": "SKODA",
    "lat": "47,4860541",
    "lng": "8,701883468"
  },
  {
    "name": "AMAG Automobil und Motoren AG Zweigniederlassung Retail Wettswil",
    "strasse": "Moosstrasse 33a",
    "plz": 8907,
    "ort": "Wettswil",
    "marke": "AUDI",
    "lat": "47,33461825",
    "lng": "8,467478253"
  },
  {
    "name": "AMAG Automobil und Motoren AG Zweigniederlassung Retail Utoquai",
    "strasse": "Utoquai 47/49",
    "plz": 8008,
    "ort": "Zürich",
    "marke": "AUDI",
    "lat": "47,3623515",
    "lng": "8,5477223"
  },
  {
    "name": "AMAG Automobil und Motoren AG Zweigniederlassung Retail Zürich-Wollishofen",
    "strasse": "Kalchbühlstrasse 40-44",
    "plz": 8038,
    "ort": "Zürich",
    "marke": "CUPRA",
    "lat": "47,33531522",
    "lng": "8,534339943"
  },
  {
    "name": "AMAG Automobil und Motoren AG Zweigniederlassung Retail Zuchwil/Solothurn",
    "strasse": "Langfeldstrasse 30",
    "plz": 4528,
    "ort": "Zuchwil",
    "marke": "SEAT",
    "lat": "47,2024646",
    "lng": "7,571978475"
  },
  {
    "name": "AMAG Automobiles et Moteurs SA AMAG Retail La Tour-de-Trême",
    "strasse": "Route de Pra-Riond 5",
    "plz": 1635,
    "ort": "La Tour-de-Trême",
    "marke": "SKODA",
    "lat": "46,6016328",
    "lng": "7,0755693"
  },
  {
    "name": "AMAG Automobil- und Motoren AG",
    "strasse": "Oberfeldstrasse 6",
    "plz": 8570,
    "ort": "Weinfelden",
    "marke": "VOLKSWAGEN",
    "lat": "47,5607536",
    "lng": "9,131500097"
  },
  {
    "name": "AMAG Automobil und Motoren AG Wettingen",
    "strasse": "Landstrasse 51",
    "plz": 5430,
    "ort": "Wettingen",
    "marke": "VOLKSWAGEN NF",
    "lat": "47,46435685",
    "lng": "8,329770349"
  },
  {
    "name": "Andrea Bricalli SA",
    "strasse": "Via San Gottardo 31",
    "plz": 6877,
    "ort": "Coldrerio",
    "marke": "SKODA",
    "lat": "45,85361153",
    "lng": "8,996344041"
  },
  {
    "name": "Annerturgi Nutzfahrzeuge AG",
    "strasse": "Vogelsangstrasse 13a",
    "plz": 5412,
    "ort": "Gebenstorf",
    "marke": "VOLKSWAGEN",
    "lat": "47,4891503",
    "lng": "8,2413127"
  },
  {
    "name": "Garage Arena AG",
    "strasse": "Weingartenstrasse 70",
    "plz": 3904,
    "ort": "Naters",
    "marke": "VOLKSWAGEN NF",
    "lat": "46,32850285",
    "lng": "8,009402901"
  },
  {
    "name": "Arenaz Automobiles Crissier SA",
    "strasse": "Chemin de l'esparcette 6",
    "plz": 1023,
    "ort": "Crissier",
    "marke": "AUDI",
    "lat": "46,55253235",
    "lng": "6,572955608"
  },
  {
    "name": "Arenaz Automobiles et Service SA",
    "strasse": "Route de Bremblens 2",
    "plz": 1122,
    "ort": "Romanel-sur-Morges",
    "marke": "AUDI",
    "lat": "46,5511054",
    "lng": "6,511973559"
  },
  {
    "name": "ASS Auto-Sport-Service SA",
    "strasse": "Route des Acacias 39",
    "plz": 1227,
    "ort": "Les Acacias",
    "marke": "VOLKSWAGEN",
    "lat": "46,19080889",
    "lng": "6,134790555"
  },
  {
    "name": "Asticher SA Garage & Carrosserie",
    "strasse": "Rue du Jura-Industriel 32",
    "plz": 2304,
    "ort": "La Chaux-de-Fonds",
    "marke": "VOLKSWAGEN NF",
    "lat": "47,08534585",
    "lng": "6,800974452"
  },
  {
    "name": "Garage Atlantic Eyer Paul AG",
    "strasse": "Industriestrasse 32",
    "plz": 3900,
    "ort": "Gamsen",
    "marke": "SKODA",
    "lat": "46,30708794",
    "lng": "7,962717067"
  },
  {
    "name": "Atlas Automobiles SA",
    "strasse": "Avenue du Grand-St-Bernard 42",
    "plz": 1920,
    "ort": "Martigny",
    "marke": "VOLKSWAGEN",
    "lat": "46,0962759",
    "lng": "7,0679888"
  },
  {
    "name": "Atlas Automobiles Sierre SA",
    "strasse": "route du Simplon 75",
    "plz": 3960,
    "ort": "Sierre",
    "marke": "AUDI",
    "lat": "46,2985274",
    "lng": "7,5466482"
  },
  {
    "name": "Auto AG Truck Gossau",
    "strasse": "Lagerstrasse 4",
    "plz": 9200,
    "ort": "Gossau SG",
    "marke": "SEAT",
    "lat": "47,4113807",
    "lng": "9,275177907"
  },
  {
    "name": "Auto AG Truck Limmattal",
    "strasse": "Im Gewerbepark 1",
    "plz": 8104,
    "ort": "Weiningen ZH",
    "marke": "SKODA",
    "lat": "47,4171457",
    "lng": "8,4182211"
  },
  {
    "name": "Auto AG Truck Müllheim",
    "strasse": "Grüneck",
    "plz": 8555,
    "ort": "Müllheim Dorf",
    "marke": "VOLKSWAGEN",
    "lat": "47,5943176",
    "lng": "8,9938568"
  },
  {
    "name": "Auto AG Truck Oberland",
    "strasse": "Glütschbachstrasse 5",
    "plz": 3661,
    "ort": "Uetendorf",
    "marke": "VOLKSWAGEN NF",
    "lat": "46,77759235",
    "lng": "7,582211405"
  },
  {
    "name": "Auto AG Truck Rothenburg",
    "strasse": "Stationsstrasse 88",
    "plz": 6023,
    "ort": "Rothenburg",
    "marke": "AUDI",
    "lat": "47,09138995",
    "lng": "8,251067754"
  },
  {
    "name": "Auto AG Truck Schönbühl",
    "strasse": "Gewerbestrasse 12",
    "plz": 3322,
    "ort": "Urtenen-Schönbühl",
    "marke": "CUPRA",
    "lat": "47,01756005",
    "lng": "7,499094064"
  },
  {
    "name": "Auto AG Truck Staad",
    "strasse": "Hauptstrasse 104",
    "plz": 9422,
    "ort": "Staad SG",
    "marke": "SEAT",
    "lat": "47,4840182",
    "lng": "9,551733148"
  },
  {
    "name": "Auto Bolli AG, Benken ZH",
    "strasse": "Marthalerstrasse 9",
    "plz": 8463,
    "ort": "Benken ZH",
    "marke": "AUDI",
    "lat": "47,6510295",
    "lng": "8,652920873"
  },
  {
    "name": "Auto Center AG Worben",
    "strasse": "Hauptstrasse 64",
    "plz": 3252,
    "ort": "Worben",
    "marke": "SEAT",
    "lat": "47,0943323",
    "lng": "7,290261759"
  },
  {
    "name": "Auto-Center H.R. Flückiger AG",
    "strasse": "Langenthalstrasse 61",
    "plz": 4912,
    "ort": "Aarwangen",
    "marke": "SKODA",
    "lat": "47,2344018",
    "lng": "7,77483722"
  },
  {
    "name": "Auto-Center Küng AG",
    "strasse": "Landstrasse 73",
    "plz": 5412,
    "ort": "Gebenstorf",
    "marke": "VOLKSWAGEN",
    "lat": "47,4815048",
    "lng": "8,240272498"
  },
  {
    "name": "Auto Dünki AG",
    "strasse": "Weiachstrasse 2",
    "plz": 8413,
    "ort": "Neftenbach",
    "marke": "VOLKSWAGEN NF",
    "lat": "47,5189125",
    "lng": "8,655496953"
  },
  {
    "name": "Auto-Graf AG",
    "strasse": "Seestrasse 941",
    "plz": 8706,
    "ort": "Meilen",
    "marke": "SKODA",
    "lat": "47,26429965",
    "lng": "8,661594925"
  },
  {
    "name": "Auto Kämpf AG",
    "strasse": "Winterhaldenstrasse 5",
    "plz": 3627,
    "ort": "Heimberg",
    "marke": "AUDI",
    "lat": "46,79769005",
    "lng": "7,602549052"
  },
  {
    "name": "Auto Kurve AG",
    "strasse": "Hauptstrasse 7",
    "plz": 4416,
    "ort": "Bubendorf",
    "marke": "CUPRA",
    "lat": "47,4562793",
    "lng": "7,7410472"
  },
  {
    "name": "Auto-La Côte SA",
    "strasse": "Rue de l’Etraz 2",
    "plz": 1196,
    "ort": "Gland",
    "marke": "SEAT",
    "lat": "46,4222795",
    "lng": "6,260864209"
  },
  {
    "name": "Auto Lang AG",
    "strasse": "Langfeldstrasse 76",
    "plz": 8500,
    "ort": "Frauenfeld",
    "marke": "AUDI",
    "lat": "47,56651945",
    "lng": "8,908863601"
  },
  {
    "name": "Auto Lang AG",
    "strasse": "Sonnenwiesenstrasse 17",
    "plz": 8280,
    "ort": "Kreuzlingen",
    "marke": "SKODA",
    "lat": "47,6443316",
    "lng": "9,194361995"
  },
  {
    "name": "Auto Lüthi GmbH",
    "strasse": "Hauptstrasse 74",
    "plz": 8572,
    "ort": "Berg TG",
    "marke": "VOLKSWAGEN",
    "lat": "47,58408585",
    "lng": "9,169192205"
  },
  {
    "name": "Auto Margarethen AG",
    "strasse": "Margarethenstrasse 79",
    "plz": 4053,
    "ort": "Basel",
    "marke": "VOLKSWAGEN NF",
    "lat": "47,5450183",
    "lng": "7,5827339"
  },
  {
    "name": "Auto Mathis AG",
    "strasse": "Via Somplaz 33",
    "plz": 7500,
    "ort": "St. Moritz",
    "marke": "VOLKSWAGEN",
    "lat": "46,49644451",
    "lng": "9,836582225"
  },
  {
    "name": "Auto-Mathis AG",
    "strasse": "Cho d'Punt 33",
    "plz": 7503,
    "ort": "Samedan",
    "marke": "VOLKSWAGEN NF",
    "lat": "46,5299559",
    "lng": "9,8753271"
  },
  {
    "name": "Auto Moto Marine Brienz AG",
    "strasse": "Lauimattenweg 11",
    "plz": 3855,
    "ort": "Brienz BE",
    "marke": "SKODA",
    "lat": "46,7439625",
    "lng": "8,056634"
  },
  {
    "name": "Auto Neubrück AG",
    "strasse": "Talstrasse 18",
    "plz": 3922,
    "ort": "Stalden VS",
    "marke": "AUDI",
    "lat": "46,2274019",
    "lng": "7,871675535"
  },
  {
    "name": "Auto Nüssle AG",
    "strasse": "Industriestrasse 11",
    "plz": 7220,
    "ort": "Schiers",
    "marke": "SEAT",
    "lat": "46,9667328",
    "lng": "9,690793789"
  },
  {
    "name": "Auto-Rives, succursale de Groupe Leuba SA",
    "strasse": "Rue de Lausanne 45",
    "plz": 1110,
    "ort": "Morges",
    "marke": "SKODA",
    "lat": "46,5158866",
    "lng": "6,5046429"
  },
  {
    "name": "Auto Rüger AG Grosshöchstetten",
    "strasse": "Thunstrasse 6",
    "plz": 3506,
    "ort": "Grosshöchstetten",
    "marke": "VOLKSWAGEN",
    "lat": "46,9004119",
    "lng": "7,633050385"
  },
  {
    "name": "Auto Rüger AG",
    "strasse": "Hauptstrasse 7",
    "plz": 3860,
    "ort": "Meiringen",
    "marke": "VOLKSWAGEN NF",
    "lat": "46,72817475",
    "lng": "8,183144979"
  },
  {
    "name": "Auto Rüger AG Langnau",
    "strasse": "Schärischachen 808",
    "plz": 3550,
    "ort": "Langnau im Emmental",
    "marke": "AUDI",
    "lat": "46,9241349",
    "lng": "7,820984625"
  },
  {
    "name": "Auto Rüger AG Wilderswil",
    "strasse": "Industriestrasse 12",
    "plz": 3812,
    "ort": "Wilderswil",
    "marke": "AUDI",
    "lat": "46,67166265",
    "lng": "7,877599605"
  },
  {
    "name": "Auto SA Truck Ticino",
    "strasse": "via San Mamete 98",
    "plz": 6805,
    "ort": "Mezzovico",
    "marke": "SKODA",
    "lat": "46,09238475",
    "lng": "8,9217374"
  },
  {
    "name": "Auto Sauter AG",
    "strasse": "Landstrasse 6",
    "plz": 8754,
    "ort": "Netstal",
    "marke": "VOLKSWAGEN",
    "lat": "47,06598055",
    "lng": "9,057388447"
  },
  {
    "name": "Auto Suter AG",
    "strasse": "Chamerstrasse 50",
    "plz": 6331,
    "ort": "Hünenberg",
    "marke": "VOLKSWAGEN NF",
    "lat": "47,18045244",
    "lng": "8,437909746"
  },
  {
    "name": "Auto Suter AG Filiale Sins",
    "strasse": "Luzernerstrasse 27",
    "plz": 5643,
    "ort": "Sins",
    "marke": "AUDI",
    "lat": "47,1883609",
    "lng": "8,3963494"
  },
  {
    "name": "Auto Suter Küssnacht GmbH",
    "strasse": "Bodenweid 2",
    "plz": 6403,
    "ort": "Küssnacht am Rigi",
    "marke": "SEAT",
    "lat": "47,08704145",
    "lng": "8,440130723"
  },
  {
    "name": "Auto Walser AG",
    "strasse": "Bahnhofstrasse 56",
    "plz": 7323,
    "ort": "Wangs",
    "marke": "SKODA",
    "lat": "47,03876695",
    "lng": "9,43674576"
  },
  {
    "name": "Auto Werthmüller AG",
    "strasse": "Tempelstrasse 8A",
    "plz": 3608,
    "ort": "Thun",
    "marke": "VOLKSWAGEN",
    "lat": "46,74540372",
    "lng": "7,597197499"
  },
  {
    "name": "Auto Wild AG",
    "strasse": "Untermüli 6",
    "plz": 6300,
    "ort": "Zug",
    "marke": "VOLKSWAGEN NF",
    "lat": "47,1805506",
    "lng": "8,5181305"
  },
  {
    "name": "Auto Wydematt AG",
    "strasse": "Laufenstrasse 6",
    "plz": 4226,
    "ort": "Breitenbach",
    "marke": "AUDI",
    "lat": "47,40784425",
    "lng": "7,542414237"
  },
  {
    "name": "Auto Zentrum West AG",
    "strasse": "Piccardstrasse 1",
    "plz": 9015,
    "ort": "St. Gallen",
    "marke": "SKODA",
    "lat": "47,4091981",
    "lng": "9,312851243"
  },
  {
    "name": "Auto Zollikofer AG",
    "strasse": "Sonnmattstrasse 10",
    "plz": 9532,
    "ort": "Rickenbach b. Wil",
    "marke": "SEAT",
    "lat": "47,4532731",
    "lng": "9,045396304"
  },
  {
    "name": "AUTOBRITT AUTOMOBILE SA",
    "strasse": "Rue Viguet 1",
    "plz": 1227,
    "ort": "Les Acacias",
    "marke": "AUDI",
    "lat": "46,1921368",
    "lng": "6,1293435"
  },
  {
    "name": "Autocenter Aebi AG",
    "strasse": "Bernstrasse",
    "plz": 3250,
    "ort": "Lyss",
    "marke": "VOLKSWAGEN",
    "lat": "47,07011808",
    "lng": "7,310644635"
  },
  {
    "name": "Autocenter Bülach-Süd AG",
    "strasse": "Länggenstrasse 36",
    "plz": 8184,
    "ort": "Bachenbülach",
    "marke": "VOLKSWAGEN NF",
    "lat": "47,5023178",
    "lng": "8,538109498"
  },
  {
    "name": "AutoCenter Effretikon Inglin & Roci AG",
    "strasse": "Industriestrasse 2",
    "plz": 8307,
    "ort": "Effretikon",
    "marke": "AUDI",
    "lat": "47,41846005",
    "lng": "8,684516516"
  },
  {
    "name": "Autocenter Meier AG",
    "strasse": "Hauptstrasse 158",
    "plz": 5742,
    "ort": "Kölliken",
    "marke": "VOLKSWAGEN",
    "lat": "47,3280213",
    "lng": "8,021301432"
  },
  {
    "name": "Autocenter Säntis AG",
    "strasse": "Bildstrasse 3",
    "plz": 9030,
    "ort": "Abtwil SG",
    "marke": "SKODA",
    "lat": "47,4171367",
    "lng": "9,3123782"
  },
  {
    "name": "Autocenter Zimmerli GmbH",
    "strasse": "Bruggerstrasse 47",
    "plz": 5102,
    "ort": "Rupperswil",
    "marke": "VOLKSWAGEN",
    "lat": "47,40757605",
    "lng": "8,137019504"
  },
  {
    "name": "Autocorner Valais SA",
    "strasse": "Rue Traversière 10",
    "plz": 1950,
    "ort": "Sion",
    "marke": "VOLKSWAGEN NF",
    "lat": "46,2184068",
    "lng": "7,3500338"
  },
  {
    "name": "Autofrank AG",
    "strasse": "Trockenloostrasse 65",
    "plz": 8105,
    "ort": "Regensdorf",
    "marke": "SKODA",
    "lat": "47,44084135",
    "lng": "8,472187133"
  },
  {
    "name": "Autohaus Imholz AG Ebikon",
    "strasse": "Luzernerstrasse 49",
    "plz": 6030,
    "ort": "Ebikon",
    "marke": "VOLKSWAGEN",
    "lat": "47,0719577",
    "lng": "8,324985487"
  },
  {
    "name": "Autohaus Schneider AG",
    "strasse": "Zeughausstrasse 74",
    "plz": 8400,
    "ort": "Winterthur",
    "marke": "VOLKSWAGEN NF",
    "lat": "47,4966682",
    "lng": "8,7317987"
  },
  {
    "name": "Autohaus Thun-Nord AG Steffisburg",
    "strasse": "Bernstrasse 119",
    "plz": 3613,
    "ort": "Steffisburg",
    "marke": "CUPRA",
    "lat": "46,77599145",
    "lng": "7,614671479"
  },
  {
    "name": "Autohaus von Känel AG",
    "strasse": "Spiezstrasse 22",
    "plz": 3714,
    "ort": "Frutigen",
    "marke": "SEAT",
    "lat": "46,59504895",
    "lng": "7,652089008"
  },
  {
    "name": "Autohaus Wederich, Donà AG",
    "strasse": "Grienweg 7",
    "plz": 4222,
    "ort": "Zwingen",
    "marke": "SKODA",
    "lat": "47,4392211",
    "lng": "7,53759005"
  },
  {
    "name": "Autohaus Willi AG",
    "strasse": "Kasernenstrasse 30",
    "plz": 7000,
    "ort": "Chur",
    "marke": "VOLKSWAGEN",
    "lat": "46,84769485",
    "lng": "9,524203273"
  },
  {
    "name": "Automaxx AG",
    "strasse": "Mühlenstrasse 96",
    "plz": 8207,
    "ort": "Schaffhausen",
    "marke": "VOLKSWAGEN NF",
    "lat": "47,6928425",
    "lng": "8,6232822"
  },
  {
    "name": "Automobile Franzen AG",
    "strasse": "Kantonsstrasse 75",
    "plz": 3930,
    "ort": "Visp",
    "marke": "AUDI",
    "lat": "46,2939665",
    "lng": "7,9020885"
  },
  {
    "name": "Automobiles Senn SA",
    "strasse": "Le Bey",
    "plz": 1442,
    "ort": "Montagny-Yverdon",
    "marke": "VOLKSWAGEN",
    "lat": "46,79097285",
    "lng": "6,62558935"
  },
  {
    "name": "Automobiles Zimmermann SA",
    "strasse": "Route de Chésalles 56",
    "plz": 1723,
    "ort": "Marly",
    "marke": "VOLKSWAGEN NF",
    "lat": "46,77318653",
    "lng": "7,15381289"
  },
  {
    "name": "AutoNova Payerne SA",
    "strasse": "Route de la Grosse Pierre 24",
    "plz": 1530,
    "ort": "Payerne",
    "marke": "AUDI",
    "lat": "46,82613675",
    "lng": "6,945729791"
  },
  {
    "name": "Autorama, Fritz Schläpfer AG",
    "strasse": "Langäulistrasse 70",
    "plz": 9470,
    "ort": "Buchs SG",
    "marke": "VOLKSWAGEN",
    "lat": "47,17442955",
    "lng": "9,466837427"
  },
  {
    "name": "Autorep AG",
    "strasse": "Kantonsstrasse 111",
    "plz": 6234,
    "ort": "Triengen",
    "marke": "VOLKSWAGEN NF",
    "lat": "47,2458127",
    "lng": "8,06968535"
  },
  {
    "name": "Autorimessa Nepple SA Bellinzona",
    "strasse": "viale Stefano Franscini 30",
    "plz": 6500,
    "ort": "Bellinzona",
    "marke": "AUDI",
    "lat": "46,193247",
    "lng": "9,0120996"
  },
  {
    "name": "Autors SA Ford",
    "strasse": "Via Monte Ceneri 20a",
    "plz": 6512,
    "ort": "Giubiasco",
    "marke": "AUDI",
    "lat": "46,17183515",
    "lng": "9,009721333"
  },
  {
    "name": "AUTORS SA Renault",
    "strasse": "via Monte Ceneri 20",
    "plz": 6512,
    "ort": "Giubiasco",
    "marke": "SKODA",
    "lat": "46,17183515",
    "lng": "9,009721333"
  },
  {
    "name": "AUTORS SA",
    "strasse": "via Industria 21",
    "plz": 6934,
    "ort": "Bioggio",
    "marke": "VOLKSWAGEN",
    "lat": "46,0179134",
    "lng": "8,91787745"
  },
  {
    "name": "Autos Carouge, André Chevalley SA",
    "strasse": "route de Saint-Julien 46",
    "plz": 1227,
    "ort": "Carouge",
    "marke": "VOLKSWAGEN NF",
    "lat": "46,1762991",
    "lng": "6,1322565"
  },
  {
    "name": "Autos Carrefour Dorigny, succursale de Groupe Leuba SA",
    "strasse": "Route Cantonale 1",
    "plz": 1022,
    "ort": "Chavannes-Renens",
    "marke": "SKODA",
    "lat": "46,5212537",
    "lng": "6,586269373"
  },
  {
    "name": "Autoverkehr AG Langenthal",
    "strasse": "Gaswerkstrasse 41",
    "plz": 4900,
    "ort": "Langenthal",
    "marke": "VOLKSWAGEN",
    "lat": "47,228383",
    "lng": "7,787272959"
  },
  {
    "name": "Autoverkehr AG Zuchwil",
    "strasse": "Gewerbestrasse 1",
    "plz": 4528,
    "ort": "Zuchwil",
    "marke": "VOLKSWAGEN NF",
    "lat": "47,201537",
    "lng": "7,5722696"
  },
  {
    "name": "Autoverkehr Region Bern AG",
    "strasse": "Hubelgutstrasse 2",
    "plz": 3048,
    "ort": "Worblaufen",
    "marke": "AUDI",
    "lat": "46,98072155",
    "lng": "7,455792991"
  },
  {
    "name": "Autoviva AG",
    "strasse": "Kreuzlingerstrasse 30",
    "plz": 8580,
    "ort": "Amriswil",
    "marke": "VOLKSWAGEN",
    "lat": "47,54738815",
    "lng": "9,279887522"
  },
  {
    "name": "Autoweibel AG",
    "strasse": "Murtenstrasse 4",
    "plz": 3270,
    "ort": "Aarberg",
    "marke": "VOLKSWAGEN NF",
    "lat": "47,0438206",
    "lng": "7,27339084"
  },
  {
    "name": "Baldegger Automobile AG",
    "strasse": "Erlachstrasse 3",
    "plz": 9014,
    "ort": "St. Gallen",
    "marke": "VOLKSWAGEN NF",
    "lat": "47,4108013",
    "lng": "9,3366448"
  },
  {
    "name": "Baldegger Automobile AG ZN Oberuzwil",
    "strasse": "Flawilerstrasse 36",
    "plz": 9242,
    "ort": "Oberuzwil",
    "marke": "VOLKSWAGEN",
    "lat": "47,4278255",
    "lng": "9,1286567"
  },
  {
    "name": "Baldegger Automobile AG ZN WIl",
    "strasse": "Flawilerstrasse 31",
    "plz": 9500,
    "ort": "Wil SG",
    "marke": "VOLKSWAGEN NF",
    "lat": "47,4505472",
    "lng": "9,055156394"
  },
  {
    "name": "Gerald Barcal Automobile AG",
    "strasse": "Farbhofstrasse 21",
    "plz": 8048,
    "ort": "Zürich",
    "marke": "VOLKSWAGEN NF",
    "lat": "47,3912337",
    "lng": "8,476914665"
  },
  {
    "name": "Bärfuss AG",
    "strasse": "Gwattstrasse 54",
    "plz": 3604,
    "ort": "Thun",
    "marke": "VOLKSWAGEN NF",
    "lat": "46,73466265",
    "lng": "7,626912721"
  },
  {
    "name": "Centralgarage Barth AG",
    "strasse": "Freiburgstrasse 396",
    "plz": 3018,
    "ort": "Bern",
    "marke": "SKODA",
    "lat": "46,9346947",
    "lng": "7,391514165"
  },
  {
    "name": "Emil Baschnagel AG",
    "strasse": "Kestenbergstrasse 32",
    "plz": 5210,
    "ort": "Windisch",
    "marke": "VOLKSWAGEN",
    "lat": "47,4699852",
    "lng": "8,21069724"
  },
  {
    "name": "Garage Battaglia SA",
    "strasse": "Spinadascio 698A",
    "plz": 7746,
    "ort": "Le Prese",
    "marke": "AUDI",
    "lat": "46,297386",
    "lng": "10,0740742"
  },
  {
    "name": "Moto Bättig AG",
    "strasse": "Hauptstrasse 16",
    "plz": 5737,
    "ort": "Menziken",
    "marke": "VOLKSWAGEN",
    "lat": "47,24447625",
    "lng": "8,186035201"
  },
  {
    "name": "Garage Bel-Air SA",
    "strasse": "Avenue des Sports 13",
    "plz": 1400,
    "ort": "Yverdon-les-Bains",
    "marke": "VOLKSWAGEN NF",
    "lat": "46,7805729",
    "lng": "6,653356497"
  },
  {
    "name": "Belwag Belp",
    "strasse": "Viehweidstrasse 12",
    "plz": 3123,
    "ort": "Belp",
    "marke": "SKODA",
    "lat": "46,89122115",
    "lng": "7,509538485"
  },
  {
    "name": "BELWAG AG Bern",
    "strasse": "Schermenweg 5",
    "plz": 3014,
    "ort": "Bern",
    "marke": "SKODA",
    "lat": "46,9649315",
    "lng": "7,4692992"
  },
  {
    "name": "Garage Berset Sàrl",
    "strasse": "Route de la Gruyère 4",
    "plz": 1723,
    "ort": "Marly",
    "marke": "VOLKSWAGEN",
    "lat": "46,76997643",
    "lng": "7,160389641"
  },
  {
    "name": "Bertoni Automobili SA",
    "strasse": "via Delta 11",
    "plz": 6612,
    "ort": "Ascona",
    "marke": "AUDI",
    "lat": "46,16494955",
    "lng": "8,777007124"
  },
  {
    "name": "Bertschy Automobiles SA",
    "strasse": "Route du Madelain 1",
    "plz": 1753,
    "ort": "Matran",
    "marke": "CUPRA",
    "lat": "46,7814874",
    "lng": "7,087832525"
  },
  {
    "name": "Auto Bettschen AG",
    "strasse": "Bernstrasse 40",
    "plz": 3612,
    "ort": "Steffisburg",
    "marke": "SEAT",
    "lat": "46,7655789",
    "lng": "7,625840857"
  },
  {
    "name": "Auto Bettschen AG",
    "strasse": "Bernstrasse 210",
    "plz": 3613,
    "ort": "Steffisburg",
    "marke": "SKODA",
    "lat": "46,7808289",
    "lng": "7,611327561"
  },
  {
    "name": "Garage Daniel Bieli",
    "strasse": "Brislachstrasse 3",
    "plz": 4226,
    "ort": "Breitenbach",
    "marke": "SKODA",
    "lat": "47,40952645",
    "lng": "7,543799386"
  },
  {
    "name": "Garage Bifang Trachsel AG",
    "strasse": "Bifang 5",
    "plz": 1716,
    "ort": "Plaffeien",
    "marke": "VOLKSWAGEN",
    "lat": "46,74794855",
    "lng": "7,288686867"
  },
  {
    "name": "Bike-Atelier GmbH",
    "strasse": "Brünigstrasse 34",
    "plz": 6074,
    "ort": "Giswil",
    "marke": "AUDI",
    "lat": "46,83817855",
    "lng": "8,186943822"
  },
  {
    "name": "Binelli Automobile AG Filiale Baar",
    "strasse": "Neuhofstrasse 1",
    "plz": 6341,
    "ort": "Baar",
    "marke": "VOLKSWAGEN",
    "lat": "47,1918324",
    "lng": "8,5131378"
  },
  {
    "name": "Binelli Automobile AG Filiale Sihlbrugg",
    "strasse": "Sihlbruggstrasse 138",
    "plz": 6340,
    "ort": "Baar",
    "marke": "VOLKSWAGEN NF",
    "lat": "47,215162",
    "lng": "8,570313"
  },
  {
    "name": "Binelli Automobile AG Filiale Zürich",
    "strasse": "Badenerstrasse 527",
    "plz": 8048,
    "ort": "Zürich",
    "marke": "AUDI",
    "lat": "47,3815879",
    "lng": "8,500982942"
  },
  {
    "name": "A. & M. Bizzozero",
    "strasse": "Länggassstrasse 103",
    "plz": 3000,
    "ort": "Bern",
    "marke": "SKODA",
    "lat": "46,9563944",
    "lng": "7,4243029"
  },
  {
    "name": "Garage Bolero Bumann Gert",
    "strasse": "Grosses Moos 8",
    "plz": 3906,
    "ort": "Saas-Fee",
    "marke": "VOLKSWAGEN",
    "lat": "46,1125832",
    "lng": "7,931958811"
  },
  {
    "name": "Garage-Carrosserie Maurice Bonny SA",
    "strasse": "Rue du Collège 22",
    "plz": 2300,
    "ort": "La Chaux-de-Fonds",
    "marke": "VOLKSWAGEN NF",
    "lat": "47,1057917",
    "lng": "6,834230891"
  },
  {
    "name": "Boost Garage GmbH",
    "strasse": "Thurgauerstr 27",
    "plz": 9400,
    "ort": "Rorschach",
    "marke": "AUDI",
    "lat": "47,4794746",
    "lng": "9,486444831"
  },
  {
    "name": "Bossard & Humm GmbH",
    "strasse": "Untere Brühlstrasse 48",
    "plz": 4800,
    "ort": "Zofingen",
    "marke": "SKODA",
    "lat": "47,29639725",
    "lng": "7,931901048"
  },
  {
    "name": "Garage Bosshardt AG",
    "strasse": "Schwerzenbachstrasse 41",
    "plz": 8117,
    "ort": "Fällanden",
    "marke": "VOLKSWAGEN",
    "lat": "47,3752232",
    "lng": "8,642788023"
  },
  {
    "name": "Garage Bouby-Rolls SA",
    "strasse": "quai de la Thièle 30",
    "plz": 1400,
    "ort": "Yverdon-les-Bains",
    "marke": "SKODA",
    "lat": "46,78147108",
    "lng": "6,637167129"
  },
  {
    "name": "Garage Bove SA",
    "strasse": "Avenue Adrien-Lachenal 23a",
    "plz": 1290,
    "ort": "Versoix",
    "marke": "VOLKSWAGEN",
    "lat": "46,2822133",
    "lng": "6,163676929"
  },
  {
    "name": "Bowman Automobile AG",
    "strasse": "Ausserdorfstrasse 19",
    "plz": 5107,
    "ort": "Schinznach Dorf",
    "marke": "VOLKSWAGEN NF",
    "lat": "47,4485975",
    "lng": "8,1437519"
  },
  {
    "name": "Bräm AG",
    "strasse": "Rietlistrasse 1",
    "plz": 9403,
    "ort": "Goldach",
    "marke": "AUDI",
    "lat": "47,48319115",
    "lng": "9,475147828"
  },
  {
    "name": "Auto Brander AG",
    "strasse": "Schwerzistrasse 8",
    "plz": 8807,
    "ort": "Freienbach",
    "marke": "CUPRA",
    "lat": "47,20065515",
    "lng": "8,752339166"
  },
  {
    "name": "Garage Breitschmid AG",
    "strasse": "Aargauerstrasse 16",
    "plz": 5610,
    "ort": "Wohlen AG",
    "marke": "SEAT",
    "lat": "47,345284",
    "lng": "8,274554"
  },
  {
    "name": "Garage Brender SA",
    "strasse": "route Aloys-Fauquez 128",
    "plz": 1018,
    "ort": "Lausanne",
    "marke": "AUDI",
    "lat": "46,54166835",
    "lng": "6,633464529"
  },
  {
    "name": "Bruttin Frères SA",
    "strasse": "Route de Sion 79",
    "plz": 3960,
    "ort": "Sierre",
    "marke": "SKODA",
    "lat": "46,2848926",
    "lng": "7,5168942"
  },
  {
    "name": "Buchard Atelier-Carrosserie Bus&Cars SA",
    "strasse": "Route de Saillon 69",
    "plz": 1912,
    "ort": "Leytron",
    "marke": "VOLKSWAGEN",
    "lat": "46,1809327",
    "lng": "7,2020806"
  },
  {
    "name": "R. Bühler AG",
    "strasse": "Austrasse 8",
    "plz": 3176,
    "ort": "Neuenegg",
    "marke": "VOLKSWAGEN NF",
    "lat": "46,89442965",
    "lng": "7,305289713"
  },
  {
    "name": "Busbetrieb Solothurn und Umgebung AG",
    "strasse": "Waldeggstrasse 35",
    "plz": 4528,
    "ort": "Zuchwil",
    "marke": "AUDI",
    "lat": "47,19858265",
    "lng": "7,575984527"
  },
  {
    "name": "Garage Ernst Buser AG Ormalingen",
    "strasse": "Hauptstrasse 175",
    "plz": 4466,
    "ort": "Ormalingen",
    "marke": "SEAT",
    "lat": "47,470104",
    "lng": "7,8688478"
  },
  {
    "name": "Garage Caflisch AG",
    "strasse": "Via Principala 5-7",
    "plz": 7151,
    "ort": "Schluein",
    "marke": "SKODA",
    "lat": "46,77953705",
    "lng": "9,218182354"
  },
  {
    "name": "Camionrep. AG Studen",
    "strasse": "Sägeweg 8",
    "plz": 2557,
    "ort": "Studen BE",
    "marke": "VOLKSWAGEN",
    "lat": "47,1102736",
    "lng": "7,310275373"
  },
  {
    "name": "Garage du Carrefour Joël Regamey",
    "strasse": "Chemin des Cases 2 bis",
    "plz": 1072,
    "ort": "Forel (Lavaux)",
    "marke": "VOLKSWAGEN NF",
    "lat": "46,5297664",
    "lng": "6,76847389"
  },
  {
    "name": "Cassi et Imhof SA",
    "strasse": "Boulevard des Eplatures 1-3",
    "plz": 2304,
    "ort": "La Chaux-de-Fonds",
    "marke": "AUDI",
    "lat": "47,0881082",
    "lng": "6,804811056"
  },
  {
    "name": "CC-Nova AG",
    "strasse": "Churerstrasse 5",
    "plz": 7013,
    "ort": "Domat/Ems",
    "marke": "VOLKSWAGEN NF",
    "lat": "46,83737525",
    "lng": "9,461503772"
  },
  {
    "name": "CDS Automobiles SA",
    "strasse": "rue Edouard-Dubied 12",
    "plz": 2108,
    "ort": "Couvet",
    "marke": "VOLKSWAGEN",
    "lat": "46,9291509",
    "lng": "6,636957"
  },
  {
    "name": "Garage Carrosserie Centra AG",
    "strasse": "Alte Landstrasse 1",
    "plz": 3900,
    "ort": "Gamsen",
    "marke": "SKODA",
    "lat": "46,3051497",
    "lng": "7,952614356"
  },
  {
    "name": "Centra-Garage AG",
    "strasse": "Leimgrubenweg 14",
    "plz": 4053,
    "ort": "Basel",
    "marke": "VOLKSWAGEN NF",
    "lat": "47,53687",
    "lng": "7,6063373"
  },
  {
    "name": "Central-Garage Denoth AG",
    "strasse": "Stradun 270",
    "plz": 7550,
    "ort": "Scuol",
    "marke": "VOLKSWAGEN",
    "lat": "46,7987407",
    "lng": "10,304334"
  },
  {
    "name": "Central-Garage H.Böckmann AG",
    "strasse": "Benknerstrasse 20",
    "plz": 8730,
    "ort": "Uznach",
    "marke": "VOLKSWAGEN NF",
    "lat": "47,2194596",
    "lng": "8,986651011"
  },
  {
    "name": "Garage Central Hulmann David",
    "strasse": "rue Gustave-Amweg 9 a",
    "plz": 2900,
    "ort": "Porrentruy",
    "marke": "AUDI",
    "lat": "47,41751016",
    "lng": "7,076258489"
  },
  {
    "name": "Centralgarage AG Steffisburg",
    "strasse": "Bernstrasse 47",
    "plz": 3613,
    "ort": "Steffisburg",
    "marke": "SKODA",
    "lat": "46,7664577",
    "lng": "7,623487898"
  },
  {
    "name": "Garage Challandes SA",
    "strasse": "Grand-Rue 22",
    "plz": 2046,
    "ort": "Fontaines NE",
    "marke": "SKODA",
    "lat": "47,0459465",
    "lng": "6,9001519"
  },
  {
    "name": "Garage Chatelanat SA",
    "strasse": "rue Eugène Marziano 18",
    "plz": 1227,
    "ort": "Les Acacias",
    "marke": "VOLKSWAGEN",
    "lat": "46,19374115",
    "lng": "6,129486469"
  },
  {
    "name": "Chräbel Garage André Kunz",
    "strasse": "Sonneggstrasse 28",
    "plz": 6410,
    "ort": "Goldau",
    "marke": "VOLKSWAGEN NF",
    "lat": "47,0454661",
    "lng": "8,548289958"
  },
  {
    "name": "Christen Automobile AG",
    "strasse": "Umfahrungsstrasse 25",
    "plz": 6467,
    "ort": "Schattdorf",
    "marke": "AUDI",
    "lat": "46,85863285",
    "lng": "8,639055985"
  },
  {
    "name": "Citag AG",
    "strasse": "Bildstrasse 3",
    "plz": 9030,
    "ort": "Abtwil SG",
    "marke": "SKODA",
    "lat": "47,4171367",
    "lng": "9,3123782"
  },
  {
    "name": "City-Garage AG Betrieb Goldach",
    "strasse": "St. Gallerstrasse 76",
    "plz": 9403,
    "ort": "Goldach",
    "marke": "AUDI",
    "lat": "47,47881145",
    "lng": "9,468824328"
  },
  {
    "name": "City-Garage AG",
    "strasse": "Zürcher Strasse 511",
    "plz": 9015,
    "ort": "St. Gallen",
    "marke": "CUPRA",
    "lat": "47,4073161",
    "lng": "9,30897195"
  },
  {
    "name": "Clinic Cars Yverdon Sàrl",
    "strasse": "Av. de Grandson 64",
    "plz": 1400,
    "ort": "Yverdon-les-Bains",
    "marke": "SEAT",
    "lat": "46,7896553",
    "lng": "6,630069395"
  },
  {
    "name": "Garage Corbassières Sàrl",
    "strasse": "Rue de Savoie 31",
    "plz": 1950,
    "ort": "Sion",
    "marke": "CUPRA",
    "lat": "46,2253823",
    "lng": "7,3322656"
  },
  {
    "name": "Garage Corpataux AG",
    "strasse": "Thunstrasse 35",
    "plz": 3150,
    "ort": "Schwarzenburg",
    "marke": "SEAT",
    "lat": "46,81900935",
    "lng": "7,349314278"
  },
  {
    "name": "crazy riders Interlaken GmbH",
    "strasse": "Kammistrasse 11",
    "plz": 3800,
    "ort": "Interlaken",
    "marke": "SKODA",
    "lat": "46,6915383",
    "lng": "7,8753597"
  },
  {
    "name": "Garage Cuenot Sàrl",
    "strasse": "rue du Marais 3",
    "plz": 2400,
    "ort": "Le Locle",
    "marke": "SKODA",
    "lat": "47,0613699",
    "lng": "6,755389428"
  },
  {
    "name": "Cycles et Motos Refouss Sàrl",
    "strasse": "Rue Achille-Merguin 12",
    "plz": 2900,
    "ort": "Porrentruy",
    "marke": "VOLKSWAGEN",
    "lat": "47,41543055",
    "lng": "7,072038323"
  },
  {
    "name": "Garage d'Hermance SA Michel Piuz",
    "strasse": "route d'Hermance 564",
    "plz": 1248,
    "ort": "Hermance",
    "marke": "VOLKSWAGEN",
    "lat": "46,3023697",
    "lng": "6,246281293"
  },
  {
    "name": "De Blasio SA",
    "strasse": "route de Berne 2",
    "plz": 1524,
    "ort": "Marnand",
    "marke": "VOLKSWAGEN NF",
    "lat": "46,75742335",
    "lng": "6,89969155"
  },
  {
    "name": "Inter Promotion SA Garage Champsec",
    "strasse": "avenue du Grand-Champsec 51",
    "plz": 1950,
    "ort": "Sion",
    "marke": "CITROEN",
    "lat": "46,2331624",
    "lng": "7,3826504"
  },
  {
    "name": "Garage de L`Etoile, Rox`Otz SA",
    "strasse": "rue Fritz-Courvoisier 54",
    "plz": 2300,
    "ort": "La Chaux-de-Fonds",
    "marke": "DACIA",
    "lat": "47,10642385",
    "lng": "6,838471356"
  },
  {
    "name": "Garage de la Cour SA",
    "strasse": "Rue des Uttins 43",
    "plz": 2034,
    "ort": "Peseux",
    "marke": "ISUZU",
    "lat": "46,98857098",
    "lng": "6,892389686"
  },
  {
    "name": "Garage de la Marbrerie André Chevalley SA",
    "strasse": "Chemin de la Marbrerie 1",
    "plz": 1227,
    "ort": "Carouge",
    "marke": "RENAULT",
    "lat": "46,1802652",
    "lng": "6,1346887"
  },
  {
    "name": "Garage de Monthey SA",
    "strasse": "route de Collombey 55",
    "plz": 1870,
    "ort": "Monthey",
    "marke": "FIAT PROFESSIONAL",
    "lat": "46,26194755",
    "lng": "6,945500392"
  },
  {
    "name": "Garage de Nyon A&S Chevalley SA",
    "strasse": "route de Saint-Cergue 293",
    "plz": 1260,
    "ort": "Nyon",
    "marke": "IVECO",
    "lat": "46,4008832",
    "lng": "6,218557414"
  },
  {
    "name": "Garage de Palud Jean-Marc Kolly",
    "strasse": "Rte de Morlon 47",
    "plz": 1630,
    "ort": "Bulle",
    "marke": "CITROEN",
    "lat": "46,62267805",
    "lng": "7,0679631"
  },
  {
    "name": "Garage dell'Aria GmbH",
    "strasse": "Tannenstrasse 112",
    "plz": 8424,
    "ort": "Embrach",
    "marke": "DS",
    "lat": "47,51058255",
    "lng": "8,589398466"
  },
  {
    "name": "Garage des Parcs S.à.r.l.",
    "strasse": "Rue de la Rosière 2",
    "plz": 2000,
    "ort": "Neuchâtel",
    "marke": "PEUGEOT",
    "lat": "46,9917944",
    "lng": "6,917286237"
  },
  {
    "name": "Garage des Sports SA",
    "strasse": "Avenue du Simplon 34",
    "plz": 1870,
    "ort": "Monthey",
    "marke": "CITROEN",
    "lat": "46,2481067",
    "lng": "6,9559891"
  },
  {
    "name": "Garage Carrosserie des Trois Chênes S.A",
    "strasse": "Route d'Yverdon 19",
    "plz": 1040,
    "ort": "Echallens",
    "marke": "DS",
    "lat": "46,6456099",
    "lng": "6,636982748"
  },
  {
    "name": "Destimoto De Simone + Stierli",
    "strasse": "Loretostrasse 18",
    "plz": 9620,
    "ort": "Lichtensteig",
    "marke": "PEUGEOT",
    "lat": "47,3250492",
    "lng": "9,086242661"
  },
  {
    "name": "Automobile Diethelm AG",
    "strasse": "St. Gallerstrasse 26/28",
    "plz": 8580,
    "ort": "Amriswil",
    "marke": "ALFA ROMEO",
    "lat": "47,54420803",
    "lng": "9,29859033"
  },
  {
    "name": "Dimab Chablais SA",
    "strasse": "Route du Simplon 16",
    "plz": 1895,
    "ort": "Vionnaz",
    "marke": "DODGE",
    "lat": "46,30845935",
    "lng": "6,904958445"
  },
  {
    "name": "Dimab Riviera SA",
    "strasse": "Ch. de la Veyre d'en Haut A3",
    "plz": 1806,
    "ort": "St-Légier-La Chiésaz",
    "marke": "FIAT",
    "lat": "46,4768107",
    "lng": "6,859867715"
  },
  {
    "name": "DIMAB Rossens SA",
    "strasse": "Chemin de la Longivue 1",
    "plz": 1726,
    "ort": "Farvagny-le-Grand",
    "marke": "FIAT PROFESSIONAL",
    "lat": "46,7231472",
    "lng": "7,0841993"
  },
  {
    "name": "Dimab SA Succursale d'Yverdon",
    "strasse": "Avenue Haldimand 34",
    "plz": 1400,
    "ort": "Yverdon-les-Bains",
    "marke": "LANCIA",
    "lat": "46,77870945",
    "lng": "6,646294214"
  },
  {
    "name": "DM - DOUCE MOBILITÉ SARL",
    "strasse": "Chemin du Petit-Flon 27",
    "plz": 1052,
    "ort": "Le Mont-sur-Lausanne",
    "marke": "MAXUS",
    "lat": "46,54463185",
    "lng": "6,626716852"
  },
  {
    "name": "Garage du Mont-Blanc Moulin SA",
    "strasse": "route du Grand-St-Bernard 24",
    "plz": 1921,
    "ort": "Martigny-Croix",
    "marke": "MG",
    "lat": "46,08795269",
    "lng": "7,055940351"
  },
  {
    "name": "Garage du Nord Monthey SA",
    "strasse": "route du Simplon 19",
    "plz": 1870,
    "ort": "Monthey",
    "marke": "AUDI",
    "lat": "46,2988934",
    "lng": "6,90994315"
  },
  {
    "name": "Garage du Rallye Cornol SA",
    "strasse": "Route de Courgenay 8",
    "plz": 2952,
    "ort": "Cornol",
    "marke": "FORD",
    "lat": "47,407732",
    "lng": "7,1575834"
  },
  {
    "name": "Automobiles du Verdel SA",
    "strasse": "Rue de l'Etang 13",
    "plz": 1630,
    "ort": "Bulle",
    "marke": "CUPRA",
    "lat": "46,6252737",
    "lng": "7,0676178"
  },
  {
    "name": "Garage et Carrosserie du Viaduc- Villeneuve S.A",
    "strasse": "Zone Industrielle C",
    "plz": 1844,
    "ort": "Villeneuve VD",
    "marke": "SAAB",
    "lat": "46,39148315",
    "lng": "6,932887263"
  },
  {
    "name": "Garage Dubach AG",
    "strasse": "Oltenstrasse 9",
    "plz": 4702,
    "ort": "Oensingen",
    "marke": "SEAT",
    "lat": "47,29052865",
    "lng": "7,727764889"
  },
  {
    "name": "Auto-Center Durrer AG",
    "strasse": "Brünigstrasse 37",
    "plz": 6055,
    "ort": "Alpnach Dorf",
    "marke": "SKODA",
    "lat": "46,9385645",
    "lng": "8,27089464"
  },
  {
    "name": "Durret Automobiles SA - FordStore",
    "strasse": "Route de la Drague 60",
    "plz": 1950,
    "ort": "Sion",
    "marke": "SUZUKI",
    "lat": "46,220153",
    "lng": "7,3514954"
  },
  {
    "name": "Duxon AG",
    "strasse": "Betti 46",
    "plz": 8856,
    "ort": "Tuggen",
    "marke": "AUDI",
    "lat": "47,18568595",
    "lng": "8,9330897"
  },
  {
    "name": "Garage E. Bieri AG",
    "strasse": "Hauptstrasse",
    "plz": 6162,
    "ort": "Entlebuch",
    "marke": "VOLKSWAGEN",
    "lat": "47,00163493",
    "lng": "8,070418478"
  },
  {
    "name": "Garage Elite C. Chammartin Sàrl",
    "strasse": "route de Bocheferra 9",
    "plz": 1680,
    "ort": "Romont FR",
    "marke": "VOLKSWAGEN NF",
    "lat": "46,7041628",
    "lng": "6,932467803"
  },
  {
    "name": "Emil Frey AG Zweigniederlassung Rossbodenstrasse",
    "strasse": "Rossbodenstrasse 10",
    "plz": 7000,
    "ort": "Chur",
    "marke": "VOLVO",
    "lat": "46,8501855",
    "lng": "9,505197922"
  },
  {
    "name": "Emil Frey AG Zweigniederlassung Kasernenstrasse",
    "strasse": "Kasernenstrasse 148",
    "plz": 7007,
    "ort": "Chur",
    "marke": "ISUZU",
    "lat": "46,84658505",
    "lng": "9,512337164"
  },
  {
    "name": "Emil Frey AG Zweigniederlassung Autowelt Basel-Dreispitz",
    "strasse": "Brüglingerstrasse 2",
    "plz": 4002,
    "ort": "Basel",
    "marke": "OPEL",
    "lat": "47,5365011",
    "lng": "7,6102123"
  },
  {
    "name": "Emil Frey AG Zweigniederlassung Bern Eigerplatz",
    "strasse": "Eigerplatz 2",
    "plz": 3007,
    "ort": "Bern",
    "marke": "FIAT PROFESSIONAL",
    "lat": "46,9414294",
    "lng": "7,43059"
  },
  {
    "name": "Emil Frey AG Zweigniederlassung Dübendorf",
    "strasse": "Zürichstrasse 127/129",
    "plz": 8600,
    "ort": "Dübendorf",
    "marke": "LKW",
    "lat": "47,39577396",
    "lng": "8,606474565"
  },
  {
    "name": "Emil Frey SA Succursale Centre Automobiles aux Vernets",
    "strasse": "Rue François-Dussaud 13",
    "plz": 1211,
    "ort": "Genève",
    "marke": "LKW",
    "lat": "46,1946302",
    "lng": "6,1310789"
  },
  {
    "name": "Emil Frey AG Zweigniederlassung Kreuzgarage Schaffhausen",
    "strasse": "Herblingerstrasse 44",
    "plz": 8207,
    "ort": "Schaffhausen",
    "marke": "MAN",
    "lat": "47,7191279",
    "lng": "8,655793944"
  },
  {
    "name": "Emil Frey SA Succursale Pambio-Noranco",
    "strasse": "via Pian Scairolo",
    "plz": 6915,
    "ort": "Pambio-Noranco",
    "marke": "FIAT PROFESSIONAL",
    "lat": "45,98542793",
    "lng": "8,932393252"
  },
  {
    "name": "Emil Frey AG Autocenter Luzern-Littau",
    "strasse": "Schachenhof 2",
    "plz": 6014,
    "ort": "Luzern",
    "marke": "IVECO",
    "lat": "47,0619045",
    "lng": "8,26494575"
  },
  {
    "name": "Emil Frey AG Zweigniederlassung Moosseedorf",
    "strasse": "Gewerbestrasse 17",
    "plz": 3302,
    "ort": "Moosseedorf",
    "marke": "LKW",
    "lat": "47,01418925",
    "lng": "7,492135122"
  },
  {
    "name": "Emil Frey SA Succursale Garage et Carrosserie",
    "strasse": "route de Fribourg 11",
    "plz": 1723,
    "ort": "Marly",
    "marke": "FIAT PROFESSIONAL",
    "lat": "46,7794795",
    "lng": "7,152160887"
  },
  {
    "name": "Emil Frey SA Succursale Morges",
    "strasse": "Avenue de Plan 8",
    "plz": 1110,
    "ort": "Morges",
    "marke": "IVECO",
    "lat": "46,517341",
    "lng": "6,5042234"
  },
  {
    "name": "Emil Frey AG Zweigniederlassung Münchenstein",
    "strasse": "Grabenackerstrasse 10",
    "plz": 4142,
    "ort": "Münchenstein",
    "marke": "LKW",
    "lat": "47,5220112",
    "lng": "7,6047883"
  },
  {
    "name": "Emil Frey AG, Zweigniederlassung Autocenter",
    "strasse": "Milchstrasse 3",
    "plz": 3072,
    "ort": "Ostermundigen",
    "marke": "FIAT PROFESSIONAL",
    "lat": "46,96306955",
    "lng": "7,480175062"
  },
  {
    "name": "Emil Frey AG Zweigniederlassung Safenwil",
    "strasse": "Emil-Frey-Strasse",
    "plz": 5745,
    "ort": "Safenwil",
    "marke": "IVECO",
    "lat": "47,32384223",
    "lng": "7,979901467"
  },
  {
    "name": "Emil Frey AG Zweigniederlassung Schaffhausen",
    "strasse": "Gennersbrunnerstrasse 58",
    "plz": 8207,
    "ort": "Schaffhausen",
    "marke": "LKW",
    "lat": "47,7176527",
    "lng": "8,6625378"
  },
  {
    "name": "Emil Frey AG Zweigniederlassung Schlieren",
    "strasse": "Zürcherstrasse 94",
    "plz": 8952,
    "ort": "Schlieren",
    "marke": "FIAT PROFESSIONAL",
    "lat": "47,3971338",
    "lng": "8,460827458"
  },
  {
    "name": "Emil Frey SA Succursale Sion",
    "strasse": "Rue de la Dixence 83",
    "plz": 1950,
    "ort": "Sion",
    "marke": "IVECO",
    "lat": "46,2252869",
    "lng": "7,3739805"
  },
  {
    "name": "Emil Frey AG Zweigniederlassung Spreitenbach",
    "strasse": "Landstrasse 148",
    "plz": 8957,
    "ort": "Spreitenbach",
    "marke": "LKW",
    "lat": "47,4179936",
    "lng": "8,3754652"
  },
  {
    "name": "Emil Frey SA Succursale Centre Automobile St. Légier",
    "strasse": "route Industrielle 10",
    "plz": 1806,
    "ort": "St-Légier-La Chiésaz",
    "marke": "FIAT PROFESSIONAL",
    "lat": "46,4755138",
    "lng": "6,864248019"
  },
  {
    "name": "Emil Frey AG Zweigniederlassung St. Moritz",
    "strasse": "Via Maistra 46",
    "plz": 7500,
    "ort": "St. Moritz",
    "marke": "IVECO",
    "lat": "46,50092115",
    "lng": "9,845029234"
  },
  {
    "name": "Emil Frey AG Zweigniederlassung Volketswil",
    "strasse": "Industriestrasse 31/33",
    "plz": 8604,
    "ort": "Volketswil",
    "marke": "LKW",
    "lat": "47,3802118",
    "lng": "8,6843052"
  },
  {
    "name": "Emil Frey AG Zweigniederlassung Auto Central Zuchwil",
    "strasse": "Langfeldstrasse 1",
    "plz": 4528,
    "ort": "Zuchwil",
    "marke": "SKODA",
    "lat": "47,20461945",
    "lng": "7,563592501"
  },
  {
    "name": "Emil Frey AG Zweigniederlassung Züri-Oberland Volketswil",
    "strasse": "Industriestrasse 2b",
    "plz": 8604,
    "ort": "Volketswil",
    "marke": "VOLKSWAGEN",
    "lat": "47,38267775",
    "lng": "8,664299456"
  },
  {
    "name": "Emil Frey AG Zweigniederlassung Garage Zürich Nord",
    "strasse": "Thurgauerstrasse 35",
    "plz": 8050,
    "ort": "Zürich",
    "marke": "VOLKSWAGEN NF",
    "lat": "47,4137337",
    "lng": "8,550269003"
  },
  {
    "name": "Emil Frey AG Zweigniederlassung Rheintal-Garage Chur",
    "strasse": "Rossbodenstrasse 2",
    "plz": 7000,
    "ort": "Chur",
    "marke": "FORD",
    "lat": "46,84882695",
    "lng": "9,504811702"
  },
  {
    "name": "Emil Frey AG Zweigniederlassung Landquart",
    "strasse": "Wuhrstrasse 15",
    "plz": 7302,
    "ort": "Landquart",
    "marke": "CITROEN",
    "lat": "46,96903415",
    "lng": "9,571847845"
  },
  {
    "name": "EMIL FREY SA succursale de Chavannes-près-Renens",
    "strasse": "Route de la Maladière 44",
    "plz": 1022,
    "ort": "Chavannes-près-Renens",
    "marke": "FORD",
    "lat": "46,5266586",
    "lng": "6,5814935"
  },
  {
    "name": "Garage Engeler AG",
    "strasse": "Zürcherstrasse 281",
    "plz": 8501,
    "ort": "Frauenfeld",
    "marke": "MAXUS",
    "lat": "47,5629819",
    "lng": "8,907137561"
  },
  {
    "name": "Engeler Automobile AG",
    "strasse": "Dunantstrasse 9",
    "plz": 8570,
    "ort": "Weinfelden",
    "marke": "AUDI",
    "lat": "47,56597855",
    "lng": "9,093254529"
  },
  {
    "name": "Engeler Automobile AG",
    "strasse": "Romanshornerstrasse 113",
    "plz": 8280,
    "ort": "Kreuzlingen",
    "marke": "VOLKSWAGEN",
    "lat": "47,6399085",
    "lng": "9,201506922"
  },
  {
    "name": "Garage Enzian B&F AG",
    "strasse": "Kantonsstrasse 1",
    "plz": 3946,
    "ort": "Turtmann",
    "marke": "VOLKSWAGEN NF",
    "lat": "46,3015754",
    "lng": "7,6998099"
  },
  {
    "name": "Epper AG",
    "strasse": "Horwerstrasse 81",
    "plz": 6005,
    "ort": "Luzern",
    "marke": "BMW",
    "lat": "47,0359679",
    "lng": "8,3027709"
  },
  {
    "name": "Epper AG",
    "strasse": "Baselstrasse 10",
    "plz": 6210,
    "ort": "Sursee",
    "marke": "MINI",
    "lat": "47,1725278",
    "lng": "8,092504682"
  },
  {
    "name": "Ernst Ruckstuhl AG",
    "strasse": "Industriestrasse 10",
    "plz": 8302,
    "ort": "Kloten",
    "marke": "CITROEN",
    "lat": "47,4499276",
    "lng": "8,5886938"
  },
  {
    "name": "ETech-3 GmbH",
    "strasse": "Kägenstrasse 25",
    "plz": 4153,
    "ort": "Reinach BL",
    "marke": "PEUGEOT",
    "lat": "47,4852349",
    "lng": "7,5984263"
  },
  {
    "name": "Etoile Automobile, succursale de Groupe Leuba SA",
    "strasse": "Les Tilles 5",
    "plz": 2016,
    "ort": "Cortaillod",
    "marke": "DACIA",
    "lat": "46,94551495",
    "lng": "6,833035869"
  },
  {
    "name": "ETPL SA",
    "strasse": "Rte du Bois de Bay 16",
    "plz": 1242,
    "ort": "Satigny",
    "marke": "RENAULT",
    "lat": "46,2003894",
    "lng": "6,064115"
  },
  {
    "name": "Euro Truck AG Zweigniederlassung Aarau",
    "strasse": "Weihermattstrasse 64",
    "plz": 5000,
    "ort": "Aarau",
    "marke": "CITROEN",
    "lat": "47,3960931",
    "lng": "8,062329461"
  },
  {
    "name": "Euromobile Sàrl",
    "strasse": "Chemin des Grandes-Vies 21",
    "plz": 2900,
    "ort": "Porrentruy",
    "marke": "JEEP",
    "lat": "47,42976295",
    "lng": "7,080846741"
  },
  {
    "name": "Euromobile Sàrl, succursale Delémont",
    "strasse": "Route de Moutier 64",
    "plz": 2800,
    "ort": "Delémont",
    "marke": "MERCEDES",
    "lat": "47,3626955",
    "lng": "7,3507491"
  },
  {
    "name": "Evodrive Sàrl",
    "strasse": "Route de l'industrie 16",
    "plz": 1680,
    "ort": "Romont FR",
    "marke": "PEUGEOT",
    "lat": "46,68880466",
    "lng": "6,908768565"
  },
  {
    "name": "Facchinetti Automobiles (Delémont) SA",
    "strasse": "Route de Moutier 113",
    "plz": 2800,
    "ort": "Delémont",
    "marke": "SMART",
    "lat": "47,36266645",
    "lng": "7,361626373"
  },
  {
    "name": "Facchinetti Automobiles (Genève-Meyrin) SA",
    "strasse": "route de Meyrin 214",
    "plz": 1217,
    "ort": "Meyrin",
    "marke": "MERCEDES",
    "lat": "46,2254112",
    "lng": "6,0855951"
  },
  {
    "name": "Facchinetti Automobiles SA",
    "strasse": "boulevard de la Liberté 2",
    "plz": 2300,
    "ort": "La Chaux-de-Fonds",
    "marke": "DREIRAD",
    "lat": "47,09335245",
    "lng": "6,822236792"
  },
  {
    "name": "Falknisgarge Kunz AG",
    "strasse": "Landstrasse 27",
    "plz": 7304,
    "ort": "Maienfeld",
    "marke": "KYBURZ",
    "lat": "47,0021098",
    "lng": "9,532386967"
  },
  {
    "name": "Felder 2Rad-Center GmbH",
    "strasse": "Entlebucherstrasse 10",
    "plz": 6110,
    "ort": "Wolhusen",
    "marke": "VRBIKES",
    "lat": "47,05857495",
    "lng": "8,071850406"
  },
  {
    "name": "Felix Emmenegger AG",
    "strasse": "Bollstrasse 2",
    "plz": 5417,
    "ort": "Untersiggenthal",
    "marke": "FIAT",
    "lat": "47,496485",
    "lng": "8,2683652"
  },
  {
    "name": "Fila Groupe SA",
    "strasse": "Chaussée de Treycovagnes 7-13",
    "plz": 1401,
    "ort": "Yverdon-les-Bains",
    "marke": "FIAT PROFESSIONAL",
    "lat": "46,77882275",
    "lng": "6,62674855"
  },
  {
    "name": "Fila Groupe SA",
    "strasse": "Rue Eugène-de-Coulon 13",
    "plz": 2022,
    "ort": "Bevaix",
    "marke": "BMW",
    "lat": "46,9238196",
    "lng": "6,8099136"
  },
  {
    "name": "Fila Groupe SA",
    "strasse": "Boulevard des Eplatures 51",
    "plz": 2300,
    "ort": "La Chaux-de-Fonds",
    "marke": "BMW",
    "lat": "47,0850362",
    "lng": "6,799623799"
  },
  {
    "name": "Fischer AG, Baldegg",
    "strasse": "Hauptstrasse 8",
    "plz": 6283,
    "ort": "Baldegg",
    "marke": "MINI",
    "lat": "47,1851546",
    "lng": "8,280907919"
  },
  {
    "name": "Fleuben-Garage AG",
    "strasse": "Oberrieterstrasse 61",
    "plz": 9450,
    "ort": "Altstätten SG",
    "marke": "AUDI",
    "lat": "47,36603555",
    "lng": "9,554659501"
  },
  {
    "name": "Flückiger Baumaschinen/Nutz- fahrzeuge AG",
    "strasse": "Industriestrasse 12",
    "plz": 3315,
    "ort": "Bätterkinden",
    "marke": "PORSCHE",
    "lat": "47,14079165",
    "lng": "7,53676045"
  },
  {
    "name": "Forellensee-Garage Aktiengesellschaft B. Salzmann",
    "strasse": "Thunstrasse 30",
    "plz": 3770,
    "ort": "Zweisimmen",
    "marke": "VOLKSWAGEN NF",
    "lat": "46,56320315",
    "lng": "7,37584965"
  },
  {
    "name": "Franz AG",
    "strasse": "St. Gallerstrasse 106",
    "plz": 8404,
    "ort": "Winterthur",
    "marke": "SEAT",
    "lat": "47,4979699",
    "lng": "8,7471104"
  },
  {
    "name": "Frei Bahnhof-Garage AG",
    "strasse": "Schlosstalstrasse 211",
    "plz": 8408,
    "ort": "Winterthur",
    "marke": "SKODA",
    "lat": "47,50467355",
    "lng": "8,686489666"
  },
  {
    "name": "Freihof-Garage AG",
    "strasse": "Oberdorf 40",
    "plz": 8752,
    "ort": "Näfels",
    "marke": "VOLKSWAGEN",
    "lat": "47,09433955",
    "lng": "9,060208578"
  },
  {
    "name": "Frey Cars AG",
    "strasse": "Thalstrasse 143",
    "plz": 4714,
    "ort": "Aedermannsdorf",
    "marke": "KAWASAKI",
    "lat": "47,2984159",
    "lng": "7,6155132"
  },
  {
    "name": "Friderici Services SA",
    "strasse": "Rte du Molliau 30",
    "plz": 1131,
    "ort": "Tolochenaz",
    "marke": "KIA",
    "lat": "46,50080995",
    "lng": "6,482431651"
  },
  {
    "name": "Garage Fries AG",
    "strasse": "Kantonsstrasse 73",
    "plz": 6234,
    "ort": "Triengen",
    "marke": "KYBURZ",
    "lat": "47,2372419",
    "lng": "8,0749263"
  },
  {
    "name": "Fritz Schläpfer & Co. AG",
    "strasse": "Bildstrasse 3",
    "plz": 9015,
    "ort": "St. Gallen",
    "marke": "VRBIKES",
    "lat": "47,41348765",
    "lng": "9,31147304"
  },
  {
    "name": "Furrer Auto Lachen AG",
    "strasse": "Glärnischstrasse 17",
    "plz": 8853,
    "ort": "Lachen SZ",
    "marke": "CUPRA",
    "lat": "47,19132845",
    "lng": "8,864710196"
  },
  {
    "name": "G. Kolly S.A.",
    "strasse": "Rte de la Gruyère 88",
    "plz": 1724,
    "ort": "Le Mouret",
    "marke": "SEAT",
    "lat": "46,7413773",
    "lng": "7,1720472"
  },
  {
    "name": "Garage G. Zell GmbH",
    "strasse": "Juchstrasse 1",
    "plz": 8604,
    "ort": "Volketswil",
    "marke": "SSANGYONG",
    "lat": "47,39197645",
    "lng": "8,665060201"
  },
  {
    "name": "Garage & Carrosserie Gachnang SA",
    "strasse": "Chemin des Orlons 1",
    "plz": 1860,
    "ort": "Aigle",
    "marke": "MAZDA",
    "lat": "46,3131108",
    "lng": "6,940969554"
  },
  {
    "name": "Garage Galliker AG Aarburg",
    "strasse": "Oltnerstrasse 101",
    "plz": 4663,
    "ort": "Aarburg",
    "marke": "SMART",
    "lat": "47,33366625",
    "lng": "7,906052318"
  },
  {
    "name": "Garage Galliker AG Bellach",
    "strasse": "Römerstrasse 8",
    "plz": 4512,
    "ort": "Bellach",
    "marke": "SKODA",
    "lat": "47,2122493",
    "lng": "7,5091851"
  },
  {
    "name": "Garage Galliker Nidfeld AG",
    "strasse": "Sternmattweg 4",
    "plz": 6010,
    "ort": "Kriens",
    "marke": "VOLKSWAGEN",
    "lat": "47,0285369",
    "lng": "8,297111498"
  },
  {
    "name": "Garage Galliker AG Luzern",
    "strasse": "Staldenhof 1",
    "plz": 6014,
    "ort": "Luzern",
    "marke": "VOLKSWAGEN NF",
    "lat": "47,06650775",
    "lng": "8,269482787"
  },
  {
    "name": "Garage Galliker AG Strengelbach",
    "strasse": "Zofingerstrasse 30",
    "plz": 4802,
    "ort": "Strengelbach",
    "marke": "CUPRA",
    "lat": "47,28066605",
    "lng": "7,934167566"
  },
  {
    "name": "Garage Galliker AG",
    "strasse": "Hohenrainstrasse 50",
    "plz": 6280,
    "ort": "Hochdorf",
    "marke": "SEAT",
    "lat": "47,16840515",
    "lng": "8,304422913"
  },
  {
    "name": "Garage Galliker Mittelland AG Zweigniederlassung Bern",
    "strasse": "Freiburgstrasse 451",
    "plz": 3018,
    "ort": "Bern",
    "marke": "SKODA",
    "lat": "46,9334183",
    "lng": "7,390939748"
  },
  {
    "name": "Garage Galliker Mittelland AG",
    "strasse": "Kanalweg 4",
    "plz": 3322,
    "ort": "Urtenen-Schönbühl",
    "marke": "VOLKSWAGEN",
    "lat": "47,0188561",
    "lng": "7,490648346"
  },
  {
    "name": "Garage Galliker Nidfeld AG Kriens",
    "strasse": "Luzernerstrasse 57",
    "plz": 6030,
    "ort": "Ebikon",
    "marke": "VOLKSWAGEN NF",
    "lat": "47,0711862",
    "lng": "8,323914961"
  },
  {
    "name": "Garage Ackermann AG, Dotzigen",
    "strasse": "Scheurenstrasse 15",
    "plz": 3293,
    "ort": "Dotzigen",
    "marke": "SKODA",
    "lat": "47,12011405",
    "lng": "7,335407485"
  },
  {
    "name": "Garage Arnet AG",
    "strasse": "Ettiswilerstrasse 34",
    "plz": 6130,
    "ort": "Willisau",
    "marke": "VOLKSWAGEN",
    "lat": "47,1278017",
    "lng": "7,998186711"
  },
  {
    "name": "Garage B. Studer AG",
    "strasse": "Industriezone Basper 17",
    "plz": 3942,
    "ort": "Raron",
    "marke": "VOLKSWAGEN NF",
    "lat": "46,3035616",
    "lng": "7,8113408"
  },
  {
    "name": "Garage Balmer AG",
    "strasse": "Simmentalstrasse 625a",
    "plz": 3758,
    "ort": "Latterbach",
    "marke": "CUPRA",
    "lat": "46,6644809",
    "lng": "7,5796665"
  },
  {
    "name": "Garage Bernard Despont SA",
    "strasse": "Zi du Vivier 2",
    "plz": 1690,
    "ort": "Villaz-St-Pierre",
    "marke": "SEAT",
    "lat": "46,7179475",
    "lng": "6,9618666"
  },
  {
    "name": "Garage Berset Sàrl, la Tour-de-Trême",
    "strasse": "Impasse Verte 5",
    "plz": 1635,
    "ort": "La Tour-de-Trême",
    "marke": "SKODA",
    "lat": "46,6031764",
    "lng": "7,0732139"
  },
  {
    "name": "Garage Bircher Ägeri AG",
    "strasse": "Zugerstrasse 75",
    "plz": 6314,
    "ort": "Unterägeri",
    "marke": "VOLKSWAGEN",
    "lat": "47,1400985",
    "lng": "8,5731214"
  },
  {
    "name": "Garage Bolzern Koch AG",
    "strasse": "Schachenweidstrasse 48",
    "plz": 6030,
    "ort": "Ebikon",
    "marke": "VOLKSWAGEN NF",
    "lat": "47,07329435",
    "lng": "8,327527517"
  },
  {
    "name": "Garage Brem AG",
    "strasse": "Sonnmattweg 6b",
    "plz": 5620,
    "ort": "Bremgarten AG",
    "marke": "FIAT PROFESSIONAL",
    "lat": "47,3543173",
    "lng": "8,338796"
  },
  {
    "name": "Garage Bürgler GmbH",
    "strasse": "Gewerbestrasse 19",
    "plz": 6438,
    "ort": "Ibach",
    "marke": "IVECO",
    "lat": "47,01271145",
    "lng": "8,632776546"
  },
  {
    "name": "Garage-Carrosserie Friedli SA",
    "strasse": "rue de la Vignette 65",
    "plz": 1530,
    "ort": "Payerne",
    "marke": "MAXUS",
    "lat": "46,81835021",
    "lng": "6,937790271"
  },
  {
    "name": "Garage-Carrosserie Willemin SA",
    "strasse": "Route de Porrentruy 88",
    "plz": 2800,
    "ort": "Delémont",
    "marke": "SKODA",
    "lat": "47,36153918",
    "lng": "7,322877205"
  },
  {
    "name": "Garage Carrozzeria Maffeis SA",
    "strasse": "Via Lugano 125",
    "plz": 6950,
    "ort": "Tesserete",
    "marke": "VOLKSWAGEN",
    "lat": "46,0651954",
    "lng": "8,9681084"
  },
  {
    "name": "Garage Chuard SA",
    "strasse": "Route de la Maladaire 6",
    "plz": 1562,
    "ort": "Corcelles-près-Payerne",
    "marke": "VOLKSWAGEN NF",
    "lat": "46,82685376",
    "lng": "6,951975294"
  },
  {
    "name": "Garage de l'Etoile, succursale de Groupe Leuba SA",
    "strasse": "route de Cossonay 101",
    "plz": 1020,
    "ort": "Renens VD",
    "marke": "ALFA ROMEO",
    "lat": "46,5388537",
    "lng": "6,5971845"
  },
  {
    "name": "Garage de la Broye Ansermet SA",
    "strasse": "Route du Grand-Chemin 30",
    "plz": 1562,
    "ort": "Corcelles-près-Payerne",
    "marke": "DACIA",
    "lat": "46,83041935",
    "lng": "6,960694435"
  },
  {
    "name": "Garage de la Gare Vevey S.A.",
    "strasse": "avenue Général-Guisan 47",
    "plz": 1800,
    "ort": "Vevey",
    "marke": "FIAT",
    "lat": "46,46527705",
    "lng": "6,83834673"
  },
  {
    "name": "Garage de la Plaine Crétin SA",
    "strasse": "Route de Porrentruy 30",
    "plz": 2923,
    "ort": "Courtemaîche",
    "marke": "LANCIA",
    "lat": "47,452173",
    "lng": "7,0536081"
  },
  {
    "name": "Garage de la Plaine, succursale de Groupe Leuba SA",
    "strasse": "rue de la Plaine 65",
    "plz": 1400,
    "ort": "Yverdon-les-Bains",
    "marke": "OPEL",
    "lat": "46,77695385",
    "lng": "6,646214631"
  },
  {
    "name": "Garage de la Riviera, succursale de Groupe Leuba SA R.Leuba & Fils SA",
    "strasse": "route de Saint-Maurice 233",
    "plz": 1814,
    "ort": "La Tour-de-Peilz",
    "marke": "RENAULT",
    "lat": "46,4486665",
    "lng": "6,872444443"
  },
  {
    "name": "Garage de la Vigie MC Sport Sàrl",
    "strasse": "chemin de la Rottaz 3",
    "plz": 1820,
    "ort": "Montreux",
    "marke": "ALFA ROMEO",
    "lat": "46,45222405",
    "lng": "6,898811589"
  },
  {
    "name": "Garage du Château d'Enbas",
    "strasse": "Rue du Prieuré 38",
    "plz": 1636,
    "ort": "Broc",
    "marke": "DACIA",
    "lat": "46,60329015",
    "lng": "7,093805063"
  },
  {
    "name": "Garage du Crêt",
    "strasse": "rue de la Chapelle 52",
    "plz": 2035,
    "ort": "Corcelles NE",
    "marke": "FIAT",
    "lat": "46,9855998",
    "lng": "6,8656895"
  },
  {
    "name": "Garage du Nord SA",
    "strasse": "route de Sécheron 2",
    "plz": 1964,
    "ort": "Conthey",
    "marke": "LANCIA",
    "lat": "46,2144774",
    "lng": "7,292997048"
  },
  {
    "name": "Garage du Nord Martigny Sarl",
    "strasse": "rue du Simplon 53",
    "plz": 1920,
    "ort": "Martigny",
    "marke": "OPEL",
    "lat": "46,1096654",
    "lng": "7,0913627"
  },
  {
    "name": "Garage du Nord Sierre SA",
    "strasse": "Ecoparc de Daval B 10",
    "plz": 3960,
    "ort": "Sierre",
    "marke": "RENAULT",
    "lat": "46,2730781",
    "lng": "7,5205139"
  },
  {
    "name": "Garage du Repuis SA J.-J. Reymond",
    "strasse": "rue de Neuchâtel 43",
    "plz": 1422,
    "ort": "Grandson",
    "marke": "SKODA",
    "lat": "46,81515515",
    "lng": "6,651907143"
  },
  {
    "name": "Garage Chèvre SA",
    "strasse": "Rue Auguste-Quiquerez 14",
    "plz": 2800,
    "ort": "Delémont",
    "marke": "VOLKSWAGEN",
    "lat": "47,3661843",
    "lng": "7,358886505"
  },
  {
    "name": "Garage du Simplon Viscardi & Cie SA",
    "strasse": "Route du Grand-Saint-Bernard 17",
    "plz": 1880,
    "ort": "Bex",
    "marke": "VOLKSWAGEN NF",
    "lat": "46,2507662",
    "lng": "7,002193209"
  },
  {
    "name": "Garage Egli AG",
    "strasse": "Zürcherstrasse 7",
    "plz": 4310,
    "ort": "Rheinfelden",
    "marke": "BMW",
    "lat": "47,5530924",
    "lng": "7,797183429"
  },
  {
    "name": "Garage Erard Sàrl",
    "strasse": "rue des Rangiers 22",
    "plz": 2350,
    "ort": "Saignelégier",
    "marke": "SUZUKI",
    "lat": "47,25865895",
    "lng": "7,000025208"
  },
  {
    "name": "Garage Eric Bussy",
    "strasse": "Route d'Yverdon 30",
    "plz": 1373,
    "ort": "Chavornay",
    "marke": "PEUGEOT",
    "lat": "46,71372045",
    "lng": "6,5750792"
  },
  {
    "name": "Garage Galliker AG Gümligen",
    "strasse": "Worbstrasse 171",
    "plz": 3073,
    "ort": "Gümligen",
    "marke": "DACIA",
    "lat": "46,9353071",
    "lng": "7,499787432"
  },
  {
    "name": "Garage Gautschi AG",
    "strasse": "Bützbergstrasse 98",
    "plz": 4900,
    "ort": "Langenthal",
    "marke": "FORD",
    "lat": "47,21732555",
    "lng": "7,77009989"
  },
  {
    "name": "Garage Gautschi AG",
    "strasse": "Bern-Zürichstrasse 44",
    "plz": 4900,
    "ort": "Langenthal",
    "marke": "RENAULT",
    "lat": "47,21921905",
    "lng": "7,7690651"
  },
  {
    "name": "Garage Gautschi AG",
    "strasse": "Schachenstrasse 31",
    "plz": 3421,
    "ort": "Lyssach",
    "marke": "ALFA ROMEO",
    "lat": "47,0737707",
    "lng": "7,588811838"
  },
  {
    "name": "Garage Gloor AG",
    "strasse": "Dorfstrasse 489",
    "plz": 5728,
    "ort": "Gontenschwil",
    "marke": "FORD",
    "lat": "47,2676699",
    "lng": "8,1473245"
  },
  {
    "name": "Garage Grenacher AG",
    "strasse": "Kirchgass 26",
    "plz": 9442,
    "ort": "Berneck",
    "marke": "FORD",
    "lat": "47,424189",
    "lng": "9,614751754"
  },
  {
    "name": "Garage Greub AG Honda Terminal Oberaargau",
    "strasse": "Kapellenweg 2+4",
    "plz": 4923,
    "ort": "Wynau",
    "marke": "JEEP",
    "lat": "47,2584446",
    "lng": "7,8228899"
  },
  {
    "name": "Garage Guex Nyon SA",
    "strasse": "Route d’Oulteret 44",
    "plz": 1260,
    "ort": "Nyon",
    "marke": "LOTUS",
    "lat": "46,39322845",
    "lng": "6,237043225"
  },
  {
    "name": "Garage Guex SA",
    "strasse": "Route de Romanel 40",
    "plz": 1121,
    "ort": "Bremblens",
    "marke": "PEUGEOT",
    "lat": "46,54886234",
    "lng": "6,514112257"
  },
  {
    "name": "Garage H.R. Baumgartner AG",
    "strasse": "Kreuzmatte 12",
    "plz": 6260,
    "ort": "Reiden",
    "marke": "JAGUAR",
    "lat": "47,24691385",
    "lng": "7,962541096"
  },
  {
    "name": "Garage Herzog AG",
    "strasse": "Wilerstrasse 106",
    "plz": 8370,
    "ort": "Sirnach",
    "marke": "LAND ROVER",
    "lat": "47,46319465",
    "lng": "9,0230106"
  },
  {
    "name": "Garage Hofer AG",
    "strasse": "Landstrasse 24",
    "plz": 8595,
    "ort": "Altnau",
    "marke": "VOLVO",
    "lat": "47,6178793",
    "lng": "9,2676533"
  },
  {
    "name": "Garage Hofmann AG",
    "strasse": "Emmentalstrasse 100",
    "plz": 3414,
    "ort": "Oberburg",
    "marke": "VOLKSWAGEN",
    "lat": "47,03555555",
    "lng": "7,629270184"
  },
  {
    "name": "Garage Hug AG",
    "strasse": "Karmaad 17",
    "plz": 9473,
    "ort": "Gams",
    "marke": "VOLKSWAGEN",
    "lat": "47,2031756",
    "lng": "9,4561103"
  },
  {
    "name": "Garage Kaufmann AG Wittenbach",
    "strasse": "Arbonerstrasse 39",
    "plz": 9300,
    "ort": "Wittenbach",
    "marke": "VOLKSWAGEN",
    "lat": "47,46524395",
    "lng": "9,393860354"
  },
  {
    "name": "Garage Kehrli Frères Aubonne SNC",
    "strasse": "Route d'Allaman 106",
    "plz": 1170,
    "ort": "Aubonne",
    "marke": "VOLKSWAGEN NF",
    "lat": "46,4897415",
    "lng": "6,398728862"
  },
  {
    "name": "Garage Lüthi AG Hermiswil",
    "strasse": "Hauptstrasse 83",
    "plz": 3475,
    "ort": "Hermiswil",
    "marke": "DACIA",
    "lat": "47,15265555",
    "lng": "7,695908108"
  },
  {
    "name": "Garage Lüthi AG Hermiswil Zweigniederlassung Langenthal",
    "strasse": "Bleienbachstrasse 54",
    "plz": 4900,
    "ort": "Langenthal",
    "marke": "RENAULT",
    "lat": "47,202269",
    "lng": "7,780900567"
  },
  {
    "name": "Garage Marti AG",
    "strasse": "Solothurnerstrasse 22",
    "plz": 4614,
    "ort": "Hägendorf",
    "marke": "HYUNDAI",
    "lat": "47,3308022",
    "lng": "7,83639034"
  },
  {
    "name": "Garage Moderne SA",
    "strasse": "rue de la Poterne 1-3",
    "plz": 1630,
    "ort": "Bulle",
    "marke": "AUDI",
    "lat": "46,62060231",
    "lng": "7,058596508"
  },
  {
    "name": "Garage Moix",
    "strasse": "Route de Bramois 2",
    "plz": 1950,
    "ort": "Sion",
    "marke": "DACIA",
    "lat": "46,2260736",
    "lng": "7,3872419"
  },
  {
    "name": "Garage Oetterli AG",
    "strasse": "Murgenthalstrasse 67",
    "plz": 4900,
    "ort": "Langenthal",
    "marke": "HONDA",
    "lat": "47,2273103",
    "lng": "7,79115316"
  },
  {
    "name": "Garage Pfister AG",
    "strasse": "Bischofszellerstrasse 315",
    "plz": 9212,
    "ort": "Arnegg",
    "marke": "PEUGEOT",
    "lat": "47,44095915",
    "lng": "9,254795647"
  },
  {
    "name": "Garage Rickli",
    "strasse": "Bleichiweg 3",
    "plz": 4460,
    "ort": "Gelterkinden",
    "marke": "MAZDA",
    "lat": "47,4606279",
    "lng": "7,861033575"
  },
  {
    "name": "Garage Robert SA",
    "strasse": "route de Boudry 11",
    "plz": 2016,
    "ort": "Cortaillod",
    "marke": "DACIA",
    "lat": "46,9446323",
    "lng": "6,843488325"
  },
  {
    "name": "Garage Rupli",
    "strasse": "Bahnhofstrasse 25",
    "plz": 4950,
    "ort": "Huttwil",
    "marke": "RENAULT",
    "lat": "47,11364475",
    "lng": "7,845234731"
  },
  {
    "name": "Garage Sport Lugano SA",
    "strasse": "Via Sonvico 17",
    "plz": 6952,
    "ort": "Canobbio",
    "marke": "AUDI",
    "lat": "46,0307863",
    "lng": "8,9705454"
  },
  {
    "name": "Garage St-Christophe, Willemin SA",
    "strasse": "Route de Delémont 91",
    "plz": 2802,
    "ort": "Develier",
    "marke": "CUPRA",
    "lat": "47,3614267",
    "lng": "7,3112504"
  },
  {
    "name": "Garage Staehlin Cycles-motos Succ. Alain Coucheman",
    "strasse": "rue de Lausanne 3",
    "plz": 1530,
    "ort": "Payerne",
    "marke": "SEAT",
    "lat": "46,82051675",
    "lng": "6,936738617"
  },
  {
    "name": "Garage Tanguy Micheloud SA",
    "strasse": "route de Riddes 54",
    "plz": 1950,
    "ort": "Sion",
    "marke": "SKODA",
    "lat": "46,2236368",
    "lng": "7,369696179"
  },
  {
    "name": "Garage Thöni AG",
    "strasse": "Via Santeri 73",
    "plz": 7130,
    "ort": "Ilanz",
    "marke": "VOLKSWAGEN",
    "lat": "46,7722611",
    "lng": "9,1962544"
  },
  {
    "name": "Garage Tondo AG",
    "strasse": "Landstrasse 6",
    "plz": 8754,
    "ort": "Netstal",
    "marke": "VOLKSWAGEN NF",
    "lat": "47,06598055",
    "lng": "9,057388447"
  },
  {
    "name": "Garage Tondo AG",
    "strasse": "Hauptstrasse 1",
    "plz": 8756,
    "ort": "Mitlödi",
    "marke": "CITROEN",
    "lat": "47,0082492",
    "lng": "9,078342595"
  },
  {
    "name": "Garage Voigtmann AG",
    "strasse": "Frauenfelderstrasse 1A",
    "plz": 8404,
    "ort": "Winterthur",
    "marke": "MITSUBISHI",
    "lat": "47,5156708",
    "lng": "8,765602172"
  },
  {
    "name": "Garage Wirz AG",
    "strasse": "Wyhlenstrasse 43",
    "plz": 4133,
    "ort": "Pratteln",
    "marke": "NISSAN",
    "lat": "47,5337518",
    "lng": "7,70727446"
  },
  {
    "name": "Gattoni Maintenance Poids Lourds SA",
    "strasse": "Rue du Closillon 45",
    "plz": 1870,
    "ort": "Monthey",
    "marke": "PEUGEOT",
    "lat": "46,25737465",
    "lng": "6,962801455"
  },
  {
    "name": "Garage Gavillet SA",
    "strasse": "Route de Moudon 30",
    "plz": 1670,
    "ort": "Ursy",
    "marke": "DACIA",
    "lat": "46,63667525",
    "lng": "6,833038122"
  },
  {
    "name": "G.E.M. Garage Electro & Mécanique SA",
    "strasse": "rue de Vermont 4",
    "plz": 1202,
    "ort": "Genève",
    "marke": "RENAULT",
    "lat": "46,2152438",
    "lng": "6,1343519"
  },
  {
    "name": "Garage Gerber Sarl",
    "strasse": "Le Saucy 2",
    "plz": 2722,
    "ort": "Les Reussilles",
    "marke": "OPEL",
    "lat": "47,22405655",
    "lng": "7,084479833"
  },
  {
    "name": "Garage Gerbsch GmbH",
    "strasse": "Badhausstrasse 1",
    "plz": 3063,
    "ort": "Ittigen",
    "marke": "SUZUKI",
    "lat": "46,97339385",
    "lng": "7,485894742"
  },
  {
    "name": "Auto Germann AG",
    "strasse": "Hauptstrasse 37",
    "plz": 5502,
    "ort": "Hunzenschwil",
    "marke": "RENAULT",
    "lat": "47,38702325",
    "lng": "8,118218156"
  },
  {
    "name": "GNG AG",
    "strasse": "Langfeldstrasse 10",
    "plz": 9200,
    "ort": "Gossau SG",
    "marke": "AUDI",
    "lat": "47,42395095",
    "lng": "9,242186535"
  },
  {
    "name": "Gotthelf Garage AG",
    "strasse": "Wanderstrasse 63",
    "plz": 4054,
    "ort": "Basel",
    "marke": "VOLKSWAGEN",
    "lat": "47,5523002",
    "lng": "7,5661412"
  },
  {
    "name": "Karl Graf Automobile AG",
    "strasse": "Zürichstrasse 30",
    "plz": 8932,
    "ort": "Mettmenstetten",
    "marke": "VOLKSWAGEN NF",
    "lat": "47,2469592",
    "lng": "8,461144015"
  },
  {
    "name": "Garage Grandjean Sàrl",
    "strasse": "Chemin de Budron D5",
    "plz": 1052,
    "ort": "Le Mont-sur-Lausanne",
    "marke": "HYUNDAI",
    "lat": "46,57830654",
    "lng": "6,631863774"
  },
  {
    "name": "Gräub Auto Center AG",
    "strasse": "Industriestrasse 39",
    "plz": 5036,
    "ort": "Oberentfelden",
    "marke": "ISUZU",
    "lat": "47,3507286",
    "lng": "8,05257555"
  },
  {
    "name": "Garage Nicola Greco SA",
    "strasse": "Via Industria 4",
    "plz": 6807,
    "ort": "Taverne",
    "marke": "AUDI",
    "lat": "46,0603881",
    "lng": "8,9315093"
  },
  {
    "name": "Grimm Centre André Chevalley SA",
    "strasse": "avenue des Morgines 26",
    "plz": 1213,
    "ort": "Petit-Lancy",
    "marke": "SKODA",
    "lat": "46,1938772",
    "lng": "6,109485"
  },
  {
    "name": "Gross Garage Baden AG",
    "strasse": "Halbartenstrasse 7a",
    "plz": 5430,
    "ort": "Wettingen",
    "marke": "VOLKSWAGEN",
    "lat": "47,459084",
    "lng": "8,3349634"
  },
  {
    "name": "Gross Garage Baden AG",
    "strasse": "Bruggerstrasse 194",
    "plz": 5400,
    "ort": "Baden",
    "marke": "VOLKSWAGEN NF",
    "lat": "47,4826127",
    "lng": "8,278853481"
  },
  {
    "name": "Groupe AFH Automobiles Autosport SA",
    "strasse": "Avenue de Grandson 39",
    "plz": 1400,
    "ort": "Yverdon-les-Bains",
    "marke": "MITSUBISHI",
    "lat": "46,78962985",
    "lng": "6,628772987"
  },
  {
    "name": "Groupe AFH Automobiles Forges SA",
    "strasse": "Boulevard des Eplatures 59",
    "plz": 2300,
    "ort": "La Chaux-de-Fonds",
    "marke": "FORD",
    "lat": "47,0842087",
    "lng": "6,7976182"
  },
  {
    "name": "Groupe AFH Automobiles Hauterive SA",
    "strasse": "Rouges-Terres 57",
    "plz": 2068,
    "ort": "Hauterive NE",
    "marke": "NISSAN",
    "lat": "47,01005405",
    "lng": "6,97303085"
  },
  {
    "name": "Garage Grundbacher AG",
    "strasse": "Industrieweg 3",
    "plz": 3426,
    "ort": "Aefligen",
    "marke": "FIAT PROFESSIONAL",
    "lat": "47,09589135",
    "lng": "7,560595228"
  },
  {
    "name": "Grunderco SA",
    "strasse": "rue de la Bergère 26",
    "plz": 1242,
    "ort": "Satigny",
    "marke": "IVECO",
    "lat": "46,2235875",
    "lng": "6,059484619"
  },
  {
    "name": "Grüzenfeld-Garage AG",
    "strasse": "Rudolf-Dieselstrasse 1",
    "plz": 8404,
    "ort": "Winterthur",
    "marke": "KYBURZ",
    "lat": "47,49564025",
    "lng": "8,753339327"
  },
  {
    "name": "Garage Gubler AG",
    "strasse": "Industriestrasse 1",
    "plz": 4654,
    "ort": "Lostorf",
    "marke": "LKW",
    "lat": "47,3720745",
    "lng": "7,94741477"
  },
  {
    "name": "Garage Gut AG",
    "strasse": "Untere Industrie 6",
    "plz": 7304,
    "ort": "Maienfeld",
    "marke": "MAN",
    "lat": "47,0028289",
    "lng": "9,523975601"
  },
  {
    "name": "Moto Güüge GmbH",
    "strasse": "Bouley 5",
    "plz": 1792,
    "ort": "Guschelmuth",
    "marke": "VRBIKES",
    "lat": "46,88087335",
    "lng": "7,137702341"
  },
  {
    "name": "Gysin + Gerspacher AG",
    "strasse": "Hunnenweg 8",
    "plz": 4503,
    "ort": "Solothurn",
    "marke": "FORD",
    "lat": "47,19881815",
    "lng": "7,532025314"
  },
  {
    "name": "Gysin + Gerspacher AG",
    "strasse": "Ringstrasse 21",
    "plz": 4556,
    "ort": "Aeschi SO",
    "marke": "POLESTAR",
    "lat": "47,17802215",
    "lng": "7,657640478"
  },
  {
    "name": "H.P. Senn AG",
    "strasse": "Kasernenstrasse 67",
    "plz": 7007,
    "ort": "Chur",
    "marke": "VOLVO",
    "lat": "46,8469079",
    "lng": "9,5213314"
  },
  {
    "name": "Hächler AG Nutzfahrzeuge",
    "strasse": "Giesserstrasse 1",
    "plz": 5504,
    "ort": "Othmarsingen",
    "marke": "DACIA",
    "lat": "47,4076539",
    "lng": "8,215711943"
  },
  {
    "name": "Halbeisen AG",
    "strasse": "Schneckelerstrasse 14",
    "plz": 4414,
    "ort": "Füllinsdorf",
    "marke": "RENAULT",
    "lat": "47,51494985",
    "lng": "7,720668897"
  },
  {
    "name": "Garage Haltinner AG",
    "strasse": "Oberaustrasse 62",
    "plz": 9453,
    "ort": "Eichberg",
    "marke": "DACIA",
    "lat": "47,3387202",
    "lng": "9,523991037"
  },
  {
    "name": "Hammer Auto Center AG",
    "strasse": "Luzernerstrasse 44",
    "plz": 6045,
    "ort": "Meggen",
    "marke": "RENAULT",
    "lat": "47,04396545",
    "lng": "8,363587439"
  },
  {
    "name": "Erich Hänggi Garage",
    "strasse": "Im See 14",
    "plz": 4208,
    "ort": "Nunningen",
    "marke": "INFINITI",
    "lat": "47,39574205",
    "lng": "7,615435576"
  },
  {
    "name": "Häusermann AG",
    "strasse": "Rohrerstrasse 30",
    "plz": 5000,
    "ort": "Aarau",
    "marke": "MAZDA",
    "lat": "47,39512305",
    "lng": "8,0588417"
  },
  {
    "name": "Häusermann Automobile AG",
    "strasse": "Am Dorfbach 14",
    "plz": 8308,
    "ort": "Illnau",
    "marke": "NISSAN",
    "lat": "47,4120695",
    "lng": "8,722688"
  },
  {
    "name": "Häusermann Automobile AG",
    "strasse": "Bernerstrasse Nord 188",
    "plz": 8064,
    "ort": "Zürich",
    "marke": "MAZDA",
    "lat": "47,3953609",
    "lng": "8,485827512"
  },
  {
    "name": "Häusermann Citygarage AG",
    "strasse": "In Huebwiesen 11",
    "plz": 8600,
    "ort": "Dübendorf",
    "marke": "BMW",
    "lat": "47,40101485",
    "lng": "8,614964396"
  },
  {
    "name": "Häusermann Stadion Garage AG",
    "strasse": "Rapperswilerstrasse 66",
    "plz": 8620,
    "ort": "Wetzikon ZH",
    "marke": "MINI",
    "lat": "47,3145128",
    "lng": "8,7983263"
  },
  {
    "name": "Garage Hediger SA",
    "strasse": "Route d'Italie 35",
    "plz": 1951,
    "ort": "Sion",
    "marke": "BMW",
    "lat": "46,2463218",
    "lng": "7,3879373"
  },
  {
    "name": "Hedin Automotive Chur AG",
    "strasse": "Kasernenstrasse 165",
    "plz": 7007,
    "ort": "Chur",
    "marke": "MINI",
    "lat": "46,8460814",
    "lng": "9,5102194"
  },
  {
    "name": "Hedin Automotive Schweiz AG",
    "strasse": "Hügsamstrasse 2",
    "plz": 8833,
    "ort": "Samstagern",
    "marke": "BMW",
    "lat": "47,1966588",
    "lng": "8,68074167"
  },
  {
    "name": "Hedin Automotive Schweiz AG Zweigniederlassung Dielsdorf",
    "strasse": "Industriestrasse 6",
    "plz": 8157,
    "ort": "Dielsdorf",
    "marke": "CUPRA",
    "lat": "47,4833093",
    "lng": "8,4636207"
  },
  {
    "name": "Hedin Automotive Schweiz AG Zweigniederlassung Wohlen",
    "strasse": "Schützenmattweg 20",
    "plz": 5610,
    "ort": "Wohlen AG",
    "marke": "SEAT",
    "lat": "47,3578079",
    "lng": "8,272181262"
  },
  {
    "name": "Hedin Automotive Widnau AG",
    "strasse": "Unterdorfstrasse 85",
    "plz": 9443,
    "ort": "Widnau",
    "marke": "VOLKSWAGEN",
    "lat": "47,4161739",
    "lng": "9,6341763"
  },
  {
    "name": "Hedin Automotive Widnau AG",
    "strasse": "Schuppisstrasse 9",
    "plz": 9016,
    "ort": "St. Gallen",
    "marke": "VOLKSWAGEN NF",
    "lat": "47,4410691",
    "lng": "9,417421646"
  },
  {
    "name": "Garage M. Heiz AG",
    "strasse": "Motorenstrasse 105",
    "plz": 8620,
    "ort": "Wetzikon ZH",
    "marke": "VOLKSWAGEN",
    "lat": "47,33211345",
    "lng": "8,791019676"
  },
  {
    "name": "Garage Hertach AG",
    "strasse": "Arbonerstrasse 7",
    "plz": 9315,
    "ort": "Neukirch (Egnach)",
    "marke": "VOLKSWAGEN NF",
    "lat": "47,52822915",
    "lng": "9,37129505"
  },
  {
    "name": "Hilfsmittel-Markt GmbH",
    "strasse": "Leenrütimattweg 7",
    "plz": 4704,
    "ort": "Niederbipp",
    "marke": "FIAT",
    "lat": "47,2821539",
    "lng": "7,702227653"
  },
  {
    "name": "Hirn Appenzell AG",
    "strasse": "Gaiserstrasse 151",
    "plz": 9050,
    "ort": "Appenzell",
    "marke": "MITSUBISHI",
    "lat": "47,3479286",
    "lng": "9,4317159"
  },
  {
    "name": "Hirn Balgach AG",
    "strasse": "Hauptstrasse 64",
    "plz": 9436,
    "ort": "Balgach",
    "marke": "ALFA ROMEO",
    "lat": "47,4052558",
    "lng": "9,601744219"
  },
  {
    "name": "Hirn Oberriet AG",
    "strasse": "Staatstrasse 192",
    "plz": 9463,
    "ort": "Oberriet SG",
    "marke": "FIAT",
    "lat": "47,31157391",
    "lng": "9,554943136"
  },
  {
    "name": "Hirsch Automobile AG",
    "strasse": "Teslastrasse 3",
    "plz": 9015,
    "ort": "St. Gallen",
    "marke": "FIAT PROFESSIONAL",
    "lat": "47,41013895",
    "lng": "9,314243771"
  },
  {
    "name": "HKS Fördertechnik AG",
    "strasse": "Alti Ruedelfingerstrass 18",
    "plz": 8460,
    "ort": "Marthalen",
    "marke": "JEEP",
    "lat": "47,6346854",
    "lng": "8,6570806"
  },
  {
    "name": "Garage Hofer AG",
    "strasse": "Weinfelderstrasse 125",
    "plz": 8580,
    "ort": "Amriswil",
    "marke": "POLESTAR",
    "lat": "47,54516686",
    "lng": "9,298733683"
  },
  {
    "name": "hoffmann automobile AG",
    "strasse": "Butthollenring 1-3",
    "plz": 4147,
    "ort": "Aesch BL",
    "marke": "VOLVO",
    "lat": "47,47905",
    "lng": "7,588696033"
  },
  {
    "name": "hoffmann automobil ag",
    "strasse": "Baselstrasse 31",
    "plz": 4222,
    "ort": "Zwingen",
    "marke": "VOYAH",
    "lat": "47,4396964",
    "lng": "7,536266007"
  },
  {
    "name": "hoffmann automobile ag",
    "strasse": "Binningerstrasse 115a",
    "plz": 4123,
    "ort": "Allschwil",
    "marke": "CITROEN",
    "lat": "47,54830045",
    "lng": "7,549587762"
  },
  {
    "name": "hoffmann automobile ag Betrieb Basel",
    "strasse": "Hardstrasse 62",
    "plz": 4052,
    "ort": "Basel",
    "marke": "DS",
    "lat": "47,5499204",
    "lng": "7,6054347"
  },
  {
    "name": "Garage Hollenstein AG",
    "strasse": "Therwilerstrasse 2",
    "plz": 4147,
    "ort": "Aesch BL",
    "marke": "POLESTAR",
    "lat": "47,4792367",
    "lng": "7,5919779"
  },
  {
    "name": "Autogarage Hörhager AG",
    "strasse": "Bernstrasse 8",
    "plz": 3205,
    "ort": "Gümmenen",
    "marke": "VOLVO",
    "lat": "46,9433855",
    "lng": "7,23929108"
  },
  {
    "name": "Garage Otto Howald AG",
    "strasse": "Engestrasse 13",
    "plz": 4500,
    "ort": "Solothurn",
    "marke": "VOYAH",
    "lat": "47,2011336",
    "lng": "7,5469217"
  },
  {
    "name": "Huber Automobile AG",
    "strasse": "Lenzburgerstrasse 8",
    "plz": 5507,
    "ort": "Mellingen",
    "marke": "POLESTAR",
    "lat": "47,4174003",
    "lng": "8,27218418"
  },
  {
    "name": "Huber Nutzfahrzeuge AG",
    "strasse": "Lenzbüel 5",
    "plz": 8370,
    "ort": "Sirnach",
    "marke": "VOLVO",
    "lat": "47,4626841",
    "lng": "9,024527663"
  },
  {
    "name": "Hüsser & Palkoska AG",
    "strasse": "Sihlbruggstrasse 2",
    "plz": 6340,
    "ort": "Baar",
    "marke": "VOLKSWAGEN",
    "lat": "47,1971363",
    "lng": "8,539601"
  },
  {
    "name": "Hutter Auto Riedbach AG",
    "strasse": "Frauenfelderstrasse 9",
    "plz": 8404,
    "ort": "Winterthur",
    "marke": "VOLKSWAGEN NF",
    "lat": "47,5108572",
    "lng": "8,760527719"
  },
  {
    "name": "Hutter Auto Thomi AG",
    "strasse": "Schaffhauserstrasse 6",
    "plz": 8503,
    "ort": "Frauenfeld",
    "marke": "FIAT",
    "lat": "47,5612282",
    "lng": "8,889146749"
  },
  {
    "name": "Hutter Auto Ziel AG",
    "strasse": "Schaffhauserstrasse 131",
    "plz": 8404,
    "ort": "Winterthur",
    "marke": "FIAT PROFESSIONAL",
    "lat": "47,5143294",
    "lng": "8,721151134"
  },
  {
    "name": "Hutter Dynamics AG Schaffhausen",
    "strasse": "Solenbergstrasse 1",
    "plz": 8207,
    "ort": "Schaffhausen",
    "marke": "POLESTAR",
    "lat": "47,713419",
    "lng": "8,65834009"
  },
  {
    "name": "Hutter Dynamics AG",
    "strasse": "Hegmattenstrasse 3",
    "plz": 8404,
    "ort": "Winterthur",
    "marke": "VOLVO",
    "lat": "47,51027055",
    "lng": "8,76056837"
  },
  {
    "name": "HUWAG - NUTZFAHRZEUGE AG",
    "strasse": "Haltelhusstrasse 12",
    "plz": 9402,
    "ort": "Mörschwil",
    "marke": "SKODA",
    "lat": "47,4576347",
    "lng": "9,431933248"
  },
  {
    "name": "Imholz Autohaus AG",
    "strasse": "Sinserstrasse 45",
    "plz": 6330,
    "ort": "Cham",
    "marke": "VOLKSWAGEN",
    "lat": "47,1858167",
    "lng": "8,454038058"
  },
  {
    "name": "Auto Inderbitzin AG",
    "strasse": "Gotthardstrasse 18",
    "plz": 6414,
    "ort": "Oberarth",
    "marke": "VOLKSWAGEN NF",
    "lat": "47,0564996",
    "lng": "8,533172466"
  },
  {
    "name": "Inter-Auto, succursale de Groupe Leuba SA",
    "strasse": "Route d'Ollon 1",
    "plz": 1860,
    "ort": "Aigle",
    "marke": "AUDI",
    "lat": "46,3147711",
    "lng": "6,9661443"
  },
  {
    "name": "Automobiles Jäggi SA",
    "strasse": "Grand-rue 29",
    "plz": 2606,
    "ort": "Corgémont",
    "marke": "SKODA",
    "lat": "47,19369565",
    "lng": "7,14211932"
  },
  {
    "name": "Jost's Töfflade AG",
    "strasse": "Herzogenmühlestrasse 20",
    "plz": 8051,
    "ort": "Zürich",
    "marke": "VOLKSWAGEN",
    "lat": "47,4055742",
    "lng": "8,573217584"
  },
  {
    "name": "Automobile Jud AG",
    "strasse": "Hauptstrasse 107",
    "plz": 5070,
    "ort": "Frick",
    "marke": "VOLKSWAGEN NF",
    "lat": "47,5052246",
    "lng": "8,025559652"
  },
  {
    "name": "Kamoo AG",
    "strasse": "Auwiesenstrasse 1",
    "plz": 8406,
    "ort": "Winterthur",
    "marke": "2-RAD",
    "lat": "47,4842282",
    "lng": "8,710194567"
  },
  {
    "name": "Keigel AG",
    "strasse": "St. Alban-Anlage 72",
    "plz": 4052,
    "ort": "Basel",
    "marke": "HONDA",
    "lat": "47,5525776",
    "lng": "7,6044099"
  },
  {
    "name": "Keigel AG",
    "strasse": "Rheinstrasse 69",
    "plz": 4402,
    "ort": "Frenkendorf",
    "marke": "KYBURZ",
    "lat": "47,5059532",
    "lng": "7,721005185"
  },
  {
    "name": "Renault Füllinsdorf Keigel AG",
    "strasse": "Rheinstrasse 32",
    "plz": 4414,
    "ort": "Füllinsdorf",
    "marke": "VRBIKES",
    "lat": "47,50611625",
    "lng": "7,721693926"
  },
  {
    "name": "Keigel AG",
    "strasse": "Lausenerstrasse 21",
    "plz": 4410,
    "ort": "Liestal",
    "marke": "FORD",
    "lat": "47,475807",
    "lng": "7,749794291"
  },
  {
    "name": "Keigel AG Renault Oberwil",
    "strasse": "Sägestrasse 2",
    "plz": 4104,
    "ort": "Oberwil BL",
    "marke": "MERCEDES-BENZ NF",
    "lat": "47,5116296",
    "lng": "7,5559978"
  },
  {
    "name": "Keigel AG",
    "strasse": "Hohenrainstrasse",
    "plz": 4133,
    "ort": "Pratteln",
    "marke": "CADILLAC",
    "lat": "47,5259672",
    "lng": "7,69424945"
  },
  {
    "name": "Keigel AG",
    "strasse": "Baselstrasse 14",
    "plz": 4222,
    "ort": "Zwingen",
    "marke": "CHEVROLET",
    "lat": "47,4392431",
    "lng": "7,5358288"
  },
  {
    "name": "Kenny's Auto-Center AG Zweigniederlassung Dällikon",
    "strasse": "Buchserstrasse 30",
    "plz": 8108,
    "ort": "Dällikon",
    "marke": "FIAT",
    "lat": "47,445342",
    "lng": "8,439115814"
  },
  {
    "name": "Kenny's Auto-Center AG",
    "strasse": "Landstrasse 189",
    "plz": 5430,
    "ort": "Wettingen",
    "marke": "FIAT PROFESSIONAL",
    "lat": "47,4593397",
    "lng": "8,3421583"
  },
  {
    "name": "Kestenholz Automobil AG NFZ Center",
    "strasse": "Güterstrasse 99",
    "plz": 4133,
    "ort": "Pratteln",
    "marke": "MAZDA",
    "lat": "47,5220776",
    "lng": "7,6722519"
  },
  {
    "name": "H. Kiener AG",
    "strasse": "Riedmattli 5",
    "plz": 6423,
    "ort": "Seewen SZ",
    "marke": "OPEL",
    "lat": "47,0319567",
    "lng": "8,625036898"
  },
  {
    "name": "Garage Kocher AG",
    "strasse": "Vinelzstrasse 50",
    "plz": 3235,
    "ort": "Erlach",
    "marke": "OPEL",
    "lat": "47,0398566",
    "lng": "7,099256406"
  },
  {
    "name": "Garage Kohli SA",
    "strasse": "route des Tioleires 12",
    "plz": 1880,
    "ort": "Bex",
    "marke": "OPEL",
    "lat": "46,24732915",
    "lng": "6,99907585"
  },
  {
    "name": "Kolly Aigle SA",
    "strasse": "Chemin de la Biole 12",
    "plz": 1860,
    "ort": "Aigle",
    "marke": "SUZUKI",
    "lat": "46,3096023",
    "lng": "6,9418214"
  },
  {
    "name": "Kreuchi Auto AG",
    "strasse": "Aengistrasse 20",
    "plz": 4704,
    "ort": "Niederbipp",
    "marke": "CADILLAC",
    "lat": "47,27948505",
    "lng": "7,699556814"
  },
  {
    "name": "Kreuz-Garage E. Bischof AG",
    "strasse": "Trogenerstrasse 1",
    "plz": 9042,
    "ort": "Speicher",
    "marke": "CHEVROLET",
    "lat": "47,40841565",
    "lng": "9,446099009"
  },
  {
    "name": "Kreuz-Garage Willisau AG",
    "strasse": "Ettiswilerstrasse 10",
    "plz": 6130,
    "ort": "Willisau",
    "marke": "DODGE",
    "lat": "47,1230213",
    "lng": "7,994210228"
  },
  {
    "name": "Kreuz-Garage AG Weinfelden",
    "strasse": "Amriswilerstrasse 149",
    "plz": 8570,
    "ort": "Weinfelden",
    "marke": "FIAT",
    "lat": "47,5619688",
    "lng": "9,127784632"
  },
  {
    "name": "Auto-Center Küng AG",
    "strasse": "Landstrasse 148",
    "plz": 5430,
    "ort": "Wettingen",
    "marke": "FIAT PROFESSIONAL",
    "lat": "47,46435685",
    "lng": "8,329770349"
  },
  {
    "name": "Garage Küng AG",
    "strasse": "Landstrasse 53",
    "plz": 5412,
    "ort": "Gebenstorf",
    "marke": "MAZDA",
    "lat": "47,4839257",
    "lng": "8,2420715"
  },
  {
    "name": "Autohaus Küng AG",
    "strasse": "Im Halt 2",
    "plz": 5412,
    "ort": "Gebenstorf",
    "marke": "OPEL",
    "lat": "47,48971615",
    "lng": "8,245940103"
  },
  {
    "name": "Küry Automobile AG",
    "strasse": "Moosstrasse 9",
    "plz": 8803,
    "ort": "Rüschlikon",
    "marke": "LEXUS",
    "lat": "47,3025938",
    "lng": "8,5463282"
  },
  {
    "name": "Kyburz Switzerland AG",
    "strasse": "Stationsstrasse 90",
    "plz": 8424,
    "ort": "Embrach",
    "marke": "MASERATI",
    "lat": "47,5138032",
    "lng": "8,5905686"
  },
  {
    "name": "Kyburz Switzerland AG Servicestelle Zentralschweiz",
    "strasse": "Altsagenstrasse 20",
    "plz": 6048,
    "ort": "Horw",
    "marke": "TOYOTA",
    "lat": "47,00962985",
    "lng": "8,3058302"
  },
  {
    "name": "Kyburz Switzerland AG Servicestelle Jura",
    "strasse": "Clos Donzel 2",
    "plz": 2114,
    "ort": "Fleurier",
    "marke": "JEEP",
    "lat": "46,9049722",
    "lng": "6,5947466"
  },
  {
    "name": "Kyburz Switzerland AG Servicestelle Suisse Romande",
    "strasse": "Route de Denges 28F",
    "plz": 1027,
    "ort": "Lonay",
    "marke": "NISSAN",
    "lat": "46,5272058",
    "lng": "6,5298042"
  },
  {
    "name": "Garage de l`Athénée, André Chevalley SA",
    "strasse": "route de Meyrin 122",
    "plz": 1214,
    "ort": "Vernier",
    "marke": "PEUGEOT",
    "lat": "46,2201667",
    "lng": "6,1052508"
  },
  {
    "name": "L'Etoile Jurassienne, succursale de Groupe Leuba SA",
    "strasse": "Rue Saint-Maurice 2",
    "plz": 2800,
    "ort": "Delémont",
    "marke": "RENAULT",
    "lat": "47,3435315",
    "lng": "7,317351"
  },
  {
    "name": "Garage Lanthemann S.A.",
    "strasse": "chemin des Echelles 1",
    "plz": 2016,
    "ort": "Cortaillod",
    "marke": "DACIA",
    "lat": "46,94336615",
    "lng": "6,8405505"
  },
  {
    "name": "Larag AG Chablais Véhicules Utilitaires",
    "strasse": "Route Boeuferrant-Sud 8",
    "plz": 1870,
    "ort": "Monthey",
    "marke": "RENAULT",
    "lat": "46,2735892",
    "lng": "6,95867675"
  },
  {
    "name": "LARAG AG Langenthal",
    "strasse": "Chasseralstrasse 20",
    "plz": 4900,
    "ort": "Langenthal",
    "marke": "KIA",
    "lat": "47,2165462",
    "lng": "7,765525773"
  },
  {
    "name": "LARAG AG Neftenbach Nutzfahrzeuge",
    "strasse": "Weiachstrasse",
    "plz": 8413,
    "ort": "Neftenbach",
    "marke": "OPEL",
    "lat": "47,5194698",
    "lng": "8,656542"
  },
  {
    "name": "Larag AG Rümlang Nutzfahrzeuge",
    "strasse": "Riedgrabenstrasse 26",
    "plz": 8153,
    "ort": "Rümlang",
    "marke": "SUZUKI",
    "lat": "47,46127775",
    "lng": "8,518892938"
  },
  {
    "name": "Larag AG St. Gallen Nutzfahrzeuge",
    "strasse": "Lerchentalstrasse 6",
    "plz": 9016,
    "ort": "St. Gallen",
    "marke": "CITROEN",
    "lat": "47,44142095",
    "lng": "9,415465265"
  },
  {
    "name": "Larag SA Echandens Véhicules Utilitaires",
    "strasse": "route d'Yverdon 18",
    "plz": 1026,
    "ort": "Echandens",
    "marke": "ABARTH",
    "lat": "46,5347059",
    "lng": "6,548602149"
  },
  {
    "name": "Larag SA Satigny",
    "strasse": "rue de la Bergère 42",
    "plz": 1217,
    "ort": "Meyrin",
    "marke": "FIAT",
    "lat": "46,2217045",
    "lng": "6,0645765"
  },
  {
    "name": "Garage le Parc D' Andrès SA",
    "strasse": "route du Simplon 22",
    "plz": 3960,
    "ort": "Sierre",
    "marke": "SKODA",
    "lat": "46,2959303",
    "lng": "7,539692"
  },
  {
    "name": "Garage Lerch AG Rothrist-Aarau",
    "strasse": "Helblingstrasse 2",
    "plz": 4852,
    "ort": "Rothrist",
    "marke": "2-RAD",
    "lat": "47,30985175",
    "lng": "7,893489073"
  },
  {
    "name": "Les garages Lanthemann S.A",
    "strasse": "Chemin de Praz 10",
    "plz": 1424,
    "ort": "Champagne",
    "marke": "FAHRRAD",
    "lat": "46,82731385",
    "lng": "6,6633289"
  },
  {
    "name": "Honda Automobile Zürich Letzigraben Garage AG",
    "strasse": "Letzigraben 77",
    "plz": 8040,
    "ort": "Zürich",
    "marke": "FLYER",
    "lat": "47,378325",
    "lng": "8,499993604"
  },
  {
    "name": "Garage Nicolas Limat SA",
    "strasse": "Sécheron 1",
    "plz": 1740,
    "ort": "Neyruz FR",
    "marke": "PIAGGIO",
    "lat": "46,771403",
    "lng": "7,069714262"
  },
  {
    "name": "Autocenter Limmattal B. Strebel AG",
    "strasse": "Grindlenstrasse 2",
    "plz": 8954,
    "ort": "Geroldswil",
    "marke": "BMW",
    "lat": "47,4167438",
    "lng": "8,4146957"
  },
  {
    "name": "Lion Automobile AG",
    "strasse": "Bleienbachstrasse 54",
    "plz": 4900,
    "ort": "Langenthal",
    "marke": "BMW",
    "lat": "47,202269",
    "lng": "7,780900567"
  },
  {
    "name": "Lorenz Nutzfahrzeuge AG",
    "strasse": "Kirchbergstrasse 61",
    "plz": 3421,
    "ort": "Lyssach",
    "marke": "MINI",
    "lat": "47,074239",
    "lng": "7,580693431"
  },
  {
    "name": "Lueg AG Zweigniederlassung Kriens",
    "strasse": "Sternmatt 6",
    "plz": 6010,
    "ort": "Kriens",
    "marke": "MINI",
    "lat": "47,02829685",
    "lng": "8,300380766"
  },
  {
    "name": "Lueg AG",
    "strasse": "Spitalstrasse 8",
    "plz": 6004,
    "ort": "Luzern",
    "marke": "VOLKSWAGEN",
    "lat": "47,05945115",
    "lng": "8,301500454"
  },
  {
    "name": "Lueg AG Zweigniederlassung NF Luzern",
    "strasse": "Unterwilrain 16",
    "plz": 6004,
    "ort": "Luzern",
    "marke": "VOLKSWAGEN NF",
    "lat": "47,0489684",
    "lng": "8,271809974"
  },
  {
    "name": "Lueg AG Zweigniederlassung Sursee",
    "strasse": "Sandgruebestrasse 2",
    "plz": 6210,
    "ort": "Sursee",
    "marke": "GOUPIL",
    "lat": "47,17706975",
    "lng": "8,11006845"
  },
  {
    "name": "LUEG AG, Zweigniederlassung Langenthal",
    "strasse": "Schulhausstrasse 24",
    "plz": 4900,
    "ort": "Langenthal",
    "marke": "KLINGLER",
    "lat": "47,21203995",
    "lng": "7,78426507"
  },
  {
    "name": "Lustenberger Lehnhofgarage AG",
    "strasse": "Renggstrasse 2",
    "plz": 6162,
    "ort": "Entlebuch",
    "marke": "NISSAN",
    "lat": "46,99844185",
    "lng": "8,069511084"
  },
  {
    "name": "Garage Lüthi Ins GmbH",
    "strasse": "Müntschemiergasse 56",
    "plz": 3232,
    "ort": "Ins",
    "marke": "OPEL",
    "lat": "47,0041295",
    "lng": "7,114861468"
  },
  {
    "name": "M. Bobnar AG Ford Hauptvertretung",
    "strasse": "Industriestrasse Ost 9",
    "plz": 4614,
    "ort": "Hägendorf",
    "marke": "2-RAD",
    "lat": "47,33619035",
    "lng": "7,85251871"
  },
  {
    "name": "Maurice Montavon S.A.",
    "strasse": "route de Delémont 41",
    "plz": 2802,
    "ort": "Develier",
    "marke": "DREIRAD",
    "lat": "47,3603393",
    "lng": "7,3034339"
  },
  {
    "name": "M.S.R Sàrl",
    "strasse": "Route du Bois de Bay 16",
    "plz": 1242,
    "ort": "Satigny",
    "marke": "KYBURZ",
    "lat": "46,2003894",
    "lng": "6,064115"
  },
  {
    "name": "Maillard Monthey SA",
    "strasse": "Les Ilettes",
    "plz": 1870,
    "ort": "Monthey",
    "marke": "VRBIKES",
    "lat": "46,2468867",
    "lng": "6,9651251"
  },
  {
    "name": "MAN Truck & Bus Suisse SA Succursale de Bussigny",
    "strasse": "Chemin de la Venoge 1",
    "plz": 1030,
    "ort": "Bussigny",
    "marke": "PEUGEOT",
    "lat": "46,55013525",
    "lng": "6,542574695"
  },
  {
    "name": "MAN Truck & Bus Schweiz AG Zweigniederlassung Volketswil",
    "strasse": "Im Chies 23",
    "plz": 8604,
    "ort": "Volketswil",
    "marke": "ABARTH",
    "lat": "47,38485085",
    "lng": "8,696105507"
  },
  {
    "name": "mandelaugen group GmbH",
    "strasse": "Lidostrasse 5",
    "plz": 6006,
    "ort": "Luzern",
    "marke": "ALFA ROMEO",
    "lat": "47,05275305",
    "lng": "8,33663631"
  },
  {
    "name": "Garage Benoit Marchon",
    "strasse": "route de Payerne 2",
    "plz": 1482,
    "ort": "Cugy FR",
    "marke": "FIAT",
    "lat": "46,8154233",
    "lng": "6,8950143"
  },
  {
    "name": "Garage Marti AG Niedergösgen",
    "strasse": "Oltnerstrasse 45",
    "plz": 5013,
    "ort": "Niedergösgen",
    "marke": "FIAT PROFESSIONAL",
    "lat": "47,3702686",
    "lng": "7,982021023"
  },
  {
    "name": "Maurice Chapatte SA",
    "strasse": "Route de Courroux 39",
    "plz": 2824,
    "ort": "Vicques",
    "marke": "JEEP",
    "lat": "47,3520484",
    "lng": "7,4018758"
  },
  {
    "name": "Maurice Montavon SA Automobiles Olivotti",
    "strasse": "Route de Courtedoux 26",
    "plz": 2900,
    "ort": "Porrentruy",
    "marke": "SUBARU",
    "lat": "47,4123044",
    "lng": "7,0634489"
  },
  {
    "name": "Max Jung AG",
    "strasse": "Eisenbahnstrasse 62",
    "plz": 3645,
    "ort": "Gwatt (Thun)",
    "marke": "OPEL",
    "lat": "46,7237422",
    "lng": "7,620534134"
  },
  {
    "name": "Mayer AG Garage Carrosserie",
    "strasse": "Oberaustrasse 2",
    "plz": 7203,
    "ort": "Trimmis",
    "marke": "SUBARU",
    "lat": "46,91891055",
    "lng": "9,560313558"
  },
  {
    "name": "MB Auto Center Zug AG",
    "strasse": "Sennweidstrasse 28",
    "plz": 6312,
    "ort": "Steinhausen",
    "marke": "ABARTH",
    "lat": "47,1911131",
    "lng": "8,480553"
  },
  {
    "name": "Autocenter Mels AG",
    "strasse": "Zeughausstrasse 18",
    "plz": 8887,
    "ort": "Mels",
    "marke": "ALFA ROMEO",
    "lat": "47,05553575",
    "lng": "9,411133881"
  },
  {
    "name": "Mercedes-Benz Automobil  AG",
    "strasse": "Zürcherstrasse 109",
    "plz": 8952,
    "ort": "Schlieren",
    "marke": "FIAT",
    "lat": "47,39760945",
    "lng": "8,461897363"
  },
  {
    "name": "Mercedes-Benz Automobil AG Zweigniederlassung Aarburg",
    "strasse": "Oltnerstrasse 85",
    "plz": 4663,
    "ort": "Aarburg",
    "marke": "FIAT PROFESSIONAL",
    "lat": "47,3315144",
    "lng": "7,9051293"
  },
  {
    "name": "Mercedes-Benz Automobil AG",
    "strasse": "Zürichstrasse 78",
    "plz": 8134,
    "ort": "Adliswil",
    "marke": "JEEP",
    "lat": "47,32381985",
    "lng": "8,530333464"
  },
  {
    "name": "Mercedes-Benz Automobil AG Zweigniederlassung Aegerten",
    "strasse": "Alte Bernstrasse 34",
    "plz": 2558,
    "ort": "Aegerten",
    "marke": "RENAULT",
    "lat": "47,11762445",
    "lng": "7,292161606"
  },
  {
    "name": "Mercedes-Benz Automobil AG Zweigniederlassung Bellach",
    "strasse": "Römerstrasse 18",
    "plz": 4512,
    "ort": "Bellach",
    "marke": "CUPRA",
    "lat": "47,21263745",
    "lng": "7,512445096"
  },
  {
    "name": "Mercedes-Benz Automobiles SA Succursale Bulle",
    "strasse": "Chemin de Champ-Francey 140",
    "plz": 1630,
    "ort": "Bulle",
    "marke": "RENAULT",
    "lat": "46,6302071",
    "lng": "7,060128399"
  },
  {
    "name": "Mercedes-Benz Automobili SA Succursale Mendrisio",
    "strasse": "via Borromini 5",
    "plz": 6850,
    "ort": "Mendrisio",
    "marke": "SEAT",
    "lat": "45,87293325",
    "lng": "8,978701504"
  },
  {
    "name": "Mercedes-Benz Automobil AG Zweigniederlassung Neuendorf",
    "strasse": "Industriestrasse 23",
    "plz": 4623,
    "ort": "Neuendorf",
    "marke": "VOLKSWAGEN",
    "lat": "47,3130728",
    "lng": "7,786253233"
  },
  {
    "name": "Mercedes-Benz Automobil AG Zweigniederlassung NF Bern-Bümpliz",
    "strasse": "Freiburgstrasse 335",
    "plz": 3018,
    "ort": "Bern",
    "marke": "PEUGEOT",
    "lat": "46,937257",
    "lng": "7,395991121"
  },
  {
    "name": "Mercedes-Benz Automobiles SA Succursale véhicules utilitaires Granges-Paccot Granges-Paccot",
    "strasse": "Route du Lac 6",
    "plz": 1763,
    "ort": "Granges-Paccot",
    "marke": "CHEVROLET",
    "lat": "46,82376985",
    "lng": "7,1515096"
  },
  {
    "name": "Mercedes-Benz Automobil AG Zweigniederlassung NF Schlieren",
    "strasse": "Goldschlägistrasse 19",
    "plz": 8952,
    "ort": "Schlieren",
    "marke": "HYUNDAI",
    "lat": "47,4015267",
    "lng": "8,438163562"
  },
  {
    "name": "Mercedes-Benz Automobiles SA Succursale voitures particulières Granges-Paccot Granges-Paccot (Fribourg)",
    "strasse": "Route d'Englisberg 4",
    "plz": 1763,
    "ort": "Granges-Paccot",
    "marke": "OPEL",
    "lat": "46,82811545",
    "lng": "7,150178852"
  },
  {
    "name": "Mercedes-Benz Automobil AG Zweigniederlassung Rohr",
    "strasse": "Hauptstrasse 104",
    "plz": 5032,
    "ort": "Aarau Rohr",
    "marke": "SUZUKI",
    "lat": "47,4046542",
    "lng": "8,0944537"
  },
  {
    "name": "Mercedes Benz Automobil AG Zweigniederlassung Stäfa",
    "strasse": "Seestrasse 153",
    "plz": 8712,
    "ort": "Stäfa",
    "marke": "MOUSTACHE",
    "lat": "47,2346316",
    "lng": "8,735060264"
  },
  {
    "name": "Mercedes-Benz Automobil AG Zweigniederlassung Thun",
    "strasse": "Gwattstrasse 18",
    "plz": 3604,
    "ort": "Thun",
    "marke": "PIAGGIO",
    "lat": "46,7383719",
    "lng": "7,626854018"
  },
  {
    "name": "Mercedes-Benz Automobil AG Zweigniederlassung Uetendorf",
    "strasse": "Industriestrasse 15",
    "plz": 3661,
    "ort": "Uetendorf",
    "marke": "SUBARU",
    "lat": "46,77722595",
    "lng": "7,579520562"
  },
  {
    "name": "Mercedes-Benz Automobili SA Succursale Vezia",
    "strasse": "Via Kosciuszko 1",
    "plz": 6943,
    "ort": "Vezia",
    "marke": "VOLVO",
    "lat": "46,0293963",
    "lng": "8,9382664"
  },
  {
    "name": "Mercedes-Benz Automobil AG Zweigniederlassung Wettingen",
    "strasse": "Otelfingerstrasse 44",
    "plz": 5430,
    "ort": "Wettingen",
    "marke": "MAN",
    "lat": "47,4583687",
    "lng": "8,3463798"
  },
  {
    "name": "Mercedes-Benz Automobil AG Zweigniederlassung Winterthur",
    "strasse": "Ohrbühlstrasse 37",
    "plz": 8409,
    "ort": "Winterthur",
    "marke": "LKW",
    "lat": "47,500484",
    "lng": "8,767546282"
  },
  {
    "name": "Mercedes-Benz Automobil AG Zweigniederlassung Zollikon",
    "strasse": "Rotfluhstrasse 54",
    "plz": 8702,
    "ort": "Zollikon",
    "marke": "DACIA",
    "lat": "47,34307685",
    "lng": "8,57659571"
  },
  {
    "name": "Mercedes-Benz Automobil AG Zweigniederlassung Zürich-Nord",
    "strasse": "Hagenholzstrasse 111",
    "plz": 8050,
    "ort": "Zürich",
    "marke": "POLESTAR",
    "lat": "47,41580415",
    "lng": "8,562736022"
  },
  {
    "name": "Mercedes-Benz Automobil AG Zweigniederlassung Zürich-Seefeld",
    "strasse": "Färberstrasse 6",
    "plz": 8008,
    "ort": "Zürich",
    "marke": "RENAULT",
    "lat": "47,36161445",
    "lng": "8,54865099"
  },
  {
    "name": "Mercedes-Benz Automobili SA",
    "strasse": "Via Pian Scairolo 31",
    "plz": 6915,
    "ort": "Pambio-Noranco",
    "marke": "VOLVO",
    "lat": "45,98096565",
    "lng": "8,92991485"
  },
  {
    "name": "GARAGE ET CARROSSERIE MISTRAL MARTIGNY SA",
    "strasse": "Avenue des Grandes-Maresches 102",
    "plz": 1920,
    "ort": "Martigny",
    "marke": "AUDI",
    "lat": "46,1126895",
    "lng": "7,0892005"
  },
  {
    "name": "Garage Moderne Epalinges SA",
    "strasse": "Route de Berne 217",
    "plz": 1066,
    "ort": "Epalinges",
    "marke": "VOLKSWAGEN",
    "lat": "46,5497345",
    "lng": "6,676219149"
  },
  {
    "name": "Mon Repos Automobile, succursale de Groupe Leuba SA",
    "strasse": "rue Etraz 14",
    "plz": 1003,
    "ort": "Lausanne",
    "marke": "VOLKSWAGEN NF",
    "lat": "46,5190403",
    "lng": "6,63943373"
  },
  {
    "name": "Moncor Automobiles SA",
    "strasse": "route de Chandolan 6",
    "plz": 1752,
    "ort": "Villars-sur-Glâne",
    "marke": "IVECO",
    "lat": "46,8013971",
    "lng": "7,118970907"
  },
  {
    "name": "Garage  J. Montavon SA",
    "strasse": "Rue Xavier-Stockmar 8",
    "plz": 2900,
    "ort": "Porrentruy",
    "marke": "LKW",
    "lat": "47,42165545",
    "lng": "7,078602563"
  },
  {
    "name": "Garage-Carrosserie Moser AG",
    "strasse": "Aspstrasse 4",
    "plz": 8472,
    "ort": "Seuzach",
    "marke": "MAN",
    "lat": "47,5281878",
    "lng": "8,708365293"
  },
  {
    "name": "MOTO FUCHS AG",
    "strasse": "Ottenbacherstrasse 25",
    "plz": 8912,
    "ort": "Obfelden",
    "marke": "RENAULT TRUCKS",
    "lat": "47,26730035",
    "lng": "8,423555121"
  },
  {
    "name": "Moto Strahm AG",
    "strasse": "Unterdorfstrasse 16",
    "plz": 4934,
    "ort": "Madiswil",
    "marke": "DACIA",
    "lat": "47,1663441",
    "lng": "7,797086"
  },
  {
    "name": "MRS Maschinen + Reparaturservice GmbH",
    "strasse": "Querstrasse 2",
    "plz": 8108,
    "ort": "Dällikon",
    "marke": "RENAULT",
    "lat": "47,4468216",
    "lng": "8,4297831"
  },
  {
    "name": "Müller Grynau-Garage AG Herrn Müller Leo",
    "strasse": "Grynaustrasse 21",
    "plz": 8730,
    "ort": "Uznach",
    "marke": "RENAULT",
    "lat": "47,2236734",
    "lng": "8,9829193"
  },
  {
    "name": "Multimotor Garage AG",
    "strasse": "Glarnerstrasse 94",
    "plz": 8854,
    "ort": "Siebnen",
    "marke": "KIA",
    "lat": "47,175739",
    "lng": "8,9135252"
  },
  {
    "name": "Muota-Garage GmbH",
    "strasse": "Erlenstrasse 4",
    "plz": 6438,
    "ort": "Ibach",
    "marke": "MITSUBISHI",
    "lat": "47,0104302",
    "lng": "8,641531322"
  },
  {
    "name": "Muzzarelli und Leuch AG",
    "strasse": "Hauptstrasse 26",
    "plz": 7240,
    "ort": "Küblis",
    "marke": "RENAULT",
    "lat": "46,9140795",
    "lng": "9,7849683"
  },
  {
    "name": "Nef Truckcenter AG",
    "strasse": "Flachsackerstrasse 10",
    "plz": 4402,
    "ort": "Frenkendorf",
    "marke": "SKODA",
    "lat": "47,51463625",
    "lng": "7,718580261"
  },
  {
    "name": "Neff AG Flawil Automobile",
    "strasse": "Wilerstrasse 247-249",
    "plz": 9230,
    "ort": "Flawil",
    "marke": "VOLKSWAGEN",
    "lat": "47,4172032",
    "lng": "9,1677523"
  },
  {
    "name": "Garage Nepple AG Pratteln",
    "strasse": "Hohenrainstrasse 5",
    "plz": 4133,
    "ort": "Pratteln",
    "marke": "VOLKSWAGEN NF",
    "lat": "47,5254255",
    "lng": "7,6907774"
  },
  {
    "name": "Garage Nepple AG Basel",
    "strasse": "Netzibodenstrasse 21",
    "plz": 4133,
    "ort": "Pratteln",
    "marke": "HONDA",
    "lat": "47,5318346",
    "lng": "7,7031457"
  },
  {
    "name": "Garage Nepple AG",
    "strasse": "Industriestrasse 30 A",
    "plz": 4415,
    "ort": "Lausen",
    "marke": "POLESTAR",
    "lat": "47,4694957",
    "lng": "7,760903163"
  },
  {
    "name": "Neue Centrum Garage AG",
    "strasse": "Landstrasse 62/64",
    "plz": 5436,
    "ort": "Würenlos",
    "marke": "VOLVO",
    "lat": "47,4539436",
    "lng": "8,3489598"
  },
  {
    "name": "Garage Neuhof AG",
    "strasse": "Industrie Neuhof 10",
    "plz": 3422,
    "ort": "Kirchberg BE",
    "marke": "SKODA",
    "lat": "47,0946382",
    "lng": "7,57153375"
  },
  {
    "name": "Neuhof Garage Frei GmbH",
    "strasse": "Wilerstrasse 48",
    "plz": 9542,
    "ort": "Münchwilen TG",
    "marke": "VOLKSWAGEN",
    "lat": "47,4738378",
    "lng": "9,0034247"
  },
  {
    "name": "NH Automobiles",
    "strasse": "Grand-Rue 101",
    "plz": 1110,
    "ort": "Morges",
    "marke": "VOLKSWAGEN NF",
    "lat": "46,5075968",
    "lng": "6,4967102"
  },
  {
    "name": "Nidfeld-Garage AG",
    "strasse": "Arsenalstrasse 35",
    "plz": 6010,
    "ort": "Kriens",
    "marke": "AUDI",
    "lat": "47,0352926",
    "lng": "8,29651935"
  },
  {
    "name": "Nord-Garage AG Ohringen",
    "strasse": "Erlenstrasse 24",
    "plz": 8472,
    "ort": "Ohringen",
    "marke": "VOLKSWAGEN",
    "lat": "47,52550255",
    "lng": "8,714006976"
  },
  {
    "name": "Garage Nordstern AG",
    "strasse": "Güterstrasse 10",
    "plz": 8245,
    "ort": "Feuerthalen",
    "marke": "ISUZU",
    "lat": "47,6911016",
    "lng": "8,645089512"
  },
  {
    "name": "Nutzfahrzeug AG, Zentralschweiz",
    "strasse": "Bahnhofstrasse 17",
    "plz": 6056,
    "ort": "Kägiswil",
    "marke": "CITROEN",
    "lat": "46,9122007",
    "lng": "8,257098118"
  },
  {
    "name": "Nutzfahrzeug AG Zentralschweiz",
    "strasse": "Hasliring 18",
    "plz": 6032,
    "ort": "Emmen",
    "marke": "JEEP",
    "lat": "47,0862271",
    "lng": "8,310683978"
  },
  {
    "name": "Obersee Garage AG",
    "strasse": "Rapperswilerstrasse 17",
    "plz": 8733,
    "ort": "Eschenbach SG",
    "marke": "VOLKSWAGEN",
    "lat": "47,23806865",
    "lng": "8,920780407"
  },
  {
    "name": "Autocorner J.-C. & C. Oberson S.A.",
    "strasse": "route de Neuchâtel 4",
    "plz": 1032,
    "ort": "Romanel-sur-Lausanne",
    "marke": "VOLKSWAGEN NF",
    "lat": "46,5705309",
    "lng": "6,6058299"
  },
  {
    "name": "Autocorner J.-C. & C. Oberson S.A.",
    "strasse": "Route de Lavaux 105",
    "plz": 1095,
    "ort": "Lutry",
    "marke": "ISUZU",
    "lat": "46,5045742",
    "lng": "6,6820679"
  },
  {
    "name": "Off Road Shop Metzler GmbH",
    "strasse": "Zürcherstrasse 330",
    "plz": 8500,
    "ort": "Frauenfeld",
    "marke": "AUDI",
    "lat": "47,56607705",
    "lng": "8,913319903"
  },
  {
    "name": "Garage Olympia Imhof Edi GmbH",
    "strasse": "Kantonsstrasse 2",
    "plz": 3902,
    "ort": "Glis",
    "marke": "VOLKSWAGEN",
    "lat": "46,3091539",
    "lng": "7,971351116"
  },
  {
    "name": "Garage Olympic A. Antille Sion SA",
    "strasse": "Route des Carolins 3",
    "plz": 1950,
    "ort": "Sion",
    "marke": "VOLKSWAGEN NF",
    "lat": "46,2206968",
    "lng": "7,3616009"
  },
  {
    "name": "Garage Olympic SA Agence Volkswagen Sierre",
    "strasse": "avenue de France 52",
    "plz": 3960,
    "ort": "Sierre",
    "marke": "CITROEN",
    "lat": "46,2885477",
    "lng": "7,5212656"
  },
  {
    "name": "Garage Olympic SA Agence Partenaire Service Audi Martigny",
    "strasse": "Rue du Levant 149",
    "plz": 1920,
    "ort": "Martigny",
    "marke": "HYUNDAI",
    "lat": "46,1032102",
    "lng": "7,0903035"
  },
  {
    "name": "Garage Olympic SA",
    "strasse": "Rte du Levant 151",
    "plz": 1920,
    "ort": "Martigny",
    "marke": "DACIA",
    "lat": "46,09808978",
    "lng": "7,079813514"
  },
  {
    "name": "Garage Olympic SA",
    "strasse": "Route d'Aproz 4",
    "plz": 1950,
    "ort": "Sion",
    "marke": "HYUNDAI",
    "lat": "46,219374",
    "lng": "7,3426981"
  },
  {
    "name": "Orpundgarage Biel AG",
    "strasse": "Orpundstrasse 77",
    "plz": 2501,
    "ort": "Biel/Bienne",
    "marke": "PORSCHE",
    "lat": "47,1461319",
    "lng": "7,2732879"
  },
  {
    "name": "Garage Ozelley AG",
    "strasse": "Erlenauweg 5c",
    "plz": 3110,
    "ort": "Münsingen",
    "marke": "RENAULT",
    "lat": "46,86969705",
    "lng": "7,560087255"
  },
  {
    "name": "Garage E. Pafumi",
    "strasse": "Wiesenweg 45",
    "plz": 5102,
    "ort": "Rupperswil",
    "marke": "DACIA",
    "lat": "47,40839705",
    "lng": "8,141414996"
  },
  {
    "name": "Pargger AG",
    "strasse": "Riedenmatt 5",
    "plz": 6370,
    "ort": "Stans",
    "marke": "RENAULT",
    "lat": "46,96456805",
    "lng": "8,384483148"
  },
  {
    "name": "Park Garage AG Hauptsitz",
    "strasse": "Seestrasse 47",
    "plz": 8800,
    "ort": "Thalwil",
    "marke": "SKODA",
    "lat": "47,2865906",
    "lng": "8,574978539"
  },
  {
    "name": "Park Garage AG Zweigniederlassung Küsnacht (ZH)",
    "strasse": "Seestrasse 115",
    "plz": 8700,
    "ort": "Küsnacht ZH",
    "marke": "VOLKSWAGEN",
    "lat": "47,32000225",
    "lng": "8,579152431"
  },
  {
    "name": "Garage Kunz Automobile AG",
    "strasse": "Worbstrasse 170",
    "plz": 3073,
    "ort": "Gümligen",
    "marke": "VOLKSWAGEN NF",
    "lat": "46,9345214",
    "lng": "7,50055107"
  },
  {
    "name": "Pfingstweid Truck Center AG",
    "strasse": "Heimstrasse 45",
    "plz": 8953,
    "ort": "Dietikon",
    "marke": "2-RAD",
    "lat": "47,412915",
    "lng": "8,4016717"
  },
  {
    "name": "Auto Pfister AG",
    "strasse": "San Bastiaun 55",
    "plz": 7503,
    "ort": "Samedan",
    "marke": "KYBURZ",
    "lat": "46,5295065",
    "lng": "9,86732"
  },
  {
    "name": "Piaggiorama  AG",
    "strasse": "Johann-Verresius-Strasse 16",
    "plz": 2502,
    "ort": "Biel/Bienne",
    "marke": "VRBIKES",
    "lat": "47,13237785",
    "lng": "7,245806761"
  },
  {
    "name": "Garage de la Pierre-à-Voir SA",
    "strasse": "route du Simplon 7",
    "plz": 1907,
    "ort": "Saxon",
    "marke": "DACIA",
    "lat": "46,1518727",
    "lng": "7,1793873"
  },
  {
    "name": "Pierre Steulet Neuchâtel SA",
    "strasse": "Rue Louis-Joseph-Chevrolet 55",
    "plz": 2300,
    "ort": "La Chaux-de-Fonds",
    "marke": "RENAULT",
    "lat": "47,0833511",
    "lng": "6,803007147"
  },
  {
    "name": "PP Autotreff AG",
    "strasse": "Arbonerstrasse 19",
    "plz": 9300,
    "ort": "Wittenbach",
    "marke": "2-RAD",
    "lat": "47,4624186",
    "lng": "9,3941707"
  },
  {
    "name": "Procar Davos AG",
    "strasse": "Prättigauerstrasse 12",
    "plz": 7265,
    "ort": "Davos Wolfgang",
    "marke": "KYBURZ",
    "lat": "46,8251045",
    "lng": "9,8541541"
  },
  {
    "name": "Garage Proietti SA",
    "strasse": "boulevard des Eplatures 51",
    "plz": 2304,
    "ort": "La Chaux-de-Fonds",
    "marke": "VRBIKES",
    "lat": "47,0850362",
    "lng": "6,799623799"
  },
  {
    "name": "Garage Urs Räbmatter",
    "strasse": "Grossmattenstrasse 1",
    "plz": 4813,
    "ort": "Uerkheim",
    "marke": "DACIA",
    "lat": "47,3056495",
    "lng": "8,019247652"
  },
  {
    "name": "Radsport Limacher Limacher Hanspeter",
    "strasse": "Bahnhofstrasse 39",
    "plz": 6244,
    "ort": "Nebikon",
    "marke": "RENAULT",
    "lat": "47,1887597",
    "lng": "7,9758112"
  },
  {
    "name": "Rattin AG",
    "strasse": "Zollstrasse 95",
    "plz": 8212,
    "ort": "Neuhausen am Rheinfall",
    "marke": "OPEL",
    "lat": "47,67523065",
    "lng": "8,599759043"
  },
  {
    "name": "Riantbosson Automobiles Meyrin Sàrl",
    "strasse": "chemin Riantbosson 12",
    "plz": 1217,
    "ort": "Meyrin",
    "marke": "ABARTH",
    "lat": "46,2263782",
    "lng": "6,085830021"
  },
  {
    "name": "RECAM SA",
    "strasse": "route de Soleure 4",
    "plz": 2072,
    "ort": "St-Blaise",
    "marke": "AIWAYS",
    "lat": "47,0127771",
    "lng": "6,990572185"
  },
  {
    "name": "Garage Reichlin AG",
    "strasse": "Grepperstrasse 86-92",
    "plz": 6403,
    "ort": "Küssnacht am Rigi",
    "marke": "ALFA ROMEO",
    "lat": "47,07161757",
    "lng": "8,437864739"
  },
  {
    "name": "RH Auto Service AG",
    "strasse": "Wohlerstrasse 6",
    "plz": 5612,
    "ort": "Villmergen",
    "marke": "FIAT",
    "lat": "47,34466285",
    "lng": "8,246066241"
  },
  {
    "name": "RH Auto-Service Lenzburg AG",
    "strasse": "Aarauerstrasse 35",
    "plz": 5600,
    "ort": "Lenzburg",
    "marke": "FIAT PROFESSIONAL",
    "lat": "47,3869482",
    "lng": "8,166894179"
  },
  {
    "name": "Ritter Automobile AG",
    "strasse": "Sägeweg 15",
    "plz": 4452,
    "ort": "Itingen",
    "marke": "PEUGEOT",
    "lat": "47,47027915",
    "lng": "7,781177798"
  },
  {
    "name": "RM Autos SA",
    "strasse": "Rue Auguste-Quiquerez 36",
    "plz": 2800,
    "ort": "Delémont",
    "marke": "CITROEN",
    "lat": "47,3673684",
    "lng": "7,3582787"
  },
  {
    "name": "Robert Huber AG",
    "strasse": "Mülligerstrasse",
    "plz": 5210,
    "ort": "Windisch",
    "marke": "DS",
    "lat": "47,47109969",
    "lng": "8,228292134"
  },
  {
    "name": "Garage Rod SA",
    "strasse": "Rte de Lausanne 33",
    "plz": 1610,
    "ort": "Oron-la-Ville",
    "marke": "MERCEDES",
    "lat": "46,570893",
    "lng": "6,818605283"
  },
  {
    "name": "Rolf Aebi & Co.",
    "strasse": "Bahnhofstrasse 9",
    "plz": 6403,
    "ort": "Küssnacht am Rigi",
    "marke": "PEUGEOT",
    "lat": "47,08162255",
    "lng": "8,43952765"
  },
  {
    "name": "Rollerbude Thun GmbH",
    "strasse": "Grabenstrasse 4",
    "plz": 3600,
    "ort": "Thun",
    "marke": "stop+go",
    "lat": "46,7616658",
    "lng": "7,6277986"
  },
  {
    "name": "Römergarage AG",
    "strasse": "Hauptstrasse 127",
    "plz": 5070,
    "ort": "Frick",
    "marke": "SUZUKI",
    "lat": "47,50342515",
    "lng": "8,0300866"
  },
  {
    "name": "Garage Röschmann AG",
    "strasse": "Berglistrasse 14",
    "plz": 8750,
    "ort": "Glarus",
    "marke": "MERCEDES",
    "lat": "47,04477815",
    "lng": "9,059112704"
  },
  {
    "name": "Rottal Auto AG",
    "strasse": "Rütmattstrasse 2",
    "plz": 6017,
    "ort": "Ruswil",
    "marke": "MERCEDES-BENZ NF",
    "lat": "47,078454",
    "lng": "8,136744627"
  },
  {
    "name": "RRG SUISSE SA",
    "strasse": "Route de Reculan 11",
    "plz": 1024,
    "ort": "Ecublens VD",
    "marke": "MERCEDES",
    "lat": "46,53772025",
    "lng": "6,553562175"
  },
  {
    "name": "RRG SUISSE SA Niederlassung Zürich",
    "strasse": "Badenerstrasse 330",
    "plz": 8004,
    "ort": "Zürich",
    "marke": "MERCEDES-BENZ NF",
    "lat": "47,3782914",
    "lng": "8,5119425"
  },
  {
    "name": "RRG SUISSE SA Succursale Lausanne",
    "strasse": "avenue de Morges 7",
    "plz": 1004,
    "ort": "Lausanne",
    "marke": "POLESTAR",
    "lat": "46,5238834",
    "lng": "6,62113064"
  },
  {
    "name": "RRG SUISSE SA Succursale Marly",
    "strasse": "route de Fribourg 13",
    "plz": 1723,
    "ort": "Marly",
    "marke": "SMART",
    "lat": "46,78206075",
    "lng": "7,148174478"
  },
  {
    "name": "RRG SUISSE SA Niederlassung Glattpark",
    "strasse": "Thurgauerstrasse 103",
    "plz": 8152,
    "ort": "Glattpark (Opfikon) ",
    "marke": "CITROEN",
    "lat": "47,424633",
    "lng": "8,5598648"
  },
  {
    "name": "RRG SUISSE SA Succursale Nyon",
    "strasse": "route de Duillier 6",
    "plz": 1260,
    "ort": "Nyon",
    "marke": "ABARTH",
    "lat": "46,3942563",
    "lng": "6,2363554"
  },
  {
    "name": "RRG SUISSE SA Succursale Plan-les-Ouates",
    "strasse": "route de St-Julien 180",
    "plz": 1228,
    "ort": "Plan-les-Ouates",
    "marke": "ALFA ROMEO",
    "lat": "46,16623575",
    "lng": "6,112062881"
  },
  {
    "name": "Rutishauser Automobile AG",
    "strasse": "Hauptstrasse 119",
    "plz": 8274,
    "ort": "Tägerwilen",
    "marke": "FIAT",
    "lat": "47,6592585",
    "lng": "9,123737"
  },
  {
    "name": "Rutishauser Automobile AG",
    "strasse": "Egelseestrasse 49",
    "plz": 8280,
    "ort": "Kreuzlingen",
    "marke": "DACIA",
    "lat": "47,64305585",
    "lng": "9,1827256"
  },
  {
    "name": "Rütli Garage AG",
    "strasse": "Zipfelwiesenstrasse 5",
    "plz": 8305,
    "ort": "Dietlikon",
    "marke": "RENAULT",
    "lat": "47,4156643",
    "lng": "8,61857995"
  },
  {
    "name": "S. Flückiger AG",
    "strasse": "Huttwilstrasse 58",
    "plz": 4944,
    "ort": "Auswil",
    "marke": "ISUZU",
    "lat": "47,1283195",
    "lng": "7,825623169"
  },
  {
    "name": "S. Flückiger AG",
    "strasse": "Bleienbachstrasse 54",
    "plz": 4900,
    "ort": "Langenthal",
    "marke": "KIA",
    "lat": "47,202269",
    "lng": "7,780900567"
  },
  {
    "name": "Scania Schweiz AG",
    "strasse": "Buholzstrasse 6",
    "plz": 6032,
    "ort": "Emmen",
    "marke": "OPEL",
    "lat": "47,0842441",
    "lng": "8,31178541"
  },
  {
    "name": "Scania Schweiz AG",
    "strasse": "Ikarusstrasse 6",
    "plz": 9015,
    "ort": "St. Gallen",
    "marke": "DACIA",
    "lat": "47,40469455",
    "lng": "9,3049231"
  },
  {
    "name": "Scania Schweiz AG",
    "strasse": "Felsenaustrasse 49",
    "plz": 7000,
    "ort": "Chur",
    "marke": "RENAULT",
    "lat": "46,8599732",
    "lng": "9,509301862"
  },
  {
    "name": "Scania Schweiz AG",
    "strasse": "Zürcherstrasse 334",
    "plz": 8500,
    "ort": "Frauenfeld",
    "marke": "2-RAD",
    "lat": "47,5665972",
    "lng": "8,914319285"
  },
  {
    "name": "Scania Schweiz AG",
    "strasse": "Steinackerstrasse 57",
    "plz": 8302,
    "ort": "Kloten",
    "marke": "DREIRAD",
    "lat": "47,44759995",
    "lng": "8,605785049"
  },
  {
    "name": "Scania Schweiz AG",
    "strasse": "Buechmattstrasse 11",
    "plz": 8645,
    "ort": "Jona",
    "marke": "KYBURZ",
    "lat": "47,22604685",
    "lng": "8,868336045"
  },
  {
    "name": "Scania Schweiz AG",
    "strasse": "Hauptstrasse 19",
    "plz": 4853,
    "ort": "Murgenthal",
    "marke": "VRBIKES",
    "lat": "47,283984",
    "lng": "7,84900457"
  },
  {
    "name": "Scania Schweiz AG",
    "strasse": "Netzibodenstrasse 29",
    "plz": 4133,
    "ort": "Pratteln",
    "marke": "MERCEDES",
    "lat": "47,5327929",
    "lng": "7,7054252"
  },
  {
    "name": "Scania Schweiz AG",
    "strasse": "Gennersbrunnerstrasse 69",
    "plz": 8207,
    "ort": "Schaffhausen",
    "marke": "BMW",
    "lat": "47,7152925",
    "lng": "8,6647878"
  },
  {
    "name": "Scania Schweiz AG",
    "strasse": "Grubenstrasse 9",
    "plz": 3322,
    "ort": "Urtenen-Schönbühl",
    "marke": "BMW",
    "lat": "47,0201318",
    "lng": "7,503494065"
  },
  {
    "name": "Scania Suisse SA",
    "strasse": "route d'Ecublens 26",
    "plz": 1026,
    "ort": "Echandens",
    "marke": "MINI",
    "lat": "46,5359613",
    "lng": "6,5476709"
  },
  {
    "name": "Schachengarage AG",
    "strasse": "Looweg 2",
    "plz": 9463,
    "ort": "Oberriet SG",
    "marke": "BMW",
    "lat": "47,322279",
    "lng": "9,565406475"
  },
  {
    "name": "Schär Elektrofahrzeuge GmbH",
    "strasse": "Lindengasse 12",
    "plz": 5042,
    "ort": "Hirschthal",
    "marke": "BMW",
    "lat": "47,32112225",
    "lng": "8,0522147"
  },
  {
    "name": "W. Schärer Schlossgarage AG",
    "strasse": "Lindenstrasse 23",
    "plz": 3367,
    "ort": "Thörigen",
    "marke": "MINI",
    "lat": "47,16815795",
    "lng": "7,731119858"
  },
  {
    "name": "W. Schärer Bahnhof-Garage AG",
    "strasse": "Buchsistrasse 1",
    "plz": 3380,
    "ort": "Wangen an der Aare",
    "marke": "BMW",
    "lat": "47,22940015",
    "lng": "7,65431612"
  },
  {
    "name": "Schärli + Bossert AG",
    "strasse": "Hackenrüti 10",
    "plz": 6110,
    "ort": "Wolhusen",
    "marke": "2-RAD",
    "lat": "47,05508655",
    "lng": "8,085824495"
  },
  {
    "name": "Scheidweg-Garage AG",
    "strasse": "Gontenstrasse 1",
    "plz": 9050,
    "ort": "Appenzell",
    "marke": "KYBURZ",
    "lat": "47,3314827",
    "lng": "9,39601638"
  },
  {
    "name": "Garage Scheuber",
    "strasse": "Pilatusstrasse 25",
    "plz": 5630,
    "ort": "Muri AG",
    "marke": "VRBIKES",
    "lat": "47,2617774",
    "lng": "8,352229507"
  },
  {
    "name": "Garage Schmid",
    "strasse": "Sternenhofstrasse 13a",
    "plz": 4153,
    "ort": "Reinach BL",
    "marke": "DACIA",
    "lat": "47,4891478",
    "lng": "7,596038"
  },
  {
    "name": "Schmid-Garage AG",
    "strasse": "Kirchbergerstrasse 36",
    "plz": 9534,
    "ort": "Gähwil",
    "marke": "RENAULT",
    "lat": "47,39712635",
    "lng": "9,006567122"
  },
  {
    "name": "Garage Schmitt SA",
    "strasse": "Avenue Mayor-Vautier 10",
    "plz": 1815,
    "ort": "Clarens",
    "marke": "DACIA",
    "lat": "46,4424871",
    "lng": "6,895071689"
  },
  {
    "name": "Schneeberger AG Automobile",
    "strasse": "Zürichstrasse 37",
    "plz": 4922,
    "ort": "Bützberg",
    "marke": "RENAULT",
    "lat": "47,21766925",
    "lng": "7,756051696"
  },
  {
    "name": "Bahnhof-Garage Leo Schnyder AG",
    "strasse": "Hauptstrasse 39",
    "plz": 6170,
    "ort": "Schüpfheim",
    "marke": "MAZDA",
    "lat": "46,9502427",
    "lng": "8,016158476"
  },
  {
    "name": "Schönenberger Auto-Elektro GmbH",
    "strasse": "Brunngasse 12",
    "plz": 4463,
    "ort": "Buus",
    "marke": "POLESTAR",
    "lat": "47,507545",
    "lng": "7,865861015"
  },
  {
    "name": "Garage Schuwey SA",
    "strasse": "rue de l'Ancien Comte 105",
    "plz": 1635,
    "ort": "La Tour-de-Trême",
    "marke": "VOLVO",
    "lat": "46,6050302",
    "lng": "7,0702149"
  },
  {
    "name": "Schweri Zweirad",
    "strasse": "Hauptstrasse 14",
    "plz": 8259,
    "ort": "Wagenhausen",
    "marke": "OPEL",
    "lat": "47,6590777",
    "lng": "8,8511519"
  },
  {
    "name": "Garage Sédunois SA",
    "strasse": "Route de Riddes 115",
    "plz": 1950,
    "ort": "Sion",
    "marke": "SUZUKI",
    "lat": "46,2212193",
    "lng": "7,3655814"
  },
  {
    "name": "Seegarage Müller AG",
    "strasse": "Seestrasse 340",
    "plz": 8810,
    "ort": "Horgen",
    "marke": "DACIA",
    "lat": "47,2531303",
    "lng": "8,6194521"
  },
  {
    "name": "Automobiles Senn SA",
    "strasse": "Crêtets 90",
    "plz": 2301,
    "ort": "La Chaux-de-Fonds",
    "marke": "MAXUS",
    "lat": "47,09440035",
    "lng": "6,821306934"
  },
  {
    "name": "Automobiles Senn SA",
    "strasse": "Rue de la Pierre-à-Mazel 25",
    "plz": 2000,
    "ort": "Neuchâtel",
    "marke": "MG",
    "lat": "46,99488138",
    "lng": "6,941024507"
  },
  {
    "name": "Automobiles Senn SA",
    "strasse": "Champ de la Croix",
    "plz": 2075,
    "ort": "Thielle",
    "marke": "RENAULT",
    "lat": "47,0193599",
    "lng": "7,026964"
  },
  {
    "name": "Sepp Fässler AG",
    "strasse": "Feldstrasse 11",
    "plz": 9050,
    "ort": "Appenzell",
    "marke": "PEUGEOT",
    "lat": "47,334256",
    "lng": "9,404237801"
  },
  {
    "name": "Sepp Fässler (Wil) AG",
    "strasse": "Flawilerstrasse 23",
    "plz": 9500,
    "ort": "Wil SG",
    "marke": "POLESTAR",
    "lat": "47,4523208",
    "lng": "9,0532989"
  },
  {
    "name": "Auto Sidler AG",
    "strasse": "Brünigstrasse 109",
    "plz": 6060,
    "ort": "Sarnen",
    "marke": "VOLVO",
    "lat": "46,89931605",
    "lng": "8,246686985"
  },
  {
    "name": "Garage Siegenthaler AG",
    "strasse": "Höhenstrasse 2",
    "plz": 9555,
    "ort": "Tobel",
    "marke": "FORD",
    "lat": "47,5124184",
    "lng": "9,03097595"
  },
  {
    "name": "Romeo Solidoro Auto-Garage Solidoro Carrosserie",
    "strasse": "Zürcherstrasse 73",
    "plz": 8800,
    "ort": "Thalwil",
    "marke": "2-RAD",
    "lat": "47,285635",
    "lng": "8,563142808"
  },
  {
    "name": "Spring - Bächler AG",
    "strasse": "Galteren 19",
    "plz": 1712,
    "ort": "Tafers",
    "marke": "KYBURZ",
    "lat": "46,8029012",
    "lng": "7,2279951"
  },
  {
    "name": "Auto Zentrum St.Margrethen AG",
    "strasse": "Nebengraben 5",
    "plz": 9430,
    "ort": "St. Margrethen SG",
    "marke": "VRBIKES",
    "lat": "47,45936725",
    "lng": "9,612777546"
  },
  {
    "name": "Garage Stadio SA",
    "strasse": "Via alla Bozzoreda 49",
    "plz": 6963,
    "ort": "Pregassona",
    "marke": "OPEL",
    "lat": "46,0228051",
    "lng": "8,969487357"
  },
  {
    "name": "Autohaus Steffen AG",
    "strasse": "Länggasse 3",
    "plz": 6208,
    "ort": "Oberkirch LU",
    "marke": "DACIA",
    "lat": "47,15136285",
    "lng": "8,115828931"
  },
  {
    "name": "Steinbach Garage AG",
    "strasse": "Steinbachstrasse 39",
    "plz": 3123,
    "ort": "Belp",
    "marke": "RENAULT",
    "lat": "46,8969731",
    "lng": "7,490779804"
  },
  {
    "name": "Garage Steiner AG",
    "strasse": "Eystrasse 6",
    "plz": 3427,
    "ort": "Utzenstorf",
    "marke": "POLESTAR",
    "lat": "47,12664505",
    "lng": "7,552939728"
  },
  {
    "name": "Steiner Group AG",
    "strasse": "Fluhmühle 9",
    "plz": 6015,
    "ort": "Luzern",
    "marke": "VOLVO",
    "lat": "47,0576008",
    "lng": "8,285337926"
  },
  {
    "name": "Steiner Group AG Filiale Kriens",
    "strasse": "Horwerstrasse 70",
    "plz": 6010,
    "ort": "Kriens",
    "marke": "ALFA ROMEO",
    "lat": "47,02838035",
    "lng": "8,293686984"
  },
  {
    "name": "Steiner Group AG Filiale Nebikon",
    "strasse": "Vorstatt 28",
    "plz": 6244,
    "ort": "Nebikon",
    "marke": "JAGUAR",
    "lat": "47,18901235",
    "lng": "7,973966455"
  },
  {
    "name": "Steiner Tech AG",
    "strasse": "Gehracker 2",
    "plz": 3042,
    "ort": "Ortschwaben",
    "marke": "JEEP",
    "lat": "46,9949881",
    "lng": "7,4038579"
  },
  {
    "name": "Pierre Steulet SA",
    "strasse": "route de Delémont 115",
    "plz": 2802,
    "ort": "Develier",
    "marke": "LAND ROVER",
    "lat": "47,362332",
    "lng": "7,3133742"
  },
  {
    "name": "Garage O. Stock AG",
    "strasse": "Kantonsstrasse 152",
    "plz": 7205,
    "ort": "Zizers",
    "marke": "MASERATI",
    "lat": "46,9277785",
    "lng": "9,562172226"
  },
  {
    "name": "Strack AG",
    "strasse": "Ebnatstrasse 125",
    "plz": 8200,
    "ort": "Schaffhausen",
    "marke": "MITSUBISHI",
    "lat": "47,71072215",
    "lng": "8,651245622"
  },
  {
    "name": "Stratos Automobile AG",
    "strasse": "Bildstrasse 3",
    "plz": 9030,
    "ort": "Abtwil SG",
    "marke": "OPEL",
    "lat": "47,4171367",
    "lng": "9,3123782"
  },
  {
    "name": "Garage Ruedi Strub AG",
    "strasse": "Weiermatt 1",
    "plz": 4446,
    "ort": "Buckten",
    "marke": "SUBARU",
    "lat": "47,4154257",
    "lng": "7,844331652"
  },
  {
    "name": "Suhre Garage AG Fam. H.Roth",
    "strasse": "Holzikerstrasse 14",
    "plz": 5040,
    "ort": "Schöftland",
    "marke": "SUZUKI",
    "lat": "47,3125188",
    "lng": "8,047246687"
  },
  {
    "name": "Garage Sulser AG",
    "strasse": "St. Gallerstrasse 19",
    "plz": 9470,
    "ort": "Buchs SG",
    "marke": "CITROEN",
    "lat": "47,1660379",
    "lng": "9,467513"
  },
  {
    "name": "Garage Susten AG",
    "strasse": "Kantonsstrasse 12",
    "plz": 3952,
    "ort": "Susten",
    "marke": "KIA",
    "lat": "46,31056295",
    "lng": "7,643713845"
  },
  {
    "name": "Garage Suter AG",
    "strasse": "Hauptstrasse 278",
    "plz": 3852,
    "ort": "Ringgenberg BE",
    "marke": "LEXUS",
    "lat": "46,7059233",
    "lng": "7,904016119"
  },
  {
    "name": "Garage Tanner AG",
    "strasse": "Auerstrasse 45",
    "plz": 9435,
    "ort": "Heerbrugg",
    "marke": "MAZDA",
    "lat": "47,4175209",
    "lng": "9,632244247"
  },
  {
    "name": "Th. Willy AG Auto-Zentrum, Schlieren",
    "strasse": "Zürcherstrasse 145",
    "plz": 8952,
    "ort": "Schlieren",
    "marke": "MITSUBISHI",
    "lat": "47,3964334",
    "lng": "8,467153438"
  },
  {
    "name": "Thomann Nutzfahrzeuge AG",
    "strasse": "Blumenaustrasse 11",
    "plz": 9320,
    "ort": "Arbon",
    "marke": "OPEL",
    "lat": "47,4975559",
    "lng": "9,419072889"
  },
  {
    "name": "Thomann Nutzfahrzeuge AG",
    "strasse": "Juchstrasse 45",
    "plz": 8500,
    "ort": "Frauenfeld",
    "marke": "PEUGEOT",
    "lat": "47,5721381",
    "lng": "8,913852976"
  },
  {
    "name": "Thomann Nutzfahrzeuge AG",
    "strasse": "Allmeindstrasse 10",
    "plz": 8716,
    "ort": "Schmerikon",
    "marke": "SUBARU",
    "lat": "47,225226",
    "lng": "8,947343337"
  },
  {
    "name": "Tognetti Auto SA",
    "strasse": "via San Gottardo 139",
    "plz": 6596,
    "ort": "Gordola",
    "marke": "SUZUKI",
    "lat": "46,18077212",
    "lng": "8,862513016"
  },
  {
    "name": "Garage Tondo AG",
    "strasse": "Industriestrasse 86",
    "plz": 7310,
    "ort": "Bad Ragaz",
    "marke": "TOYOTA",
    "lat": "47,0145849",
    "lng": "9,496813823"
  },
  {
    "name": "Top Garage Fischenthal AG",
    "strasse": "Tösstalstrasse 263",
    "plz": 8497,
    "ort": "Fischenthal",
    "marke": "CITROEN",
    "lat": "47,33801965",
    "lng": "8,925798548"
  },
  {
    "name": "Garage Tornisello AG",
    "strasse": "Kornweg 17A",
    "plz": 4665,
    "ort": "Oftringen",
    "marke": "PEUGEOT",
    "lat": "47,30623955",
    "lng": "7,932580435"
  },
  {
    "name": "Garage Torretta SA",
    "strasse": "via San Gottardo 109",
    "plz": 6500,
    "ort": "Bellinzona",
    "marke": "ABARTH",
    "lat": "46,20169948",
    "lng": "9,03339153"
  },
  {
    "name": "Touring-Garage AG Huttwil",
    "strasse": "Luzernstrasse 76",
    "plz": 4950,
    "ort": "Huttwil",
    "marke": "ALFA ROMEO",
    "lat": "47,11454455",
    "lng": "7,865977687"
  },
  {
    "name": "Touring-Garage Luggen AG",
    "strasse": "Laubisrütistrasse 68",
    "plz": 8712,
    "ort": "Stäfa",
    "marke": "BMW",
    "lat": "47,23835335",
    "lng": "8,749120475"
  },
  {
    "name": "Auto-Trachsler AG",
    "strasse": "Pfäffikerstrasse 48",
    "plz": 8623,
    "ort": "Wetzikon ZH",
    "marke": "CHRYSLER",
    "lat": "47,3366478",
    "lng": "8,812012795"
  },
  {
    "name": "Transit-Garage Müller AG",
    "strasse": "Gotthardstrasse 8",
    "plz": 6410,
    "ort": "Goldau",
    "marke": "CITROEN",
    "lat": "47,0511333",
    "lng": "8,543228406"
  },
  {
    "name": "Truck Center Mittelland AG Nutzfahrzeuge",
    "strasse": "Pfannenstiel 2",
    "plz": 4624,
    "ort": "Härkingen",
    "marke": "DAIHATSU",
    "lat": "47,3149638",
    "lng": "7,8135742"
  },
  {
    "name": "Truck Center Valais AG",
    "strasse": "Littenstrasse 7",
    "plz": 3970,
    "ort": "Salgesch",
    "marke": "DODGE",
    "lat": "46,3036752",
    "lng": "7,5686239"
  },
  {
    "name": "Trucks Vans Solutions SA",
    "strasse": "route André-Piller 46",
    "plz": 1762,
    "ort": "Givisiez",
    "marke": "DS",
    "lat": "46,81257345",
    "lng": "7,116786326"
  },
  {
    "name": "Claude Urfer SA",
    "strasse": "Rue du Levant 171",
    "plz": 1920,
    "ort": "Martigny",
    "marke": "FIAT",
    "lat": "46,1066048",
    "lng": "7,0996476"
  },
  {
    "name": "Claude Urfer SA",
    "strasse": "Route du Simplon 58",
    "plz": 3960,
    "ort": "Sierre",
    "marke": "FIAT PROFESSIONAL",
    "lat": "46,2535331",
    "lng": "7,4248446"
  },
  {
    "name": "Claude Urfer SA",
    "strasse": "Chemin Saint-Hubert 12",
    "plz": 1950,
    "ort": "Sion",
    "marke": "FORD",
    "lat": "46,223135",
    "lng": "7,3489742"
  },
  {
    "name": "Vasellari AG",
    "strasse": "Bienenweg 10",
    "plz": 4313,
    "ort": "Möhlin",
    "marke": "JAGUAR",
    "lat": "47,5581536",
    "lng": "7,844172903"
  },
  {
    "name": "VI Véhicules Industriels SA",
    "strasse": "route de la Plâtrière 17",
    "plz": 1907,
    "ort": "Saxon",
    "marke": "JEEP",
    "lat": "46,1403813",
    "lng": "7,1594584"
  },
  {
    "name": "Garage Viatte-Straub AG",
    "strasse": "Aesplistrasse 1",
    "plz": 4562,
    "ort": "Biberist",
    "marke": "KIA",
    "lat": "47,1907736",
    "lng": "7,5530826"
  },
  {
    "name": "VM Cars GmbH",
    "strasse": "Talstrasse 4",
    "plz": 6372,
    "ort": "Ennetmoos",
    "marke": "LANCIA",
    "lat": "46,9553061",
    "lng": "8,334385655"
  },
  {
    "name": "Vogelsang AG Garage + Carrosserie",
    "strasse": "Bielstrasse 85-89",
    "plz": 2540,
    "ort": "Grenchen",
    "marke": "LAND ROVER",
    "lat": "47,18885452",
    "lng": "7,387017695"
  },
  {
    "name": "Vogt Automobile AG",
    "strasse": "Gewerbestrasse 9",
    "plz": 8162,
    "ort": "Steinmaur",
    "marke": "LEXUS",
    "lat": "47,4885507",
    "lng": "8,4472916"
  },
  {
    "name": "Volvo Group (Schweiz) AG Truck Center Aclens",
    "strasse": "Route de la Venoge 3",
    "plz": 1123,
    "ort": "Aclens",
    "marke": "MINI",
    "lat": "46,562926",
    "lng": "6,524795622"
  },
  {
    "name": "Volvo Group (Schweiz) AG Truck Center Egerkingen",
    "strasse": "Industriestrasse 26",
    "plz": 4622,
    "ort": "Egerkingen",
    "marke": "OPEL",
    "lat": "47,3145354",
    "lng": "7,789114695"
  },
  {
    "name": "Volvo Group (Schweiz) AG Truck Center Dällikon",
    "strasse": "Lindenstrasse 6",
    "plz": 8108,
    "ort": "Dällikon",
    "marke": "POLESTAR",
    "lat": "47,44799655",
    "lng": "8,435012474"
  },
  {
    "name": "Volvo Group (Schweiz) AG Truck Center Inwil",
    "strasse": "Industriestrasse 48",
    "plz": 6034,
    "ort": "Inwil",
    "marke": "...",
    "lat": "47,1178155",
    "lng": "8,348190198"
  },
  {
    "name": "Volvo Group (Schweiz) AG Trucks Center Münchenbuchsee",
    "strasse": "Moosrainweg 12",
    "plz": 3053,
    "ort": "Münchenbuchsee",
    "marke": "FORD",
    "lat": "47,03028225",
    "lng": "7,435738003"
  },
  {
    "name": "Volvo Group (Schweiz) AG Truck Center Winterthur",
    "strasse": "Wülflingerstrasse 149",
    "plz": 8408,
    "ort": "Winterthur",
    "marke": "BMW",
    "lat": "47,50785745",
    "lng": "8,704697942"
  },
  {
    "name": "Volvo Group (Schweiz) SA Succursale Truck Center Cornaux",
    "strasse": "Route des Prés-Bersot 31",
    "plz": 2087,
    "ort": "Cornaux NE",
    "marke": "MINI",
    "lat": "47,03701855",
    "lng": "7,024128646"
  },
  {
    "name": "Volvo Group (Schweiz) AG Truck Center Niederuzwil",
    "strasse": "Hirzenstrasse 4",
    "plz": 9244,
    "ort": "Niederuzwil",
    "marke": "CITROEN",
    "lat": "47,4433479",
    "lng": "9,147879756"
  },
  {
    "name": "Vorort-Garage AG",
    "strasse": "Zürichstrasse 61",
    "plz": 8184,
    "ort": "Bachenbülach",
    "marke": "DS",
    "lat": "47,5067845",
    "lng": "8,545000772"
  },
  {
    "name": "Vorstadt-Garage Ilardo AG",
    "strasse": "Hunnenweg 1",
    "plz": 4500,
    "ort": "Solothurn",
    "marke": "OPEL",
    "lat": "47,19911995",
    "lng": "7,533076595"
  },
  {
    "name": "VRA AG",
    "strasse": "Steinachermatt 1",
    "plz": 5033,
    "ort": "Buchs AG",
    "marke": "JEEP",
    "lat": "47,3963502",
    "lng": "8,0726927"
  },
  {
    "name": "vRbikes.ch ag",
    "strasse": "Bahnhofstrasse 23",
    "plz": 6300,
    "ort": "Zug",
    "marke": "KIA",
    "lat": "47,1700546",
    "lng": "8,5156839"
  },
  {
    "name": "VUD Romandie SA",
    "strasse": "Route d'Yverdon 34",
    "plz": 1373,
    "ort": "Chavornay",
    "marke": "LEXUS",
    "lat": "46,7146803",
    "lng": "6,575401562"
  },
  {
    "name": "Garage Vuilleumier Sarl",
    "strasse": "rue de Tramelan 2",
    "plz": 2710,
    "ort": "Tavannes",
    "marke": "MITSUBISHI",
    "lat": "47,22055685",
    "lng": "7,198263052"
  },
  {
    "name": "Walker Fahrzeugtechnik AG",
    "strasse": "Furkastrasse 140b",
    "plz": 3904,
    "ort": "Naters",
    "marke": "SUZUKI",
    "lat": "46,3276926",
    "lng": "8,010692576"
  },
  {
    "name": "Garage Walker GmbH",
    "strasse": "Ried 2B",
    "plz": 6467,
    "ort": "Schattdorf",
    "marke": "TOYOTA",
    "lat": "46,8548845",
    "lng": "8,640677966"
  },
  {
    "name": "Walter Streuli AG Sandhof-Garage",
    "strasse": "Schönenbergstrasse 139",
    "plz": 8820,
    "ort": "Wädenswil",
    "marke": "MERCEDES-BENZ NF",
    "lat": "47,2190675",
    "lng": "8,669760228"
  },
  {
    "name": "Walter Streuli AG Garage Altendorf",
    "strasse": "Churerstrasse 66",
    "plz": 8852,
    "ort": "Altendorf",
    "marke": "JAGUAR",
    "lat": "47,19002395",
    "lng": "8,843511253"
  },
  {
    "name": "We Automobile Sàrl",
    "strasse": "Rue des Grands-Prés 2",
    "plz": 1964,
    "ort": "Conthey",
    "marke": "LAND ROVER",
    "lat": "46,2257824",
    "lng": "7,2943748"
  },
  {
    "name": "Garage Weber-Monaco SA",
    "strasse": "Via Kosciuszko 4A",
    "plz": 6943,
    "ort": "Vezia",
    "marke": "LEXUS",
    "lat": "46,02962783",
    "lng": "8,938420929"
  },
  {
    "name": "Centralgarage Weinfelden AG",
    "strasse": "Walkestrasse 27",
    "plz": 8570,
    "ort": "Weinfelden",
    "marke": "MITSUBISHI",
    "lat": "47,5657994",
    "lng": "9,100197383"
  },
  {
    "name": "Garage Carrosserie Welti AG",
    "strasse": "Militärstrasse 12",
    "plz": 6467,
    "ort": "Schattdorf",
    "marke": "SUZUKI",
    "lat": "46,8579799",
    "lng": "8,642655749"
  },
  {
    "name": "Garage Wenger AG",
    "strasse": "Wychelstrasse 32",
    "plz": 3800,
    "ort": "Interlaken",
    "marke": "TOYOTA",
    "lat": "46,6808275",
    "lng": "7,859011943"
  },
  {
    "name": "Wheelpower GmbH",
    "strasse": "Fliegeneggstrasse 7",
    "plz": 9555,
    "ort": "Tobel",
    "marke": "VOLVO",
    "lat": "47,515527",
    "lng": "9,030003304"
  },
  {
    "name": "Wiaz AG",
    "strasse": "St. Gallerstrasse 29",
    "plz": 9524,
    "ort": "Zuzwil SG",
    "marke": "LEXUS",
    "lat": "47,46892345",
    "lng": "9,108701958"
  },
  {
    "name": "J. Windlin AG",
    "strasse": "Stanserstrasse 113",
    "plz": 6064,
    "ort": "Kerns",
    "marke": "SUBARU",
    "lat": "46,9100038",
    "lng": "8,293167208"
  },
  {
    "name": "J. Windlin AG Garage",
    "strasse": "Sternmatt 10",
    "plz": 6010,
    "ort": "Kriens",
    "marke": "SUZUKI",
    "lat": "47,0290396",
    "lng": "8,298387546"
  },
  {
    "name": "J. Windlin AG",
    "strasse": "Vorderschlund 1",
    "plz": 6010,
    "ort": "Kriens",
    "marke": "TOYOTA",
    "lat": "47,0241544",
    "lng": "8,292768299"
  },
  {
    "name": "Autocenter Winkeln GmbH",
    "strasse": "Ikarusstrasse 2",
    "plz": 9015,
    "ort": "St. Gallen",
    "marke": "CITROEN",
    "lat": "47,4042403",
    "lng": "9,304578225"
  },
  {
    "name": "Garage Wirz AG",
    "strasse": "Netzenstrasse 8",
    "plz": 4450,
    "ort": "Sissach",
    "marke": "JAGUAR",
    "lat": "47,467436",
    "lng": "7,800866074"
  },
  {
    "name": "Yersin Automobiles et Voyages SA",
    "strasse": "Grand-Rue 94b",
    "plz": 1660,
    "ort": "Château-d'Oex",
    "marke": "KIA",
    "lat": "46,47644305",
    "lng": "7,141574489"
  },
  {
    "name": "Zbinden AG Hägendorf",
    "strasse": "Oltnerstrasse 18",
    "plz": 4614,
    "ort": "Hägendorf",
    "marke": "LAND ROVER",
    "lat": "47,3348874",
    "lng": "7,849274329"
  },
  {
    "name": "Zentrum-Garage AG",
    "strasse": "Hauptstrasse 36",
    "plz": 3186,
    "ort": "Düdingen",
    "marke": "MITSUBISHI",
    "lat": "46,8487588",
    "lng": "7,189684751"
  },
  {
    "name": "Zil-Garage St. Gallen Garage Hirn Gruppe",
    "strasse": "Zilstrasse 79",
    "plz": 9016,
    "ort": "St. Gallen",
    "marke": "SUZUKI",
    "lat": "47,4429393",
    "lng": "9,413000836"
  },
  {
    "name": "Garage Zimmerli Aarau AG",
    "strasse": "Hauptstrasse 1",
    "plz": 5032,
    "ort": "Aarau Rohr",
    "marke": "BMW",
    "lat": "47,3994296",
    "lng": "8,072248128"
  },
  {
    "name": "Garage Zimmerli AG",
    "strasse": "Hendschikerstrasse 9",
    "plz": 5600,
    "ort": "Lenzburg",
    "marke": "MINI",
    "lat": "47,39030985",
    "lng": "8,183611101"
  },
  {
    "name": "Zollhaus & Paoluzzo AutomoBiel GmbH",
    "strasse": "Guglerstrasse 6",
    "plz": 2560,
    "ort": "Nidau",
    "marke": "BENTLEY",
    "lat": "47,1257111",
    "lng": "7,250490511"
  },
  {
    "name": "Auto Zollikofer AG",
    "strasse": "Rorschacherstrasse 284",
    "plz": 9016,
    "ort": "St. Gallen",
    "marke": "FORD",
    "lat": "47,44286005",
    "lng": "9,41472059"
  },
  {
    "name": "Zugerland Verkehrsbetriebe AG",
    "strasse": "General-Guisan-Strasse",
    "plz": 6304,
    "ort": "Zug",
    "marke": "JAGUAR",
    "lat": "47,17488738",
    "lng": "8,510674239"
  }
]